Name,Main Address,Type,Website Address,Telephone Number,Specialist,Partner Status,Experience,Certification,Certification,Certification,Facebook,Twitter,Linkedin,Name,Position,Industries Served,Connected Apps,Office Address Number 1,Office Address Telephone number 1,Office Address Number 2,Office Address Telephone number 2,Office Address Number 3,Office Address Telephone number 3,Office Address Number 4,Office Address Telephone number 4,Office Address Number 5,Office Address Telephone number 5,Office Address Number 6,Office Address Telephone number 6,Office Address Number 7,Office Address Telephone number 7,Office Address Number 8,Office Address Telephone number 8,Office Address Number 9,Office Address Telephone number 9,Office Address Number 10,Office Address Telephone number 10
Egia Financial Limited,"4 Galachlawshot, Edinburgh, Scotland",Accountant,http://www.egiafinancial.com,+44 7515408113,Making Tax Digital Ready,Bronze partner,Partner since 2018,Xero payroll certified,Xero migration certified,Xero advisor certified,https://www.facebook.com/egiafinancial/,,https://www.linkedin.com/company/11684364/admin/,Hannah Flook,Chartered Accountant (CA),,Receipt Bank,"4 Galachlawshot, Edinburgh, EH10 7JF, Scotland",+44 7515408113,,,,,,,,,,,,,,,,,,
Professional Bookkeeping Services,"Gallowhill Road, Kirkintilloch, Scotland",Bookkeeper,http://www.professionalbookkeepingservices.co.uk,+44 7539733637,Making Tax Digital Ready,Bronze champion partner,Partner since 2016,Xero advisor certified,Xero payroll certified,Xero migration certified,https://www.facebook.com/pbookkeepingservices/#,https://www.twitter.com/DonnaWi13544353,,Donna Wilson,Bookkeeper,Repairs and personal services,"AutoEntry, 
Xavier Analytics, 
Datamolino, 
Hubdoc","Gallowhill Road, Kirkintilloch, G66 4AJ, Scotland",+44 7539733637,"DG11 2SE, Lockerbie, DG11 2SE, Scotland",+44 7539733637,,,,,,,,,,,,,,,,
Bookcrunchers Bookkeeping Services,"28 Truscott Avenue, Blunsdon Saint Andrew",Bookkeeper,http://www.bookcrunchers.co.uk,+44 7581701568,Making Tax Digital Ready,Bronze champion partner,Partner since 2014,Xero payroll certified,Xero migration certified,Xero advisor certified,,,,,,,,"28 Truscott Avenue, Blunsdon Saint Andrew, SN25 2GR",+44 7581701568,,,,,,,,,,,,,,,,,,
Fingertips Finance Ltd,"Southville Close, Ewell, England",Bookkeeper,http://www.fingertipsfinance.co.uk,+44 (0)1372613000,Making Tax Digital Ready,Bronze partner,Partner since 2018,Xero advisor certified,Xero payroll certified,Xero migration certified,https://www.facebook.com/FingertipsF,https://www.twitter.com/fingertipsF,,Katrina Yates,Director,,,"Southville Close, Ewell, KT19, England",+44 (0)1372613000,,,,,,,,,,,,,,,,,,
AR & HR Services,"31 Redford Drive, Edinburgh, Scotland",Bookkeeper,,,Making Tax Digital Ready,Bronze champion partner,Partner since 2016,Xero migration certified,Xero advisor certified,,,,,,,,,"31 Redford Drive, Edinburgh, EH13 0BG, Scotland",+44 7913060842,,,,,,,,,,,,,,,,,,
RX Accountancy Ltd,"Widnes, Widnes, England",Accountant,,,Making Tax Digital Ready,Bronze champion partner,Partner since 2018,Xero migration certified,Xero advisor certified,Xero payroll certified,http://facebook.com/RXAccountancy,,,,,,,"Widnes, Widnes, England",,,,,,,,,,,,,,,,,,,
E M Accounting Solutions Ltd,"6 Wolfreton Drive, McMillan House, Anlaby, England",Accountant,http://www.emaccountingsolutions.co.uk,+44 7849164987,Making Tax Digital Ready,Bronze partner,Partner since 2018,Xero migration certified,Xero advisor certified,,,,,Emma Ransom,Accountant,Construction and trades,,"6 Wolfreton Drive, McMillan House, Anlaby, HU10 7BY, England",+44 7849164987,,,,,,,,,,,,,,,,,,
South Wales Accounting Services,"14 Rhyd-Y-Gwern Close, Rudry, Cymru",Bookkeeper,http://www.swas.online,+44 2920864838,,Bronze champion partner,Partner since 2016,Xero advisor certified,Xero migration certified,,,,,,,,"DEAR Inventory, 
Receipt Bank","14 Rhyd-Y-Gwern Close, Rudry, CF83 3NN, Cymru",+44 2920864838,,,,,,,,,,,,,,,,,,
ERAA Consulting Limited,"299 Romford Road, London, England",Accountant,http://www.eraaconsulting.co.uk,+44 7400439071,Making Tax Digital Ready,Bronze champion partner,Partner since 2015,Xero migration certified,Xero advisor certified,Xero payroll certified,https://www.facebook.com/Youraccountants,https://www.twitter.com/gprofessionala,https://uk.linkedin.com/in/eraaaccountants,Ejaz Ul Haq,Managing Director,E-commerce,,"299 Romford Road, London, E7, England",+44 7400439071,,,,,,,,,,,,,,,,,,
Steel Cap Consulting,"Goodwood Close, Shotley Bridge, England",Bookkeeper,https://steelcap.uk/,+44 7711436335,,Bronze champion partner,Partner since 2015,Xero advisor certified,,,https://www.facebook.com/steelcapuk/?pnref=about.overview,https://www.twitter.com/steelcapuk,https://www.linkedin.com/in/amanda-murray-20aaa37,Amanda Murray,,Professional services,"Receipt Bank, 
Entryless","Goodwood Close, Shotley Bridge, DH8 0UF, England",+44 7711436335,,,,,,,,,,,,,,,,,,
Steel Cap Consulting,"Goodwood Close, Shotley Bridge, England",Bookkeeper,https://steelcap.uk/,+44 7711436335,,Bronze champion partner,Partner since 2015,Xero advisor certified,,,https://www.facebook.com/steelcapuk/?pnref=about.overview,https://www.twitter.com/steelcapuk,https://www.linkedin.com/in/amanda-murray-20aaa37,Adele Hulett,Accounts Assistant,Professional services,"Receipt Bank, 
Entryless","Goodwood Close, Shotley Bridge, DH8 0UF, England",+44 7711436335,,,,,,,,,,,,,,,,,,
Michael Paul Accountants,"Old Road, Studio 2, Lamport Manor, Lamport, England",Accountant,http://www.mpaccountants.co.uk/,+44 01604 686152,,Bronze champion partner,Partner since 2015,Xero payroll certified,Xero migration certified,Xero advisor certified,,,,Paul Marks,Partner,,,"Old Road, Studio 2, Lamport Manor, Lamport, NN6 9HF, England",+44 01604 686152,,,,,,,,,,,,,,,,,,
JRS Bookkeeping,"JRS Bookkeeping, Downpatrick, Northern Ireland",Accountant,http://www.jrsbookkeeping.co.uk,+44 7776157229,Making Tax Digital Ready,Bronze champion partner,Partner since 2014,Xero advisor certified,Xero migration certified,Xero payroll certified,http://www.facebook.co.uk/jrsbook,https://www.twitter.com/jrsbookkeeping1,http://www.linkedin.com/in/joanne-saunders-aicb-cb-pm-7466b646,,,Repairs and personal services,AutoEntry,"JRS Bookkeeping, Downpatrick, BT30 8FB, Northern Ireland",+44 7776157229,,,,,,,,,,,,,,,,,,
Jo Routh - Bookkeeping,"Station Road, Healing, England",Accountant,#,+44 07840 984908,Making Tax Digital Ready,Bronze champion partner,Partner since 2017,Xero advisor certified,Xero payroll certified,Xero migration certified,https://www.facebook.com/pg/jorouthbookkeeping,https://www.twitter.com/jo_routhMAAT,http://www.linkedin.com/in/joanne-routh-maat-b63365136,Joanne Routh,Accountant,,"Receipt Bank, 
AutoEntry","Station Road, Healing, DN41, England",+44 07840 984908,,,,,,,,,,,,,,,,,,
Grover & Co. Chartered Accountants,"Uxbridge Road, Near Ealing, west London, London, England",Accountant,http://www.london-school-of-accountancy.com,+44 02085677733,,Bronze partner,Partner since 2017,Xero advisor certified,Xero migration certified,Xero payroll certified,,,,,,,,"Uxbridge Road, Near Ealing, west London, London, W7 3TH, England",+44 02085677733,,,,,,,,,,,,,,,,,,
LSC London Ltd,"1 Filament Walk, 318 The Light Bulb, London, England",Bookkeeper,http://www.lsclondon.co,+44 2031762060,,Bronze partner,Partner since 2018,Xero advisor certified,,,,,,ROBERT SCRAFTON,Managing Director,"Marketing, advertising and consulting",,"1 Filament Walk, 318 The Light Bulb, London, SW18 4GQ, England",+44 2031762060,,,,,,,,,,,,,,,,,,
SAFCOM services,"15 Water Glades Close, Stoke-on-Trent, England",Bookkeeper,http://safcomservices.co.uk,+44 7701092007,Making Tax Digital Ready,Bronze partner,Partner since 2018,Xero advisor certified,Xero migration certified,Xero payroll certified,,,,Farid ud din Lodhi,Director,,,"15 Water Glades Close, Stoke-on-Trent, ST1 5GE, England",+44 7701092007,,,,,,,,,,,,,,,,,,
Quest Duthoit,"19 Farncombe Road, Worthing, England",Accountant,http://www.quest-duthoit.co.uk,+44 1903 821380,Making Tax Digital Ready,Bronze champion partner,Partner since 2018,Xero migration certified,Xero advisor certified,,,,,,,Construction and trades,,"19 Farncombe Road, Worthing, BN11 2AY, England",+44 1903 821380,,,,,,,,,,,,,,,,,,
BR Accounting & Business Services Ltd,"57 Yellowmead Road, Plymouth, England",Accountant,https://www.braccounting.co.uk,+44 01752 936207,Making Tax Digital Ready,Bronze partner,Partner since 2018,Xero migration certified,Xero payroll certified,Xero advisor certified,https://www.facebook.com/BRaccountingandbusiness,https://www.twitter.com/BRservices,https://www.linkedin.com/company/br-accounting-business-services-ltd,Ben Rendle,Director,,Receipt Bank,"57 Yellowmead Road, Plymouth, PL2 2QE, England",+44 01752 936207,,,,,,,,,,,,,,,,,,
TreyBridge Accounts Services,"Westoby Lane, Riplingham Cross Roads , East Riding of Yorkshire, England",Bookkeeper,http://treybridgeservices.com,+44 1482235575,,Bronze partner,Partner since 2018,Xero advisor certified,,,https://www.facebook.com/treybridgeservices/,https://www.twitter.com/TreyBridgeAcco1,https://www.linkedin.com/company/treybridge-financial-services,,,,,"Westoby Lane, Riplingham Cross Roads , East Riding of Yorkshire, England",+44 1482235575,,,,,,,,,,,,,,,,,,
SMB-Bookkeeping,"20 Hurst Meadow, Rochdale, England",Bookkeeper,#,+44 7817071872,,Bronze champion partner,Partner since 2018,Xero migration certified,Xero advisor certified,Xero payroll certified,,https://www.twitter.com/suebradbury474,http://linkedin.com/in/suebradbury,Susan M  Bradbury,Bookkeeper and Business Support,,,"20 Hurst Meadow, Rochdale, OL16 4QP, England",+44 7817071872,,,,,,,,,,,,,,,,,,
Social 3BL Ltd,"Consett, Consett, England",Accountant,http://www.social3bl.biz,+44 7956072610,Making Tax Digital Ready,Bronze champion partner,Partner since 2014,Xero advisor certified,Xero payroll certified,Xero migration certified,,,,Jenny Lawrence,Director,,,"Consett, Consett, DH8, England",+44 7956072610,,,,,,,,,,,,,,,,,,
Aspire Business Partnership,"Aspire Business Partnership, Bromsgrove, England",Accountant,http://www.aspirepartnership.co.uk,+44 0121 445 6178,Making Tax Digital Ready,Bronze partner,Partner since 2018,Xero advisor certified,Xero migration certified,,,https://www.twitter.com/aspirebusiness,https://www.linkedin.com/company/aspire-business-partnership/,,,,,"Aspire Business Partnership, Bromsgrove, B60 3DX, England",+44 0121 445 6178,,,,,,,,,,,,,,,,,,
Fairhead Bradford,"NR12 9PD, Bradford House, Yarmouth Road, Stalham, England",Accountant,http://www.fairheadbradford.co.uk,+44 01692 581908,Making Tax Digital Ready,Bronze partner,Partner since 2017,Xero migration certified,Xero advisor certified,,,,,Stuart Dickerson,Director,"Construction and trades, 
Retail, 
Agriculture, 
Real estate and hiring services",AutoEntry,"NR12 9PD, Bradford House, Yarmouth Road, Stalham, NR12 9PD, England",+44 01692 581908,"Queen Street, Great Yarmouth, NR30 2QP, England",+44 01493 842072,,,,,,,,,,,,,,,,
Watson Buckle Limited,"Wool Gate, York House, Bingley, England",Accountant,http://www.watsonbuckle.co.uk,+44 01274 516700,,Bronze champion partner,Partner since 2014,Xero advisor certified,,,https://www.facebook.com/watsonbuckleuk/,https://www.twitter.com/WatsonBuckle,https://www.linkedin.com/company/watson-buckle/,,,Professional services,Receipt Bank,"Wool Gate, York House, Bingley, BD16 1PE, England",+44 01274 516700,,,,,,,,,,,,,,,,,,
HFL Accountants Limited,"1 Saxon Way, HFL House, Melbourn, England",Accountant,http://www.hflaccounts.com,+44 1223929150,,Bronze champion partner,Partner since 2016,Xero advisor certified,,,https://www.facebook.com/hflaccounts/,https://www.twitter.com/hflaccounts,,Sharon Betts,Manager,,"AutoEntry, 
FUTRLI, 
Receipt Bank, 
Fathom","1 Saxon Way, HFL House, Melbourn, SG8 6DN, England",+44 1223929150,"Cowley Road, St John's Innovation Centre, Milton, CB4 0WS, England",+44 1223929150,,,,,,,,,,,,,,,,
HFL Accountants Limited,"1 Saxon Way, HFL House, Melbourn, England",Accountant,http://www.hflaccounts.com,+44 1223929150,,Bronze champion partner,Partner since 2016,Xero advisor certified,,,https://www.facebook.com/hflaccounts/,https://www.twitter.com/hflaccounts,,Pippa Brown,Bookeeping Manager (East),,"AutoEntry, 
FUTRLI, 
Receipt Bank, 
Fathom","1 Saxon Way, HFL House, Melbourn, SG8 6DN, England",+44 1223929150,"Cowley Road, St John's Innovation Centre, Milton, CB4 0WS, England",+44 1223929150,,,,,,,,,,,,,,,,
Bollands Chartered Accountants and Business Advisers,"Minerva Mill, Station Road, Alcester, Warwickshire",Accountant,http://www.bollands.com,+44 1789761377,,Bronze champion partner,Partner since 2010,Xero advisor certified,,,,,,,,"Professional services, 
Construction and trades","Receipt Bank, 
Float","Minerva Mill, Station Road, Alcester, B49 5ET, Warwickshire",+44 1789761377,,,,,,,,,,,,,,,,,,
Belville Consultancy,"Kenton Lane, Newcastle upon Tyne, England",Accountant,http://www.belvilleconsultancy.co.uk,+44 07988676349,Making Tax Digital Ready,Bronze champion partner,Partner since 2017,Xero advisor certified,Xero migration certified,,https://www.facebook.com/BelvilleConsultancy/,https://www.twitter.com/BelvilleConsult,https://www.linkedin.com/in/belvilleconsultancy/,Ben Quigley,Owner - Belville Consultancy,Arts and recreation,Receipt Bank,"Kenton Lane, Newcastle upon Tyne, NE3 3QB, England",+44 07988676349,,,,,,,,,,,,,,,,,,
Young & Co,"Bewell Street, Bewell House, Hereford, England",Accountant,http://www.youngand.co.uk,+44 01432 263282,,Bronze champion partner,Partner since 2018,Xero advisor certified,,,https://www.facebook.com/youngandcoaccountants?fref=ts,https://www.twitter.com/Young_and_Co,https://www.linkedin.com/company/young-&-co-chartered-accountants/,,,Professional services,,"Bewell Street, Bewell House, Hereford, HR4, England",+44 01432 263282,,,,,,,,,,,,,,,,,,
Everitt Kerr & Co,"Aylesbury, 2, Crossways Business Centre, Bicester Rd, Kingswood, Aylesbury HP18 0RA, Aylesbury, England",Accountant,https://www.everittkerr.com/,+44 01296 770 777,Making Tax Digital Ready,Bronze partner,Partner since 2019,Xero advisor certified,Xero migration certified,,,,,,,Professional services,"Spotlight Reporting, 
Receipt Bank","Aylesbury, 2, Crossways Business Centre, Bicester Rd, Kingswood, Aylesbury HP18 0RA, Aylesbury, England",+44 01296 770 777,,,,,,,,,,,,,,,,,,
Kinnaird Hill,"Norfolk House, 4 Station Road, ST. IVES, Cambridgeshire",Accountant,http://www.kinnairdhill.co.uk,+44 (0)1480 465561,,Bronze champion partner,Partner since 2014,Xero advisor certified,,,,,,Michaela Barr,,"Retail, 
Manufacturing, 
Professional services, 
Arts and recreation",,"Norfolk House, 4 Station Road, ST. IVES, PE27 5AF, Cambridgeshire",+44 (0)1480 465561,,,,,,,,,,,,,,,,,,
PHH Accountancy Limited,"3 Liverpool Gardens, Second Floor, Worthing, England",Accountant,http://www.phhaccounts.com,+44 1243 924 664,,Bronze partner,Partner since 2018,Xero advisor certified,,,https://www.facebook.com/phhaccounts/,,https://www.linkedin.com/company/phh-accountancy-limited/,,,Construction and trades,"Receipt Bank, 
Wolters Kluwer CCH OneClick","3 Liverpool Gardens, Second Floor, Worthing, BN11 1TF, England",+44 1243 924 664,,,,,,,,,,,,,,,,,,
PMH Accountancy Services Ltd,"Winterburn Close, Harrogate, England",Accountant,http://www.pmhaccountancy.co.uk,+44 8000949746,,Bronze champion partner,Partner since 2016,Xero migration certified,Xero advisor certified,,,,,Paul Hill,,Construction and trades,,"Winterburn Close, Harrogate, HG3, England",+44 8000949746,,,,,,,,,,,,,,,,,,
Assure UK,"107 Cheapside, London, England",Accountant,http://www.progresswithassureuk.com,+44 02071128300,,Bronze champion partner,Partner since 2017,Xero advisor certified,Xero migration certified,,https://www.facebook.com/ProgressAssureUK/,https://www.twitter.com/ProgressAssure,,,,"Finance and insurance, 
Construction and trades, 
Professional services","Xero Practice Manager, 
Receipt Bank, 
Hubdoc, 
FUTRLI","107 Cheapside, London, EC2V 6DN, England",+44 02071128300,"Marlborough Road, Banbury, OX16, England",+44 01295 477 250,,,,,,,,,,,,,,,,
Spears Consulting,"63 Haverhill Road, London, England",Accountant,http://www.spearsconsulting.co.uk/,+44 07968439098,Making Tax Digital Ready,Bronze champion partner,Partner since 2017,Xero advisor certified,Xero migration certified,,,,,Jamie Spears,Founder,Professional services,,"63 Haverhill Road, London, SW12, England",+44 07968439098,,,,,,,,,,,,,,,,,,
Outsource Your Accounts,"c/o Gibson Whitter, Larch House, Parklands Business Park, Denmead",Accountant,http://www.outsourceyouraccounts.co.uk,+44 2392299383,,Bronze champion partner,Partner since 2012,Xero advisor certified,,,,,,,,"Construction and trades, 
Finance and insurance","Receipt Bank, 
AutoEntry","c/o Gibson Whitter, Larch House, Parklands Business Park, Denmead",+44 2392299383,,,,,,,,,,,,,,,,,,
SME Financial Management,"Colne Way, Unit 303B, The Wenta Business Centre, Watford, England",Accountant,http://www.smefinancialmanagement.co.uk,+44 7880710487,Making Tax Digital Ready,Bronze champion partner,Partner since 2014,Xero migration certified,Xero advisor certified,,,https://www.twitter.com/smefinmgt,https://www.linkedin.com/in/barrydutnall,,,Professional services,"FUTRLI, 
Receipt Bank","Colne Way, Unit 303B, The Wenta Business Centre, Watford, WD24 7ND, England",+44 7880710487,,,,,,,,,,,,,,,,,,
Kingston Burrowes Accountants,"276 Ewell Road, Surbiton, England",Accountant,http://www.kbaccountants.com,+44 20 8912 2048,,Bronze champion partner,Partner since 2010,Xero advisor certified,,,https://www.facebook.com/KBASurbiton/,https://www.twitter.com/BruceBurrowes,https://www.linkedin.com/company/kingstonburrowes/,,,"Education, 
Professional services","The Payroll Site, 
Spotlight Reporting","276 Ewell Road, Surbiton, KT6 7AG, England",+44 20 8912 2048,"135 Richmond Road, Kingston upon Thames, KT2 5BZ, England",+44 20 8912 5480,,,,,,,,,,,,,,,,
Somers Baker Prince Kurz LLP,"45 Ealing Road, Wembley, England",Accountant,http://sbpk.co.uk,+44 (0) 208 903 0337,,Bronze partner,Partner since 2018,Xero advisor certified,,,,,,,,"Real estate and hiring services, 
Professional services",AutoEntry,"45 Ealing Road, Wembley, HA0 4BA, England",+44 (0) 208 903 0337,,,,,,,,,,,,,,,,,,
Ellis and Co Chartered Accountants and Business Advisers Ltd,"114 - 120 Northgate Street, Chester, Cheshire",Accountant,https://www.ellis-uk.com/,+44 1244343504,Making Tax Digital Ready,Bronze partner,Partner since 2014,Xero migration certified,Xero advisor certified,,https://www.facebook.com/EllisandCoCharteredAccountants/,https://www.twitter.com/EllisAccounting,https://www.linkedin.com/company/1801841/,,,Professional services,,"114 - 120 Northgate Street, Chester, Cheshire, CH1 2HT",+44 1244343504,,,,,,,,,,,,,,,,,,
Leigh-West Accounting Services,"Cleves Way, Ashford, England",Bookkeeper,,,Making Tax Digital Ready,Bronze champion partner,Partner since 2015,Xero advisor certified,Xero migration certified,,,,,,,"Construction and trades, 
Accommodation and hospitality",Satago,"Cleves Way, Ashford, TN23 5DE, England",+44 7887492206,,,,,,,,,,,,,,,,,,
M W Accounting Ltd,"East Street, Andover, England",Accountant,http://www.mwaccounting.co.uk,+44 1264726357,,Bronze champion partner,Partner since 2014,Xero advisor certified,,,,,,,,"Construction and trades, 
Repairs and personal services, 
Professional services, 
Arts and recreation, 
Transportation and storage, 
Education",,"East Street, Andover, SP10 1ES, England",+44 1264726357,,,,,,,,,,,,,,,,,,
Boogles Bookkeeping Ltd,"Abbot Street, 3rd flr - Fitzroy Hse, London, England",Accountant,http://www.booglesltd.com,+44 02033718894,,Bronze champion partner,Partner since 2011,Xero payroll certified,Xero advisor certified,,https://www.facebook.com/BooglesHQ/,https://www.twitter.com/boogleshq,https://www.linkedin.com/in/boogles/,,,Professional services,Receipt Bank,"Abbot Street, 3rd flr - Fitzroy Hse, London, England",+44 02033718894,"5 Darley Avenue, Nottingham, NG7 5NQ, England",+44 02033718894,,,,,,,,,,,,,,,,
Adrian Markey - Chartered Accountant,"5A Greenan Lough Road, Newry, Northern Ireland",Accountant,http://www.adrianmarkey.com,+44 7793863318,,Bronze champion partner,Partner since 2017,Xero migration certified,Xero advisor certified,,https://en-gb.facebook.com/adrian.markey/,https://www.twitter.com/adrianmarkey,https://www.linkedin.com/company/adrian-markey---chartered-accountant/,Adrian Markey,Chartered Accountant,"Professional services, 
Accommodation and hospitality, 
Marketing, advertising and consulting",Receipt Bank,"5A Greenan Lough Road, Newry, BT34 2QD, Northern Ireland",+44 7793863318,,,,,,,,,,,,,,,,,,
Howards Accountants,"Camborne Business Centre, Suite 6,, Camborne, England",Accountant,http://www.howardsaccountants.co.uk,+44 01209 206030,,Bronze champion partner,Partner since 2018,Xero advisor certified,,,https://www.facebook.com/howardsaccountants/,https://www.twitter.com/HowardsAccounts,,Alex Howard,Accountant,Construction and trades,"Receipt Bank, 
Datamolino","Camborne Business Centre, Suite 6,, Camborne, TR14 7DB, England",+44 01209 206030,,,,,,,,,,,,,,,,,,
Harrison Seymour LLP,"Exchange Road, Cygnet House, Lincoln, England",Accountant,http://www.harrisonseymour.co.uk,+44 1522698329,,Bronze champion partner,Partner since 2017,Xero advisor certified,,,https://www.facebook.com/harrisonseymourllp/?ref=bookmarks,https://www.twitter.com/HS_LLP,https://www.linkedin.com/feed/,,,"Construction and trades, 
Real estate and hiring services",,"Exchange Road, Cygnet House, Lincoln, LN6 3JZ, England",+44 1522698329,,,,,,,,,,,,,,,,,,
Baker Tilly Mooney Moore,"Clarendon Road, Belfast, Northern Ireland",Accountant,http://www.bakertillymooneymoore.co.uk/,+44 028 90 323 466,Making Tax Digital Ready,Bronze champion partner,Partner since 2014,Xero migration certified,Xero advisor certified,,https://www.facebook.com/bakertillymooneymoore,https://www.twitter.com/BakerTillyMM,https://www.linkedin.com/company/baker-tilly-mooney-moore,,,Retail,,"Clarendon Road, Belfast, BT1 3BG, Northern Ireland",+44 028 90 323 466,,,,,,,,,,,,,,,,,,
Brilliant Numbers: Small Business Bookkeeping,"Redhill, Redhill, England",Bookkeeper,http://www.brilliantnumbers.co.uk,+44 (0)1342 842411,Making Tax Digital Ready,Bronze champion partner,Partner since 2014,Xero advisor certified,Xero migration certified,,https://www.facebook.com/BrilliantNumbers/,,https://www.linkedin.com/in/joanne-osborne/,Joanne Osborne,Managing Director,,"AutoEntry, 
Receipt Bank, 
FUTRLI","Redhill, Redhill, England",+44 (0)1342 842411,,,,,,,,,,,,,,,,,,
Brilliant Numbers: Small Business Bookkeeping,"Redhill, Redhill, England",Bookkeeper,http://www.brilliantnumbers.co.uk,+44 (0)1342 842411,Making Tax Digital Ready,Bronze champion partner,Partner since 2014,Xero advisor certified,Xero migration certified,,https://www.facebook.com/BrilliantNumbers/,,https://www.linkedin.com/in/joanne-osborne/,Sue Rose,,,"AutoEntry, 
Receipt Bank, 
FUTRLI","Redhill, Redhill, England",+44 (0)1342 842411,,,,,,,,,,,,,,,,,,
1 to 1 Accountancy Services Ltd,"Newport, Parking , Easy access, Newport, Wales",Accountant,http://www.1to1accounts.com,+44 1633250530,Making Tax Digital Ready,Bronze champion partner,Partner since 2014,Xero migration certified,Xero advisor certified,,http://www.facebook.com/1to1accountancy,https://www.twitter.com/1to1accountancy,https://www.linkedin.com/company/1-to-1-accountancy-services-limited/,,,"Repairs and personal services, 
Construction and trades, 
Professional services",,"Newport, Parking , Easy access, Newport, Wales",+44 1633250530,,,,,,,,,,,,,,,,,,
Beyond Numbers Ltd,"16 Copper Ridge, Chalfont Saint Peter, England",Accountant,#,+44 07734103421,,Bronze champion partner,Partner since 2012,Xero advisor certified,,,,,,Tim Brooker,Founder,"Transportation and storage, 
Marketing, advertising and consulting","Receipt Bank, 
FUTRLI","16 Copper Ridge, Chalfont Saint Peter, SL9 0NF, England",+44 07734103421,,,,,,,,,,,,,,,,,,
Chippendale and Clark,"SN15 1SB, Absol House, Chippenham, England",Accountant,http://www.chippendaleandclark.com,+44 1249 465435,,Bronze partner,Partner since 2016,Xero advisor certified,,,,https://www.twitter.com/chippclark,,,,"Professional services, 
Construction and trades, 
Real estate and hiring services, 
Marketing, advertising and consulting","AutoEntry, 
Float","SN15 1SB, Absol House, Chippenham, SN15 1SB, England",+44 1249 465435,,,,,,,,,,,,,,,,,,
Abacus Agent,"27 North Road, London, England",Accountant,https://abacusagent.co.uk/,+36 7575757595,,Bronze champion partner,Partner since 2016,Xero advisor certified,,,https://www.facebook.com/abacusagent.co.uk/,,,,,"Construction and trades, 
Transportation and storage, 
Arts and recreation",Hubdoc,"27 North Road, London, SW19 1AQ, England",+36 7575757595,,,,,,,,,,,,,,,,,,
Simplified Accounting Limited,"Towcester, Towcester, England",Accountant,,,Making Tax Digital Ready,Bronze champion partner,Partner since 2017,Xero advisor certified,Xero migration certified,,http://www.facebook.com/SimplifiedAccountingLtd,,,Rachael Savage,Chartered Accountant,Retail,Shopify,"Towcester, Towcester, NN12, England",,,,,,,,,,,,,,,,,,,
Cirrusli Ltd,"9 Willet Street, Bideford, England",Accountant,http://www.cirrusli.co.uk,+44 1237 320262,,Bronze champion partner,Partner since 2017,Xero advisor certified,Xero migration certified,,https://en-gb.facebook.com/CirrusliLtd/,,,,,Professional services,AutoEntry,"9 Willet Street, Bideford, EX39 2NZ, England",+44 1237 320262,,,,,,,,,,,,,,,,,,
RJJ Accountancy & Bookkeeping Limited,"Cardiff, Cardiff, Wales",Accountant,#,+44 7807023435,,Bronze champion partner,Partner since 2018,Xero advisor certified,Xero payroll certified,,,,,,,Wholesale,Hubdoc,"Cardiff, Cardiff, Wales",+44 7807023435,,,,,,,,,,,,,,,,,,
Virtus Solutions Ltd,"Buckingham Road, Tamworth, England",Bookkeeper,http://virtussolutions.co.uk,+44 07762 792889,,Bronze partner,Partner since 2018,Xero advisor certified,Xero migration certified,,https://www.facebook.com/VirtusSolutionsLtd/?modal=admin_todo_tour,,,,,"Marketing, advertising and consulting, 
Administration and support services, 
Professional services",,"Buckingham Road, Tamworth, B79 7TU, England",+44 07762 792889,,,,,,,,,,,,,,,,,,
Canning & Partners,"10 Meadow Street, Bristol, England",Accountant,http://www.canningandpartners.co.uk,+44 01179081058,,Bronze champion partner,Partner since 2016,Xero advisor certified,Xero payroll certified,,,,,,,"Arts and recreation, 
Retail","Receipt Bank, 
iZettle","10 Meadow Street, Bristol, BS11 9AR, England",+44 01179081058,,,,,,,,,,,,,,,,,,
DJH Accountants Ltd,"High Street, Newcastle, England",Accountant,http://www.djh.co.uk,+44 1782710101,,Bronze champion partner,Partner since 2012,Xero advisor certified,,,https://en-gb.facebook.com/djhaccountantsltd/,,https://www.linkedin.com/company/djh-accountants-ltd/,Stacey Parr,Corporate Manager,Professional services,Receipt Bank,"High Street, Newcastle, ST5 0EZ, England",+44 1782710101,,,,,,,,,,,,,,,,,,
Simon Hollingdale Accounts,"TN21 0RU, Waldron, England",Accountant,http://www.shaccounts.co.uk,+44 1273252866,Making Tax Digital Ready,Bronze champion partner,Partner since 2017,Xero advisor certified,Xero migration certified,,,,,,,"Construction and trades, 
Retail, 
Healthcare and social services, 
Professional services","Hubdoc, 
AutoEntry","TN21 0RU, Waldron, TN21 0RU, England",+44 1273252866,,,,,,,,,,,,,,,,,,
Torastan,"Croft House Kilncroft, Selkirk",Accountant,,,,Bronze champion partner,Partner since 2013,Xero advisor certified,Xero payroll certified,,,,,,,Administration and support services,"Receipt Bank, 
Hubdoc, 
FUTRLI","Croft House Kilncroft, Selkirk",+44 7592004024,,,,,,,,,,,,,,,,,,
Imperium Cashflow,"5 Sandown Park, Lisburn, Northern Ireland",Bookkeeper,http://www.imperiumcashflow.com,+44 2890470074,Making Tax Digital Ready,Bronze champion partner,Partner since 2018,Xero migration certified,Xero advisor certified,,,,,,,"Professional services, 
Marketing, advertising and consulting","Entryless, 
GoCardless","5 Sandown Park, Lisburn, BT28 2EN, Northern Ireland",+44 2890470074,,,,,,,,,,,,,,,,,,
Walpole Dunn,"Hestercombe House, Cheddon Fitzpaine, England",Accountant,http://www.walpoledunn.co.uk,+44 01823 740006,,Bronze champion partner,Partner since 2017,Xero migration certified,Xero advisor certified,,https://www.facebook.com/WalpoleDunn/,https://www.twitter.com/WalpoleDunn,https://www.linkedin.com/company/walpoledunn/,,,"Marketing, advertising and consulting, 
Finance and insurance","Fathom, 
AutoEntry","Hestercombe House, Cheddon Fitzpaine, TA2 8LQ, England",+44 01823 740006,,,,,,,,,,,,,,,,,,
1Office,"Salisbury House, London Wall, London, England",Accountant,https://www.1office.co/uk,+44 20 3868 9958,,Bronze champion partner,Partner since 2015,Xero advisor certified,Xero payroll certified,,https://www.facebook.com/1Office/,https://www.twitter.com/1OfficeGroup,https://www.linkedin.com/company-beta/2812109/,,,Professional services,,"Salisbury House, London Wall, London, EC2M 5QQ, England",+44 20 3868 9958,,,,,,,,,,,,,,,,,,
Pie Accounts,"39 Oak Lane, Upchurch, England",Accountant,http://www.pieaccounts.co.uk,+44 1634 262537,,Bronze champion partner,Partner since 2014,Xero migration certified,Xero advisor certified,,http://www.facebook.com/pieaccounts,https://www.twitter.com/pieaccounts,https://uk.linkedin.com/in/gillespielaura,,,"Professional services, 
Education, 
Marketing, advertising and consulting","AutoEntry, 
Receipt Bank","39 Oak Lane, Upchurch, ME9 7AU, England",+44 1634 262537,,,,,,,,,,,,,,,,,,
Delta Solutions,"3 Wellgreen Close, Hale",Accountant,http://www.delta-solutions.org.uk,+44 8451645015,Making Tax Digital Ready,Bronze champion partner,Partner since 2011,Xero advisor certified,Xero migration certified,,,https://www.twitter.com/SueWeighell,http://uk.linkedin.com/in/sueweighell,Sue Weighell,Director,Professional services,"DataDear, 
Satago, 
iwoca, 
Syft, 
CaFE, 
Spotlight Reporting","3 Wellgreen Close, Hale, WA15 8PT",+44 8451645015,,,,,,,,,,,,,,,,,,
Caladine Ltd,"22 Upperton Road, Chantry House, Eastbourne, England",Accountant,http://www.caladine.co.uk,+44 1323 644 579,,Bronze champion partner,Partner since 2014,Xero advisor certified,,,https://www.facebook.com/CaladineLtd,https://www.twitter.com/CaladineLtd,https://www.linkedin.com/company/caladine-ltd/,Colin Dadswell,Director,"Professional services, 
Not-for-profit",,"22 Upperton Road, Chantry House, Eastbourne, BN21 1BF, England",+44 1323 644 579,,,,,,,,,,,,,,,,,,
Caladine Ltd,"22 Upperton Road, Chantry House, Eastbourne, England",Accountant,http://www.caladine.co.uk,+44 1323 644 579,,Bronze champion partner,Partner since 2014,Xero advisor certified,,,https://www.facebook.com/CaladineLtd,https://www.twitter.com/CaladineLtd,https://www.linkedin.com/company/caladine-ltd/,Liam Brooks,Payroll and Accounts Manager,"Professional services, 
Not-for-profit",,"22 Upperton Road, Chantry House, Eastbourne, BN21 1BF, England",+44 1323 644 579,,,,,,,,,,,,,,,,,,
King Watkins,"The Island, Midsomer Norton, England",Accountant,http://www.kingwatkins.co.uk,+44 01761 413869,Making Tax Digital Ready,Bronze champion partner,Partner since 2017,Xero advisor certified,Xero migration certified,,,,,,,"Professional services, 
Construction and trades",,"The Island, Midsomer Norton, BA3 2DZ, England",+44 01761 413869,,,,,,,,,,,,,,,,,,
Spence Accounting Ltd,"Unit 4 Stirlin Court, Saxilby, England",Accountant,http://www.spenceaccounting.co.uk,+44 1522244310,Making Tax Digital Ready,Bronze partner,Partner since 2014,Xero migration certified,Xero advisor certified,,,,,,,Repairs and personal services,,"Unit 4 Stirlin Court, Saxilby, LN1 2LR, England",+44 1522244310,,,,,,,,,,,,,,,,,,
Stringer Mallard,"12A Montpellier Parade, Harrogate, England",Accountant,http://www.stringermallard.com,+44 01423701234,Making Tax Digital Ready,Bronze champion partner,Partner since 2014,Xero advisor certified,Xero migration certified,,,https://www.twitter.com/amstringer,,,,"Professional services, 
Retail",,"12A Montpellier Parade, Harrogate, HG1 2TJ, England",+44 01423701234,,,,,,,,,,,,,,,,,,
AH&Co Limited,"6 Logie Mill, Edinburgh, Scotland",Accountant,http://www.ah-ltd.co.uk,+44 0131 315 2469,,Bronze champion partner,Partner since 2014,Xero advisor certified,,,,,,,,,,"6 Logie Mill, Edinburgh, EH7 4HH, Scotland",+44 0131 315 2469,,,,,,,,,,,,,,,,,,
Simply Balanced Solutions Ltd,"New Road, Clanfield, England",Bookkeeper,http://www.simplybalancedsolutions.co.uk/,+44 02392006466,,Bronze partner,Partner since 2014,Xero advisor certified,,,https://www.facebook.com/simplybalancedsolutions/,https://www.twitter.com/SimplyBalances,https://www.linkedin.com/in/alisonedward/,Alison  Edward,,"Administration and support services, 
Professional services, 
Construction and trades","AutoEntry, 
Receipt Bank","New Road, Clanfield, PO8 0NS, England",+44 02392006466,,,,,,,,,,,,,,,,,,
Kingston Bookkeeping,"71 Cobham Road, Kingston upon Thames, England",Bookkeeper,http://kingstonbookkeeping.co.uk/,+759 0116568,,Bronze champion partner,Partner since 2014,Xero advisor certified,Xero migration certified,,,,,Kate Powell,Bookkeeper,"Professional services, 
Arts and recreation","Receipt Bank, 
AutoEntry, 
Datamolino","71 Cobham Road, Kingston upon Thames, KT1 3AE, England",+759 0116568,,,,,,,,,,,,,,,,,,
A E Accountancy Services Ltd,"Ongar Road, Dunmow, England",Accountant,http://www.aeaccountancyservices.co.uk,+44 1371700317,Making Tax Digital Ready,Bronze champion partner,Partner since 2013,Xero advisor certified,Xero migration certified,,https://www.facebook.com/AEAccountancy/,https://www.twitter.com/AEAccountancy,https://www.linkedin.com/company/aeaccountancyservices,Alex Eagleson,,"Real estate and hiring services, 
Media and communications, 
E-commerce","AutoEntry, 
Receipt Bank","Ongar Road, Dunmow, CM6, England",+44 1371700317,"Greenhills, Harlow, CM20, England",+44 1371700317,,,,,,,,,,,,,,,,
Crossley & Davis,"52 Chorley New Road, Bolton, England",Accountant,http://www.crossleyanddavis.net,+44 01204381124,,Bronze champion partner,Partner since 2014,Xero advisor certified,,,https://www.facebook.com/CrossleyandDavisBolton/?ref=bookmarks,https://www.twitter.com/CrossleyDavis,http://inkedin.com/company/crossley-and-davis-chartered-accountants,Ben Taylor,Accounts Manager,"Construction and trades, 
Real estate and hiring services","AutoEntry, 
Re-leased","52 Chorley New Road, Bolton, BL1 4AP, England",+44 01204381124,,,,,,,,,,,,,,,,,,
Lumin Accountancy,"Swansea, Swansea, Wales",Accountant,https://www.lumin-accountancy.co.uk,+44 0330 1330344,Making Tax Digital Ready,Bronze champion partner,Partner since 2014,Xero advisor certified,Xero migration certified,,https://www.facebook.com/luminaccountancy,https://www.twitter.com/LuminAccounts,,,,,Datamolino,"Swansea, Swansea, Wales",+44 0330 1330344,"Bridgend, Bridgend, Wales",+44 03301330344,"Ammanford, Ammanford, SA18, Wales",+44 03301330344,,,,,,,,,,,,,,
MANY Bookkeeping & Accountancy Services,"The Gables, Thornton Watlass, England",Bookkeeper,http://www.manybookkeeping.co.uk,+44 1677422643,Making Tax Digital Ready,Bronze champion partner,Partner since 2011,Xero advisor certified,Xero migration certified,,,,,,,,AutoEntry,"The Gables, Thornton Watlass, HG4 4AH, England",+44 1677422643,,,,,,,,,,,,,,,,,,
MK TAX AND ACCOUNTING LIMITED,"151 Silbury Boulevard, Technology House, Milton Keynes, England",Accountant,https://www.mkaccountants.com/,+44 1908424335,,Bronze champion partner,Partner since 2015,Xero migration certified,Xero advisor certified,,https://www.facebook.com/sharer.php?u=https%3A%2F%2Fwww.mkaccountants.com%2F,https://www.twitter.com/mktaxaccounting,,,,Professional services,,"151 Silbury Boulevard, Technology House, Milton Keynes, MK9, England",+44 1908424335,,,,,,,,,,,,,,,,,,
Future Insight Consultancy Ltd.,"1 Bromley Lane, Chislehurst, England",Bookkeeper,http://www.futureinsight.eu,+44 07759472139,,Bronze champion partner,Partner since 2017,Xero advisor certified,Xero migration certified,,https://www.facebook.com/Future-Insight-Consultancy-UK-1904723889781651/,https://www.twitter.com/Futureinsight1,https://www.linkedin.com/company/21289091/admin/updates/,,,"Construction and trades, 
Administration and support services, 
Real estate and hiring services, 
Arts and recreation",,"1 Bromley Lane, Chislehurst, BR7 6LH, England",+44 07759472139,,,,,,,,,,,,,,,,,,
Nathan Trust,"9 Exchange Place, International Financial Services Centre, Dublin 1, County Dublin",Accountant,http://www.nathantrust.com,+353 1 888 1170 ,,Bronze champion partner,Partner since 2017,Xero advisor certified,,,https://www.facebook.com/NathanTrustIRL,https://www.twitter.com/nathan_trust,https://www.linkedin.com/company/nathan-trust/,,,"Administration and support services, 
Professional services, 
Manufacturing",,"9 Exchange Place, International Financial Services Centre, Dublin 1, D01 X8H2, County Dublin",+353 1 888 1170,"6 Lapp's Quay, First Floor, Cork, T12 VY7W, County Cork",+353 21 242 7054,,,,,,,,,,,,,,,,
Simply Bookkeeping,"15 Buckthorn Drive, Swindon, England",Bookkeeper,http://www.simplybookkeepingswindon.co.uk,+44 01793 232889,,Bronze champion partner,Partner since 2016,Xero payroll certified,Xero advisor certified,,https://www.facebook.com/simplybookkeepinginswindon,https://www.twitter.com/simply_bookkeep,http://www.linkedin.com/in/rachael-taylor-760b0199,Rachael Taylor,Bookkeeper,Construction and trades,AutoEntry,"15 Buckthorn Drive, Swindon, SN25 3JH, England",+44 01793 232889,,,,,,,,,,,,,,,,,,
The Accounts Dept NE Ltd,"SR5 3NZ, Washington Business Centre, Sunderland, England",Bookkeeper,http://www.theaccountsdeptne.com,+44 01914324265,,Bronze champion partner,Partner since 2013,Xero advisor certified,,,https://www.facebook.com/theaccountsdepartmentne/,https://www.twitter.com/AccountsNE,,,,Construction and trades,"AutoEntry, 
Float, 
GoCardless","SR5 3NZ, Washington Business Centre, Sunderland, SR5 3QY, England",+44 01914324265,,,,,,,,,,,,,,,,,,
South East Bookkeeping,"Dennehill Business Centre, Old Farm Office, Unit 2A, Canterbury, England",Accountant,http://www.southeastbookkeeping.co.uk,+44 01227831676,,Bronze champion partner,Partner since 2016,Xero advisor certified,,,https://www.facebook.com/southeastbookkeepingltd,,,,,,Receipt Bank,"Dennehill Business Centre, Old Farm Office, Unit 2A, Canterbury, CT4 6HD, England",+44 01227831676,,,,,,,,,,,,,,,,,,
Parizma Accountants,"Francis Gardens, Warfield, England",Accountant,http://www.parizma.com,+44 01344206515,,Bronze champion partner,Partner since 2016,Xero advisor certified,Xero migration certified,,,,,Joseph Nsiah,Senior Financial Consultant,"Accommodation and hospitality, 
Real estate and hiring services, 
Retail","DOKKA, 
AutoEntry","Francis Gardens, Warfield, RG42 3SX, England",+44 01344206515,,,,,,,,,,,,,,,,,,
MB Consultancy (SC) Ltd,"22 Montrose Street, Glasgow, Scotland",Accountant,https://www.mbcons.co.uk,+44 1414653648,Making Tax Digital Ready,Bronze champion partner,Partner since 2018,Xero migration certified,Xero advisor certified,,https://www.facebook.com/mbconsultancyltd/,https://www.twitter.com/mbconsultancy1,https://www.linkedin.com/company/mbconsultancy/,Mary Blyth,Director,Construction and trades,"Receipt Bank, 
AutoEntry","22 Montrose Street, Glasgow, G1 1RE, Scotland",+44 1414653648,,,,,,,,,,,,,,,,,,
CW Accounting Limited,"12 Bramley Gardens, Gosport, England",Accountant,http://www.cw-accounting.co.uk,+44 02392348957,Making Tax Digital Ready,Bronze champion partner,Partner since 2014,Xero advisor certified,Xero migration certified,,,,,Colin Webb,Accountant,"Professional services, 
Construction and trades",AutoEntry,"12 Bramley Gardens, Gosport, PO12 2DW, England",+44 02392348957,,,,,,,,,,,,,,,,,,
Stewart & Partners,"232 Kinetic Business Centre, Theobald Street, Borehamwood, England",Accountant,http://www.stewartpartners.co.uk,+44 020 8387 1350,,Bronze champion partner,Partner since 2013,Xero migration certified,Xero advisor certified,,,https://www.twitter.com/StewartPtnrs,https://www.linkedin.com/profile/view?id=156765557&trk=spm_pic,Simon Lever,,"Construction and trades, 
Media and communications, 
Professional services","AutoEntry, 
Power BI","232 Kinetic Business Centre, Theobald Street, Borehamwood, WD6 4PJ, England",+44 020 8387 1350,,,,,,,,,,,,,,,,,,
WNR Associates Limited,"35 Tempsford Avenue, Borehamwood, England",Accountant,#,+44 7948216857,Making Tax Digital Ready,Bronze champion partner,Partner since 2017,Xero migration certified,Xero advisor certified,,,https://www.twitter.com/wnrassociates,https://www.linkedin.com/in/weldonramirez/,Weldon Ramirez,Accountant,Professional services,,"35 Tempsford Avenue, Borehamwood, WD6 2PD, England",+44 7948216857,"89 London Road, Leicester, LE2 1RH, England",+44 7948216857,,,,,,,,,,,,,,,,
FD Business Ltd,"9 Lyncroft Gardens, Epsom, Surrey",Accountant,http://www.fdbiz.co.uk,+44 7966532199,Making Tax Digital Ready,Bronze champion partner,Partner since 2015,Xero advisor certified,Xero migration certified,,https://www.facebook.com/FDBusinessLtd/,https://www.twitter.com/FD_Biz,https://www.linkedin.com/company/2628636/,Peter Stamps,Director,"Healthcare and social services, 
Marketing, advertising and consulting","AutoEntry, 
Entryless, 
FUTRLI","9 Lyncroft Gardens, Epsom, Kt17 1UR, Surrey",+44 7966532199,,,,,,,,,,,,,,,,,,
Cruse + Burke,"73 Park Lane, Croydon, England",Accountant,https://cruseburke.co.uk/,+44 2086868876,,Bronze champion partner,Partner since 2009,Xero advisor certified,,,https://www.facebook.com/cruseburke/,https://www.twitter.com/cruseburke,https://www.linkedin.com/company/cruse-&-burke/,,,"Professional services, 
Construction and trades",,"73 Park Lane, Croydon, CR0 1JG, England",+44 2086868876,,,,,,,,,,,,,,,,,,
Tao Business Services Ltd,"8 Peregrine Way, Cannock, England",Accountant,http://www.taobusinessservices.com,+44 7985645087,Making Tax Digital Ready,Bronze champion partner,Partner since 2015,Xero advisor certified,Xero migration certified,,https://facebook.com/taofinancialaccountancy/,https://www.twitter.com/TaoBusinessserv,https://www.linkedin.com/in/nic-cooper-24301217/,Nic Cooper,Director,Construction and trades,,"8 Peregrine Way, Cannock, WS11 7JX, England",+44 7985645087,,,,,,,,,,,,,,,,,,
Berg & Williams,"56 Oxford Street, Workplace, Floor 4, Manchester, England",Accountant,http://www.bergandwilliams.com,+44 1614647162,Making Tax Digital Ready,Bronze champion partner,Partner since 2013,Xero advisor certified,Xero migration certified,,https://www.facebook.com/bergandwilliams,https://www.twitter.com/bergandwilliams,,,,"Healthcare and social services, 
Professional services","Fathom, 
FUTRLI, 
Vend","56 Oxford Street, Workplace, Floor 4, Manchester, M1 6EU, England",+44 1614647162,,,,,,,,,,,,,,,,,,
Format Bookkeeping,"Churchill Road, Unit 5 Churchill Industrial Estate,, Cheltenham, England",Bookkeeper,,,Making Tax Digital Ready,Bronze champion partner,Partner since 2016,Xero migration certified,Xero advisor certified,,,,,,,"Retail, 
Professional services",,"Churchill Road, Unit 5 Churchill Industrial Estate,, Cheltenham, GL53 7EG, England",+44 07917 703156,,,,,,,,,,,,,,,,,,
"PCLG, Chartered Accountants","Clifton Park Avenue, York, England",Accountant,http://www.pclg.co.uk,+44 01904558300,,Bronze champion partner,Partner since 2014,Xero advisor certified,Xero payroll certified,,https://en-gb.facebook.com/pclgaccountants/,,https://www.linkedin.com/company/pclg-chartered-accountants,,,Professional services,,"Clifton Park Avenue, York, YO30 5PA, England",+44 01904558300,,,,,,,,,,,,,,,,,,
Troy Accounting Ltd,"Premier Way, 43 Abbey Enterprise Centre, Romsey, England",Accountant,http://www.troyaccounting.co.uk,+44 01794 874425,,Bronze champion partner,Partner since 2018,Xero payroll certified,Xero advisor certified,,https://www.facebook.com/troyaccounting/,,https://www.linkedin.com/company/helen,,,,,"Premier Way, 43 Abbey Enterprise Centre, Romsey, SO51, England",+44 01794 874425,,,,,,,,,,,,,,,,,,
Sally's Accounts & Ledgers,"3 Ingersley Rise, West End, England",Bookkeeper,http://www.sallysaccounts.co.uk,+44 7768042012,Making Tax Digital Ready,Bronze champion partner,Partner since 2018,Xero advisor certified,Xero migration certified,,https://www.facebook.com/Sallysaccounts/,,,Sally Williams,Owner,"Repairs and personal services, 
Construction and trades",,"3 Ingersley Rise, West End, SO30 3DN, England",+44 7768042012,,,,,,,,,,,,,,,,,,
KJM Accounting Services,"11 Skaterigg Gardens, Glasgow, Scotland",Accountant,http://www.kjmaccounting.co.uk,+44 07786 775905,Making Tax Digital Ready,Bronze champion partner,Partner since 2017,Xero advisor certified,Xero migration certified,,,https://www.twitter.com/KJMACCOUNTING,http://linkedin.com/KENNTHMUNRO,,,Construction and trades,,"11 Skaterigg Gardens, Glasgow, G13 1ST, Scotland",+44 07786 775905,,,,,,,,,,,,,,,,,,
Church Lane Management Ltd,"152 Church Lane East, Aldershot, Hampshire",Bookkeeper,http://www.churchlanemanagement.co.uk,+44 7826930342,Making Tax Digital Ready,Bronze champion partner,Partner since 2013,Xero advisor certified,Xero migration certified,,http://churchlanemanagement.co.uk,,,Michelle Brooks,"Director.  Bsc (hons), FICB, CB. Dip","Marketing, advertising and consulting, 
Repairs and personal services",,"152 Church Lane East, Aldershot, GU11 3SS, Hampshire",+44 7826930342,,,,,,,,,,,,,,,,,,
Cognitor Accountancy Limited,"Hanbury Road, Forbes House, Harris Business Park, Stoke Prior, England",Accountant,http://www.cognitor.co.uk,+44 01527 836836,,Bronze champion partner,Partner since 2010,Xero advisor certified,,,,,,,,Real estate and hiring services,"Hubdoc, 
Receipt Bank","Hanbury Road, Forbes House, Harris Business Park, Stoke Prior, B60 4BD, England",+44 01527 836836,,,,,,,,,,,,,,,,,,
KMG Accountancy Ltd,"24 Saint Martin's Street, Brighton, England",Accountant,http://www.kmgaccountancy.com,+44 7733364691,,Bronze champion partner,Partner since 2017,Xero advisor certified,Xero payroll certified,,https://www.facebook.com/KMGAccountancy/,,,Kris McGrath ACA,Chartered Accountant,Construction and trades,,"24 Saint Martin's Street, Brighton, BN2 3HJ, England",+44 7733364691,,,,,,,,,,,,,,,,,,
OS Accounting Limited,"RH4 1XA, The Atrium, Curtis Road, Dorking, England",Accountant,https://osaccounts.com,+44 1483 357 651,,Bronze partner,Partner since 2018,Xero advisor certified,Xero migration certified,,,,,Oliver Spevack,Director,"Professional services, 
Real estate and hiring services, 
Marketing, advertising and consulting",AutoEntry,"RH4 1XA, The Atrium, Curtis Road, Dorking, RH4 1XA, England",+44 1483 357 651,,,,,,,,,,,,,,,,,,
OrangeKiwi Management Accountancy,"Zeeburgerstraat, Amsterdam, Noord-Holland",Accountant,http://orangekiwi.eu,+31 (0) 61100 3294,,Bronze champion partner,Partner since 2014,Xero advisor certified,Xero migration certified,,,,,,,Professional services,Datamolino,"Zeeburgerstraat, Amsterdam, 1018 AG, Noord-Holland",+31 (0) 61100 3294,,,,,,,,,,,,,,,,,,
M J Smith & Co Ltd,"Green Lane Exton  Exeter , Woodbury House , Exton, England",Accountant,http://www.mjsmith.co.uk,+44 1392875391,,Bronze champion partner,Partner since 2016,Xero advisor certified,,,https://www.facebook.com/M-J-Smith-Co-Ltd-Chartered-Accountants-349211751844444/,https://www.twitter.com/mjsmilesmiles,http://www.linkedin.com/company/2919185,Miles Smith,Senior Accountant,,GoCardless,"Green Lane Exton  Exeter , Woodbury House , Exton, EX3 0PW, England",+44 1392875391,,,,,,,,,,,,,,,,,,
M J Smith & Co Ltd,"Green Lane Exton  Exeter , Woodbury House , Exton, England",Accountant,http://www.mjsmith.co.uk,+44 1392875391,,Bronze champion partner,Partner since 2016,Xero advisor certified,,,https://www.facebook.com/M-J-Smith-Co-Ltd-Chartered-Accountants-349211751844444/,https://www.twitter.com/mjsmilesmiles,http://www.linkedin.com/company/2919185,Tom Smith,Accountant,,GoCardless,"Green Lane Exton  Exeter , Woodbury House , Exton, EX3 0PW, England",+44 1392875391,,,,,,,,,,,,,,,,,,
PJS Tax Consultants t/a P J Simpson & Co,"4 Marley Close, Tiverton, England",Accountant,http://www.pjstaxltd.uk/index_files/Page572.htm,+44 01884-253930,Making Tax Digital Ready,Bronze champion partner,Partner since 2017,Xero advisor certified,Xero migration certified,,https://www.facebook.com/Tivertontaxadviser/,,https://www.linkedin.com/in/peter-simpson-a934b834,Peter Simpson CTA,Senior Tax Consultant,Professional services,Digita Accounts Production Advanced,"4 Marley Close, Tiverton, EX16 6UX, England",+44 01884-253930,,,,,,,,,,,,,,,,,,
Keywhites,"20 Portnalls Road, Coulsdon, England",Accountant,http://www.keywhites.co.uk,+44 7891735213,,Bronze champion partner,Partner since 2016,Xero advisor certified,Xero payroll certified,,,,,,,Repairs and personal services,Receipt Bank,"20 Portnalls Road, Coulsdon, CR5 3DE, England",+44 7891735213,,,,,,,,,,,,,,,,,,
BGA Accountants,"The Sands Business Centre, Sands Road, Farnham, The Sands, England",Accountant,http://www.bgaaccs.com,+44 1252783869,,Bronze partner,Partner since 2018,Xero advisor certified,,,,https://www.twitter.com/bgaaccs,,Rick Peet,Director,,,"The Sands Business Centre, Sands Road, Farnham, The Sands, GU10 1PX, England",+44 1252783869,,,,,,,,,,,,,,,,,,
CKS ACCOUNTANCY LIMITED,"1349-1353 London Road, Southend-on-Sea, England",Accountant,http://www.cksonline.co.uk,+44 1702710898,,Bronze champion partner,Partner since 2013,Xero advisor certified,,,,,,,,Transportation and storage,,"1349-1353 London Road, Southend-on-Sea, SS9 2AB, England",+44 1702710898,,,,,,,,,,,,,,,,,,
Leithen Business Services,"1 Princes Street, Innerleithen, Scotland",Accountant,http://www.leithen-business-services.co.uk,+44 01896 831769,Making Tax Digital Ready,Bronze champion partner,Partner since 2018,Xero migration certified,Xero advisor certified,,,,,Lynne Campbell,Bookkeeper and Payroll Administrator,,,"1 Princes Street, Innerleithen, EH44 6JT, Scotland",+44 01896 831769,,,,,,,,,,,,,,,,,,
Pebbles Bookkeeping,"Brandon House, Potterne Road , Devizes, England",Bookkeeper,,,,Bronze champion partner,Partner since 2014,Xero payroll certified,Xero advisor certified,,,,,,,"Marketing, advertising and consulting","Receipt Bank, 
AutoEntry, 
Datamolino","Brandon House, Potterne Road , Devizes, SN10 5DD, England",+44 07759802552,,,,,,,,,,,,,,,,,,
Financial Growth Solutions Limited,"Cara House, Crossall Street, Macclesfield",Accountant,http://www.financialgrowthsolutions.co.uk,+44 1625869712,Making Tax Digital Ready,Bronze champion partner,Partner since 2011,Xero migration certified,Xero advisor certified,,,https://www.twitter.com/moiraevans,https://www.linkedin.com/in/moiraevans/,Moira Evans,Managing Director,"Marketing, advertising and consulting, 
Professional services, 
Construction and trades",,"Cara House, Crossall Street, Macclesfield, SK11 6QF",+44 1625869712,,,,,,,,,,,,,,,,,,
Nolan & Associates,"302 The Capel Building, Mary's Abbey, Dublin 7",Accountant,http://www.nolanassociates.com,+353 353018786011,,Bronze champion partner,Partner since 2012,Xero advisor certified,,,,,,,,,,"302 The Capel Building, Mary's Abbey, Dublin 7",+353 353018786011,,,,,,,,,,,,,,,,,,
Ridgeway Accounting & Consulting,"Downs Road, Slough, England",Accountant,http://www.ridgewayaccounting.co.uk,+44 07823406047,,Bronze champion partner,Partner since 2016,Xero payroll certified,Xero advisor certified,,https://www.facebook.com/ridgeway.accounting.7,,,Simon Mannings,Owner,,,"Downs Road, Slough, SL3 7BZ, England",+44 07823406047,,,,,,,,,,,,,,,,,,
INNOVATION ACCOUNTING LTD,"15 Paternoster Row, Sheffield, England",Accountant,http://www.innovationaccountingltd.co.uk,+44 7813339693,Making Tax Digital Ready,Bronze champion partner,Partner since 2017,Xero migration certified,Xero advisor certified,,,https://www.twitter.com/_AccountantNick,http://www.linkedin.com/in/nick-varley-1926771a,,,"Professional services, 
Construction and trades",,"15 Paternoster Row, Sheffield, S1 2BX, England",+44 7813339693,,,,,,,,,,,,,,,,,,
Paul & Co (Accountants) Ltd,"8 Freetrade House, Lowther Road, Stanmore, England",Accountant,http://www.paul.co.uk,+44 208 204 9911,,Bronze champion partner,Partner since 2009,Xero advisor certified,,,https://www.facebook.com/Paul-Co-Chartered-Accountants-155714263552/,https://www.twitter.com/paul_co,https://www.instagram.com/paulcoaccountants/,Agne Lizdenyte,Clients Manager / Excellence Coordinator,Accommodation and hospitality,"Receipt Bank, 
FUTRLI, 
Fathom","8 Freetrade House, Lowther Road, Stanmore, HA7 1EP, England",+44 208 204 9911,,,,,,,,,,,,,,,,,,
Paul & Co (Accountants) Ltd,"8 Freetrade House, Lowther Road, Stanmore, England",Accountant,http://www.paul.co.uk,+44 208 204 9911,,Bronze champion partner,Partner since 2009,Xero advisor certified,,,https://www.facebook.com/Paul-Co-Chartered-Accountants-155714263552/,https://www.twitter.com/paul_co,https://www.instagram.com/paulcoaccountants/,Imran Salahudeen,Client Manager,Accommodation and hospitality,"Receipt Bank, 
FUTRLI, 
Fathom","8 Freetrade House, Lowther Road, Stanmore, HA7 1EP, England",+44 208 204 9911,,,,,,,,,,,,,,,,,,
Master of Coin Ltd,"317 Golden Hill Lane, Master of Coin Ltd, Leyland, England",Accountant,http://www.masterofcoin.co.uk,+44 07963 320446,,Bronze champion partner,Partner since 2017,Xero advisor certified,,,,,,Hannah Whalley,Trainee Accounts Technician,,,"317 Golden Hill Lane, Master of Coin Ltd, Leyland, PR25 2YJ, England",+44 07963 320446,,,,,,,,,,,,,,,,,,
Webb & Co Ltd,"1 New Street, Wells, England",Accountant,http://www.webbco.co.uk,+44 01749676604,,Bronze champion partner,Partner since 2018,Xero advisor certified,,,https://www.facebook.com/Webb-Co-2050514915200872/,https://www.twitter.com/Webbandcompany,https://www.linkedin.com/company/webb-co/,,,"Accommodation and hospitality, 
Construction and trades",,"1 New Street, Wells, BA5 2LA, England",+44 01749676604,,,,,,,,,,,,,,,,,,
Maple Wharf Chartered Certified Accountants,"397-411 Westferry Road, London, England",Accountant,http://www.maplewharf.co.uk,+44 02037006715,,Bronze partner,Partner since 2018,Xero advisor certified,,,,,,,,"E-commerce, 
Not-for-profit, 
Accommodation and hospitality, 
Wholesale",Hubdoc,"397-411 Westferry Road, London, E14 3AE, England",+44 02037006715,,,,,,,,,,,,,,,,,,
Primotax Limited,"RH10 9LU, Unit 148, Churchill Court, 3 Manor Royal, Crawley, England",Accountant,http://www.primotax.co.uk,+44 1293 301989,,Bronze champion partner,Partner since 2018,Xero advisor certified,,,https://www.facebook.com/ukprimotax/,,https://www.linkedin.com/company/primotax,Anthony Davies FCA CTA,Director,Professional services,"Receipt Bank, 
Xavier Analytics","RH10 9LU, Unit 148, Churchill Court, 3 Manor Royal, Crawley, RH10 9LU, England",+44 1293 301989,,,,,,,,,,,,,,,,,,
YMP,"Asias, Office 4, Limassol",Accountant,http://www.ympapamichael.com,+357 99514047,,Bronze champion partner,Partner since 2016,Xero advisor certified,,,,,,Yiannis Papamichael,Managing Director,,,"Asias, Office 4, Limassol",+357 99514047,"Paphos, Paphos",+357 99514047,"Larnaca, Larnaca",+357 99514047,"Ayia Napa, Ayia Napa, Famagusta",+357 99514047,"Protaras, Protaras, Famagusta",+357 99514047,"Paralimni, Paralimni, Famagusta",+357 99514047,"Kensington High Street, London, W8, England",+357 99514047,,,,,,
Northover & Co Chartered Accountants,"132a Bournemouth Road, Chandler's Ford, England",Accountant,http://northoverco.co.uk/,+44 02380255520,,Bronze champion partner,Partner since 2016,Xero advisor certified,,,https://www.facebook.com/northoverco,https://www.twitter.com/northoverco,https://www.linkedin.com/company/northover-&-co,,,"Construction and trades, 
Retail, 
Professional services",,"132a Bournemouth Road, Chandler's Ford, SO53 3AL, England",+44 02380255520,,,,,,,,,,,,,,,,,,
The Bookkeeping Team,"6 Cleveland Road, Southampton, England",Bookkeeper,http://www.thebookkeepingteam.co.uk,+44 7938 760 212,,Bronze champion partner,Partner since 2017,Xero migration certified,Xero advisor certified,,https://www.facebook.com/TheBookkeepingTeam/,https://www.twitter.com/TheBkpgTeam,https://www.linkedin.com/company/the-bookkeeping-team/,,,,,"6 Cleveland Road, Southampton, SO18 2AN, England",+44 7938 760 212,,,,,,,,,,,,,,,,,,
Aben Bookkeeping,"112 Malling Street, Office 6, Lewes, England",Bookkeeper,http://www.abenbookkeeping.co.uk,+44 01273 661916,Making Tax Digital Ready,Bronze champion partner,Partner since 2016,Xero migration certified,Xero advisor certified,,,https://www.twitter.com/AbenBookkeeping,https://uk.linkedin.com/in/misskarenmoore,Karen Moore,Bookkeeper,Retail,,"112 Malling Street, Office 6, Lewes, BN7 2RG, England",+44 01273 661916,,,,,,,,,,,,,,,,,,
Chambers & Co Accountants LLP,"2 Church Street, Brighton, England",Accountant,http://www.chambersand.co.uk,+44 1273685978,,Bronze champion partner,Partner since 2013,Xero advisor certified,,,,,,,,Professional services,,"2 Church Street, Brighton, BN1 1UJ, England",+44 1273685978,,,,,,,,,,,,,,,,,,
Vertis Accounting Limited,"Grange Road, Malvern, England",Accountant,http://www.vertisaccounting.co.uk,+44 01905 928128,,Bronze champion partner,Partner since 2018,Xero advisor certified,Xero payroll certified,,,https://www.twitter.com/VertisAcc,http://linkedin.com/company/vertis-accounting-limited,Ian  JARVIS,Director,"Not-for-profit, 
Marketing, advertising and consulting","AutoEntry, 
Soldo","Grange Road, Malvern, WR14 3HA, England",+44 01905 928128,,,,,,,,,,,,,,,,,,
ZeroFuss Bookkeeeping,"Southampton, Southampton, England",Bookkeeper,http://www.zerofussbookkeeping.co.uk/,+44 7455813975,,Bronze champion partner,Partner since 2017,Xero advisor certified,Xero payroll certified,,,,,,,Repairs and personal services,Receipt Bank,"Southampton, Southampton, England",+44 7455813975,,,,,,,,,,,,,,,,,,
Marshall Smalley Accountants,"22A Main Road, Gedling, England",Accountant,https://www.marshallsmalley.com/,+44 01159569452,,Bronze partner,Partner since 2018,Xero advisor certified,Xero migration certified,,https://www.facebook.com/marshallsmalleyaccountants/,https://www.twitter.com/Marshallsmalley,,,,,Receipt Bank,"22A Main Road, Gedling, NG4 3HP, England",+44 01159569452,,,,,,,,,,,,,,,,,,
Paul Beech and Company Ltd,"Rugby Road, 6 The Terrace, Lutterworth, England",Accountant,http://www.paulbeechandcompany.co.uk,+44 01455 559921,,Bronze champion partner,Partner since 2017,Xero advisor certified,,,https://www.facebook.com/Paul-Beech-and-Company-Ltd-110785205659814,https://www.twitter.com/PaulBeechandCo,https://www.linkedin.com/company/paul-beech-and-company-ltd?trk=tyah&trkInfo=clickedVertical%3Acompany%2CclickedEntityId%3A1880060%2Cidx%3A2-1-3%2CtarId%3A1444918276438%2Ctas%3APaul%20Beech%20and%20Company%20Ltd,Emma Balckburn,Senior Accountant,Professional services,Receipt Bank,"Rugby Road, 6 The Terrace, Lutterworth, LE17 4BW, England",+44 01455 559921,,,,,,,,,,,,,,,,,,
Ansell-Munden Associates Limited,"Vyse Street, The Big Peg, Birmingham, England",Accountant,http://ansell-munden.co.uk/,+44 08000467325,,Bronze champion partner,Partner since 2016,Xero advisor certified,,,,,,,,Professional services,,"Vyse Street, The Big Peg, Birmingham, B18 6ND, England",+44 08000467325,"WS12 2DB, Point North, Heath Hayes, WS12 2DB, England",+44 08000467325,,,,,,,,,,,,,,,,
Pixham Consulting Ltd,"WR14 4DL, Malvern, England",Accountant,http://www.pixhamconsulting.co.uk,+44 1684573056,,Bronze champion partner,Partner since 2012,Xero advisor certified,Xero migration certified,,,,,Sarah Mackellar,Company Director and Financial Accountant,,,"WR14 4DL, Malvern, WR14 4DL, England",+44 1684573056,,,,,,,,,,,,,,,,,,
Tax Focus,"32 Willoughby Road, London",Accountant,http://www.taxfocus.co.uk,+44 2083413695,,Bronze champion partner,Partner since 2013,Xero advisor certified,,,,,,,,Accommodation and hospitality,,"32 Willoughby Road, London, N8 0JG",+44 2083413695,,,,,,,,,,,,,,,,,,
Danica TCL,"Danica TCL, Wayland House, Watton, Norfolk",Accountant,http://www.danicatcl.co.uk,+44 1953660090,,Bronze champion partner,Partner since 2015,Xero advisor certified,,,,,,,,"Real estate and hiring services, 
Professional services",,"Danica TCL, Wayland House, Watton, IP25 6AR, Norfolk",+44 1953660090,,,,,,,,,,,,,,,,,,
Elson Geaves,"12 Haviland Road, Ferndown Industrial Estate, England",Accountant,http://www.elsongeaves.com,+44 01202581999,,Bronze champion partner,Partner since 2017,Xero advisor certified,,,https://www.facebook.com/elsongeaves/,,,,,,,"12 Haviland Road, Ferndown Industrial Estate, BH21 7RG, England",+44 01202581999,"Lynch Lane, F7C, Lynch Lane Offices, Weymouth, DT4, England",+44 01305772132,,,,,,,,,,,,,,,,
Gold Stag Accounts Ltd,"The Causeway, Launchpad, Bishop's Stortford, England",Accountant,https://www.goldstagaccounts.co.uk,+44 1279217107,Making Tax Digital Ready,Bronze champion partner,Partner since 2017,Xero advisor certified,Xero migration certified,,https://www.facebook.com/GoldStagAccounts/,https://www.twitter.com/goldstagaccount,https://www.linkedin.com/company/goldstagaccounts/,Martin Brooks,Accountant & Director,,AutoEntry,"The Causeway, Launchpad, Bishop's Stortford, CM23 2EN, England",+44 1279217107,,,,,,,,,,,,,,,,,,
Ivybridge Accountants Ltd,"15 Erme Court, Ivybridge, England",Accountant,http://ivybridgeaccountants.co.uk/,+44 01752 895648,,Bronze champion partner,Partner since 2016,Xero advisor certified,,,https://www.facebook.com/ivybridgeaccountants,https://www.twitter.com/IvybridgeAccs,https://uk.linkedin.com/in/lisa-lines-15215485,George Morley,Accounts Manager,,"Receipt Bank, 
GoCardless","15 Erme Court, Ivybridge, PL21, England",+44 01752 895648,,,,,,,,,,,,,,,,,,
Spencer Accounting Services Limited,"27 Little Normans, Longlevens, Gloucester",Accountant,http://www.spenceraccounting.co.uk,+44 1452537599,Making Tax Digital Ready,Bronze champion partner,Partner since 2013,Xero advisor certified,Xero migration certified,,,,,Colin Spencer,Director,Professional services,"Fathom, 
FUTRLI, 
Receipt Bank","27 Little Normans, Longlevens, Gloucester, GL2 0EH",+44 1452537599,"Bath Road, 105-107, Cheltenham, GL53 7LE, England",+44 1242633100,,,,,,,,,,,,,,,,
MyAccountantAnywhere.com,"Chillingham House, 95 Village Court, Whitley Bay, Tyne & Wear",Accountant,,,,Bronze champion partner,Partner since 2012,Xero advisor certified,,,,,,,,Professional services,"Datamolino, 
FUTRLI","Chillingham House, 95 Village Court, Whitley Bay, NE26 3QB, Tyne & Wear",,,,,,,,,,,,,,,,,,,
The Kelvin Partnership,"505 Great Western Road, Glasgow, Scotland",Accountant,http://www.thekelvinpartnership.com,+44 1413346162,,Bronze partner,Partner since 2015,Xero advisor certified,,,https://www.facebook.com/glasgowaccountant/,https://www.twitter.com/TKP_CA,http://linkedin.com/company/the-kelvin-partnership,,,,,"505 Great Western Road, Glasgow, G12 8HN, Scotland",+44 1413346162,,,,,,,,,,,,,,,,,,
Bambury & Co Chartered Accountants,"Telford Road, Bicester Innovation Centre, Bicester, England",Accountant,http://www.bambury.info,+44 1869222830,Making Tax Digital Ready,Bronze champion partner,Partner since 2013,Xero migration certified,Xero advisor certified,,,,,Patrick Cracroft-Brennan,Sole Proprietor,"Professional services, 
Transportation and storage","Receipt Bank, 
AutoEntry","Telford Road, Bicester Innovation Centre, Bicester, OX26, England",+44 1869222830,,,,,,,,,,,,,,,,,,
Caroline Hinde Accountancy,"Caroline Hinde Accountancy, Suite 3:02, Darlington, England",Accountant,http://www.carolinehinde.co.uk,+44 1325734812,,Bronze champion partner,Partner since 2014,Xero payroll certified,Xero advisor certified,,https://www.facebook.com/CarolineHindeAccountancy/,https://www.twitter.com/CHindeAccounts,http://uk.linkedin.com/pub/caroline-hinde/8a/261/762,Caroline Hinde,Owner,Manufacturing,"AutoEntry, 
iZettle","Caroline Hinde Accountancy, Suite 3:02, Darlington, DL1 1GL, England",+44 1325734812,,,,,,,,,,,,,,,,,,
ACZ Associates Limited,"Leyland, Leyland, England",Accountant,http://www.aczassociates.uk,+44 03330501004,Making Tax Digital Ready,Bronze partner,Partner since 2018,Xero migration certified,Xero advisor certified,,http://www.facebook.com/ACZASSOCIATES/,,http://www.linkedin.com/company/acz-associates-limited,Christopher Wright,Owner,,,"Leyland, Leyland, England",+44 03330501004,,,,,,,,,,,,,,,,,,
FD Outsourcing Ltd,"FD Outsourcing Limited, 30 Basepoint Business Centre, Metcalf Way, Crawley, West Sussex",Accountant,http://www.fdoutsourcing.com,+44 1293817710,,Bronze champion partner,Partner since 2014,Xero advisor certified,,,,,,,,,,"FD Outsourcing Limited, 30 Basepoint Business Centre, Metcalf Way, Crawley, RH11 7XX, West Sussex",+44 1293817710,,,,,,,,,,,,,,,,,,
Pomroy Associates Ltd,"AL7 2AA, Weltech Centre, Welwyn Garden City, England",Bookkeeper,http://www.pomroyasociates.co.uk,+44 01707377057,,Bronze champion partner,Partner since 2017,Xero advisor certified,,,https://www.facebook.com/PomroyAssoc/,https://www.twitter.com/PomroyAssoc,,,,,Receipt Bank,"AL7 2AA, Weltech Centre, Welwyn Garden City, AL7 2AA, England",+44 01707377057,,,,,,,,,,,,,,,,,,
RSZ Accountancy,"Northgate Street, Archdeacons House, Ipswich, England",Accountant,http://www.rszaccountancy.co.uk,+44 1473874844,,Bronze partner,Partner since 2019,Xero advisor certified,,,http://www.facebook.com/rszaccountancy,,,Natasha Hampton,Bookkeeper and Payroll Administrator,,,"Northgate Street, Archdeacons House, Ipswich, IP1 3BX, England",+44 1473874844,,,,,,,,,,,,,,,,,,
RSZ Accountancy,"Northgate Street, Archdeacons House, Ipswich, England",Accountant,http://www.rszaccountancy.co.uk,+44 1473874844,,Bronze partner,Partner since 2019,Xero advisor certified,,,http://www.facebook.com/rszaccountancy,,,Nick Hampton,Managing Director,,,"Northgate Street, Archdeacons House, Ipswich, IP1 3BX, England",+44 1473874844,,,,,,,,,,,,,,,,,,
Brinsmead Maden,"Meadow Lane, Hamble-le-Rice, England",Accountant,#,+44 02380457900,Making Tax Digital Ready,Bronze champion partner,Partner since 2014,Xero migration certified,Xero advisor certified,,,,,,,Professional services,,"Meadow Lane, Hamble-le-Rice, SO31 4RB, England",+44 02380457900,,,,,,,,,,,,,,,,,,
CEM Bookkeeping Limited,"Abbotsleigh Road, South Woodham Ferrers, England",Bookkeeper,http://www.cembookkeeping.co.uk,+44 7506 299309,Making Tax Digital Ready,Bronze champion partner,Partner since 2017,Xero advisor certified,Xero migration certified,,http://www.facebook.com/cembookkeepingservices,https://www.twitter.com/cembookkeeping,http://linkedin.com/in/karem-cain-28192bba,,,,,"Abbotsleigh Road, South Woodham Ferrers, CM3 5SS, England",+44 7506 299309,,,,,,,,,,,,,,,,,,
Elite Bookkeepers,"39 Gainsborough Street, Salford, England",Bookkeeper,,,Making Tax Digital Ready,Bronze champion partner,Partner since 2017,Xero advisor certified,Xero migration certified,,,,,Yisroel Guttentag,,,Receipt Bank,"39 Gainsborough Street, Salford, M7 4AL, England",+44 01616604464,,,,,,,,,,,,,,,,,,
Daud Qadri & Co,"303 Ballards Lane, Global House, London, England",Accountant,http://www.daudqadri.com,+44 0208 446 1141,,Bronze champion partner,Partner since 2017,Xero advisor certified,Xero payroll certified,,,,,,,Media and communications,,"303 Ballards Lane, Global House, London, N12 8NP, England",+44 0208 446 1141,,,,,,,,,,,,,,,,,,
HRH Business Services,"Nottingham Road, Melton Mowbray, England",Bookkeeper,http://www.hrhbusinessservices.co.uk,+44 07940 433139,,Bronze champion partner,Partner since 2018,Xero advisor certified,Xero payroll certified,,http://www.facebook.com/hrhbusinessservices,,https://www.linkedin.com/in/helenhrhbusinessservices,Helen Wells,Business Owner,,,"Nottingham Road, Melton Mowbray, LE13 0PB, England",+44 07940 433139,"202 Ashby Road, Hinckley, LE10 1SW, England",+44 0794043319,,,,,,,,,,,,,,,,
Knutsford Admin Ltd,"16a Princess Street, King Edward House, Knutsford, England",Bookkeeper,http://www.KnutsfordAdmin.co.uk,+44 1565625615,,Bronze partner,Partner since 2018,Xero advisor certified,,,https://en-gb.facebook.com/knutsfordadmin/,https://www.twitter.com/Knutsford_admi,,,,Professional services,AutoEntry,"16a Princess Street, King Edward House, Knutsford, WA16 6BU, England",+44 1565625615,,,,,,,,,,,,,,,,,,
Liberty Bookkeeping,"14 Meadow Close, Chichester, England",Accountant,#,+44 01243 769080,,Bronze champion partner,Partner since 2017,Xero advisor certified,Xero migration certified,,https://www.facebook.com/LibertyBookkeepingChichester/#,https://www.twitter.com/jane_libertybk,https://www.linkedin.com/in/libertychichester/,Jane Blaber,Owner - Liberty Bookkeeping,"Marketing, advertising and consulting",AutoEntry,"14 Meadow Close, Chichester, PO18 0BQ, England",+44 01243 769080,,,,,,,,,,,,,,,,,,
PBA Group,"London Road, Top Floor, Stanford-le-Hope, England",Accountant,#,+44 01375 676361,,Bronze champion partner,Partner since 2017,Xero advisor certified,,,https://en-gb.facebook.com/PBAaccountants/,,https://www.linkedin.com/company/pba-group/about/,,,,Receipt Bank,"London Road, Top Floor, Stanford-le-Hope, SS17 0JU, England",+44 01375 676361,,,,,,,,,,,,,,,,,,
Wylie & Bisset,"168 Bath Street, Glasgow, Scotland",Accountant,http://www.wyliebisset.com,+44 0141 566 7000,,Bronze champion partner,Partner since 2014,Xero advisor certified,,,,https://www.twitter.com/WylieBisset,http://linkedin.com/company/wylie-&-bisset-llp,,,,,"168 Bath Street, Glasgow, G2 4TP, Scotland",+44 0141 566 7000,"4 High Street, Oban, PA34 4BG, Scotland",+44 01631562478,,,,,,,,,,,,,,,,
Pryme Accountancy,"2 Clove Crescent, Import Building, London, England",Accountant,http://www.pryme.io,+44 02033725586,Making Tax Digital Ready,Bronze partner,Partner since 2019,Xero advisor certified,Xero migration certified,,https://www.facebook.com/prymeaccountancy/,,https://www.linkedin.com/company/pryme-accountancy/,Cristina Puscas,Financial Controller,,,"2 Clove Crescent, Import Building, London, E14 2BE, England",+44 02033725586,,,,,,,,,,,,,,,,,,
Stonehouse Bookkeeping Services,"Stonehouse Bookkeeping Services, Redcar, England",Accountant,http://www.stonehousebks.co.uk,+44 1642989115,,Bronze champion partner,Partner since 2018,Xero payroll certified,Xero advisor certified,,https://www.facebook.com/stonehousebks/,https://www.twitter.com/StonehouseBKS,https://www.linkedin.com/in/nicola-stonehouse/,Nicola Stonehouse,,,"AutoEntry, 
GoCardless","Stonehouse Bookkeeping Services, Redcar, TS10 5SH, England",+44 1642989115,,,,,,,,,,,,,,,,,,
Anderton & Co. Accountants Limited,"93 Maney Hill Road, Sutton Coldfield, England",Accountant,http://www.andertonaccountants.co.uk,+44 01217692935,,Bronze champion partner,Partner since 2017,Xero payroll certified,Xero advisor certified,,,,,Daniel Anderton,Company Director,Construction and trades,AutoEntry,"93 Maney Hill Road, Sutton Coldfield, B72 1JT, England",+44 01217692935,,,,,,,,,,,,,,,,,,
JENNIFER RICHARDSON PAYROLL & BOOKKEEPING SERVICES,"32 Station Road, Rainham, England",Accountant,http://www.jennifermrichardson.co.uk,+44 1634 365000,Making Tax Digital Ready,Bronze champion partner,Partner since 2015,Xero advisor certified,Xero migration certified,,,,,,,,Receipt Bank,"32 Station Road, Rainham, ME8 7PH, England",+44 1634 365000,,,,,,,,,,,,,,,,,,
Cannon Colbeck LLP T/A SJC Associates,"Grove Mills, Elland Lane, Elland, England",Accountant,http://www.sjcaccountants.co.uk,+44 3456044104,,Bronze champion partner,Partner since 2013,Xero advisor certified,Xero migration certified,,,,,,,,,"Grove Mills, Elland Lane, Elland, HX5 9DZ, England",+44 3456044104,,,,,,,,,,,,,,,,,,
Hunter Daniel Ltd,"Carron Lane, Midhurst, England",Bookkeeper,https://www.hunterdaniel.co.uk/,+44 1730406347,Making Tax Digital Ready,Bronze champion partner,Partner since 2018,Xero advisor certified,Xero migration certified,,https://www.facebook.com/Hunter-Daniel-Ltd-299100210771971,https://www.twitter.com/HDBookkeeper,https://www.linkedin.com/in/adrian-wright-ficb-mba-ba-hons-99629111,Adrian Wright,Bookkeeper,,,"Carron Lane, Midhurst, GU29, England",+44 1730406347,,,,,,,,,,,,,,,,,,
J Richard Hildebrand & Co Chartered Certified Accountants,"Accommodation Road, No 2, London, England",Accountant,http://www.jrhandco.co.uk,+44 0208 457 7500,,Bronze champion partner,Partner since 2012,Xero migration certified,Xero advisor certified,,,https://www.twitter.com/stevejrhandco,,Deborah  Handley,Book Keeper,Professional services,"Receipt Bank, 
AutoEntry","Accommodation Road, No 2, London, NW11 8ED, England",+44 0208 457 7500,,,,,,,,,,,,,,,,,,
KCPA Accountants,"37A Vyse Street, Birmingham, England",Accountant,http://www.kcpaaccountants.uk,+44 1214085132,Making Tax Digital Ready,Bronze partner,Partner since 2017,Xero advisor certified,Xero migration certified,,https://www.facebook.com/kcpaaccountants.uk/,https://www.twitter.com/AccountantsKcpa,https://www.linkedin.com/company/kcpa-accountants/,,,Accommodation and hospitality,,"37A Vyse Street, Birmingham, B18 6JY, England",+44 1214085132,,,,,,,,,,,,,,,,,,
Ellingsworths Accountants & Business Advisors,"The Willows, Maypole St, Wombourne, Wolverhampton WV5 9JB, Wombourne, England",Accountant,http://www.ellingsworths.co.uk,+44 01902 896 730,,Bronze champion partner,Partner since 2014,Xero migration certified,Xero advisor certified,,https://www.facebook.com/Ellingsworths/,https://www.twitter.com/Ellingsworths,http://linkedin.com/company/ellingsworths-chartered-certified-accountants,Richard White,Director,"Professional services, 
Construction and trades",Receipt Bank,"The Willows, Maypole St, Wombourne, Wolverhampton WV5 9JB, Wombourne, WV5 9JB, England",+44 01902 896 730,,,,,,,,,,,,,,,,,,
Taxmaze Ltd,"15 Station Road, Quainton, Aylesbury, Buckinghamshire",Accountant,http://www.taxmaze.co.uk,+44 1296695253,,Bronze champion partner,Partner since 2014,Xero advisor certified,Xero migration certified,,,,,,,Construction and trades,,"15 Station Road, Quainton, Aylesbury, HP22 4BW, Buckinghamshire",+44 1296695253,,,,,,,,,,,,,,,,,,
Whittles Chartered Accountants,"64 West Stockwell Street, Colchester, England",Accountant,http://www.whittles.co.uk,+44 1206762200,,Bronze partner,Partner since 2017,Xero advisor certified,,,,,,Michael Greene,Partner,"Professional services, 
Marketing, advertising and consulting",,"64 West Stockwell Street, Colchester, CO1 1HE, England",+44 1206762200,"15 High Street, West Mersea, CO5 8QA, England",+44 1206385049,,,,,,,,,,,,,,,,
KB Book-keeping Ltd,"32 Lake Crescent, Daventry, England",Bookkeeper,http://www.kbbook-keeping.co.uk,+44 07866126646,Making Tax Digital Ready,Bronze champion partner,Partner since 2013,Xero migration certified,Xero advisor certified,,,,,,,"Professional services, 
Accommodation and hospitality",,"32 Lake Crescent, Daventry, NN11 9EB, England",+44 07866126646,,,,,,,,,,,,,,,,,,
TaxAssist Accountants Solihull,"7 Solihull Lane, Birmingham, England",Accountant,https://www.taxassist.co.uk/accountants/solihull/,+44 0121 733 2002,,Bronze partner,Partner since 2018,Xero advisor certified,,,https://www.facebook.com/TaxAssistSolihull/,https://www.twitter.com/tax_Solihull,https://www.linkedin.com/company/taxassist-accountants-solihull/,Jason Everton,,,,"7 Solihull Lane, Birmingham, B28 9LS, England",+44 0121 733 2002,,,,,,,,,,,,,,,,,,
TaxAssist Accountants Solihull,"7 Solihull Lane, Birmingham, England",Accountant,https://www.taxassist.co.uk/accountants/solihull/,+44 0121 733 2002,,Bronze partner,Partner since 2018,Xero advisor certified,,,https://www.facebook.com/TaxAssistSolihull/,https://www.twitter.com/tax_Solihull,https://www.linkedin.com/company/taxassist-accountants-solihull/,Richard Parkin,,,,"7 Solihull Lane, Birmingham, B28 9LS, England",+44 0121 733 2002,,,,,,,,,,,,,,,,,,
CC Jas Accounting Ltd,"104 High Street, 2nd Floor, Mold, Wales",Accountant,http://www.ccjasltd.co.uk,+44 1352331271,Making Tax Digital Ready,Bronze champion partner,Partner since 2011,Xero migration certified,Xero advisor certified,,https://www.facebook.com/CCJasAccounting,https://www.twitter.com/ccjasltd,https://www.linkedin.com/in/carolcloughccjas/,,,,,"104 High Street, 2nd Floor, Mold, CH7 1BH, Wales",+44 1352331271,,,,,,,,,,,,,,,,,,
Just Accounts,"Tegfan Close, Cardiff, Wales",Accountant,http://www.justaccountsltd.co.uk,+44 333 772 0 962,Making Tax Digital Ready,Bronze champion partner,Partner since 2015,Xero migration certified,Xero advisor certified,,http://facebook.com/justaccounts/,https://www.twitter.com/justaccountsltd,https://www.linkedin.com/feed/,Raghad Aziz,,"Construction and trades, 
Accommodation and hospitality","AutoEntry, 
Receipt Bank, 
Entryless, 
Hubdoc","Tegfan Close, Cardiff, CF14 5DE, Wales",+44 333 772 0 962,,,,,,,,,,,,,,,,,,
A&MPG Limited,"6 Meadowhead, Sheffield, England",Accountant,http://www.ampg.co.uk,+44 1142747759,,Bronze champion partner,Partner since 2014,Xero advisor certified,Xero payroll certified,,,,,Mark  Spittlehouse,Director,,,"6 Meadowhead, Sheffield, S8 7UD, England",+44 1142747759,,,,,,,,,,,,,,,,,,
One2four Accounting,"86 Harrison Way, Near Ikea, Cardiff, Wales",Accountant,https://sites.google.com/one2four.co.uk/one2four/home,+44 07500407787,Making Tax Digital Ready,Bronze partner,Partner since 2018,Xero advisor certified,Xero migration certified,,https://www.facebook.com/One2FourAC/,https://www.twitter.com/one2fourAC,,Rupali Wagh,Accountant,Accommodation and hospitality,,"86 Harrison Way, Near Ikea, Cardiff, CF11 7GX, Wales",+44 07500407787,,,,,,,,,,,,,,,,,,
A D Pottie & Co Ltd,"1 Church Street, Fintona, Northern Ireland",Accountant,http://www.adpottie.co.uk,+44 02882840162,,Bronze champion partner,Partner since 2014,Xero advisor certified,Xero migration certified,,,,,Donald Pottie,Chartered Accountant and Legal Intermediary,Agriculture,"AutoEntry, 
GoCardless, 
Float","1 Church Street, Fintona, BT78 2BR, Northern Ireland",+44 02882840162,"56 Harley Street, London, W1G 9QA, England",+44 07718283545,,,,,,,,,,,,,,,,
Helen J Guest Accounting,"482 Liverpool Road, Southport, England",Accountant,,,Making Tax Digital Ready,Bronze champion partner,Partner since 2016,Xero advisor certified,Xero migration certified,,,,,,,,,"482 Liverpool Road, Southport, PR8 3BB, England",,,,,,,,,,,,,,,,,,,
Ryder Bookkeeping Services,"Husbands Bosworth, Husbands Bosworth, England",Bookkeeper,http://www.ryderbookkeepingservices.co.uk,+44 7921910215,,Bronze champion partner,Partner since 2018,Xero advisor certified,Xero payroll certified,,https://www.facebook.com/ryderbookkeepingservices/,,,Charlie Ryder,Director/Owner,,,"Husbands Bosworth, Husbands Bosworth, LE17, England",+44 7921910215,,,,,,,,,,,,,,,,,,
Shmunky Bookkeeping and Admin Support,"42 Maypole Green Road, Colchester, England",Bookkeeper,https://www.shmunky.co.uk,+44 7852971048,Making Tax Digital Ready,Bronze champion partner,Partner since 2018,Xero advisor certified,Xero migration certified,,https://www.facebook.com/shmunky/,https://www.twitter.com/ShmunkyVA,https://www.linkedin.com/in/shmunky/,Sylwia Delekta-Hope,Business Owner,,"G-Accon for XERO, 
Receipt Bank","42 Maypole Green Road, Colchester, CO2 9QW, England",+44 7852971048,,,,,,,,,,,,,,,,,,
Sunshine Accounting,"73 All Saints Road, London, England",Accountant,http://www.sunshineaccounting.co.uk/,+44 2036331101,Making Tax Digital Ready,Bronze partner,Partner since 2018,Xero migration certified,Xero advisor certified,,http://www.facebook.com/sunshineaccountingservices,,,,,"Retail, 
E-commerce, 
Marketing, advertising and consulting, 
Construction and trades",Receipt Bank,"73 All Saints Road, London, SW19 1BU, England",+44 2036331101,,,,,,,,,,,,,,,,,,
Laura Lee Bookkeeping,"Loughton, Loughton, England",Bookkeeper,#,+44 7941025771,,Bronze champion partner,Partner since 2013,Xero advisor certified,,,,,,,,,,"Loughton, Loughton, England",+44 7941025771,,,,,,,,,,,,,,,,,,
Libertas Accounting & Advisory,"340 Broad Lane, Moorside House, Leeds, England",Accountant,http://libertasaccounting.co.uk,+44 1138705489,Making Tax Digital Ready,Bronze champion partner,Partner since 2016,Xero advisor certified,Xero migration certified,,,https://www.twitter.com/LibertasAccount,,,,"Arts and recreation, 
Construction and trades","Receipt Bank, 
AutoEntry, 
Datamolino","340 Broad Lane, Moorside House, Leeds, LS13 2HF, England",+44 1138705489,,,,,,,,,,,,,,,,,,
Davis & Co LLP,"AL5 2EJ, Ellerd House, Harpenden, England",Accountant,http://www.davisllp.co.uk,+44 1582761121,,Bronze partner,Partner since 2011,Xero advisor certified,,,,,,,,Professional services,Receipt Bank,"AL5 2EJ, Ellerd House, Harpenden, AL5 2EJ, England",+44 1582761121,"Temple Avenue, London, EC4Y 0HA, England",+44 2073535820,,,,,,,,,,,,,,,,
Equation Accounting Ltd.,"A10 Arena Business Centre, Holyrood Close, Poole, England",Accountant,http://www.equationuk.co.uk,+44 1202069611,Making Tax Digital Ready,Bronze champion partner,Partner since 2016,Xero migration certified,Xero advisor certified,,,,,,,,,"A10 Arena Business Centre, Holyrood Close, Poole, BH17 7FJ, England",+44 1202069611,,,,,,,,,,,,,,,,,,
K8 Bookkeeping,"RH8, Oxted, England",Bookkeeper,http://www.k8bookkeeping.co.uk,+44 7968815171,Making Tax Digital Ready,Bronze champion partner,Partner since 2016,Xero advisor certified,Xero migration certified,,,,,Kate Reynolds,Manager,,,"RH8, Oxted, RH8, England",+44 7968815171,,,,,,,,,,,,,,,,,,
Keith T Hall Book Keeping Services,"Alexandra Road, 1st Floor Office,Number 38, Lowestoft, England",Bookkeeper,http://www.keiththallbook-keeping.co.uk,+44 (0)1502 589073,,Bronze champion partner,Partner since 2015,Xero payroll certified,Xero advisor certified,,,,,Keith Hall,Owner,Real estate and hiring services,,"Alexandra Road, 1st Floor Office,Number 38, Lowestoft, NR32 1PJ, England",+44 (0)1502 589073,,,,,,,,,,,,,,,,,,
Sutherland Business Solutions Limited,"10 Malcolm Gardens, East Kilbride, Scotland",Accountant,http://www.sutherlandbusinesssolutions.com,+44 07975988697,,Bronze champion partner,Partner since 2015,Xero advisor certified,Xero migration certified,,,,,William  Sutherland,Director,Professional services,AutoEntry,"10 Malcolm Gardens, East Kilbride, G74 1QX, Scotland",+44 07975988697,,,,,,,,,,,,,,,,,,
Julie Brandon Accounting and Bookkeeping Services,"Southport, Southport, England",Accountant,,,Making Tax Digital Ready,Bronze champion partner,Partner since 2014,Xero advisor certified,Xero migration certified,,,,,,,"Construction and trades, 
Repairs and personal services, 
Professional services, 
Transportation and storage, 
Administration and support services, 
Retail",AutoEntry,"Southport, Southport, England",+44 7985588210,,,,,,,,,,,,,,,,,,
Cavehill Accountancy Services Ltd,"636A Antrim Road, Belfast, Northern Ireland",Accountant,http://www.cavehillaccountancy.com,+28 90288635,,Bronze champion partner,Partner since 2010,Xero advisor certified,,,,,,,,Retail,Receipt Bank,"636A Antrim Road, Belfast, BT15 5GP, Northern Ireland",+28 90288635,,,,,,,,,,,,,,,,,,
Evolution Advisory and Accounting Limited,"NE12 9SZ, Benton",Accountant,http://www.evolutionadvisory.co.uk,+44 07506787925,,Bronze champion partner,Partner since 2015,Xero payroll certified,Xero advisor certified,,,https://www.twitter.com/evo_advisory,https://www.linkedin.com/company/evolution-advisory-and-accounting-limited/,Michael McGee,Business Growth Director,Administration and support services,,"NE12 9SZ, Benton, NE12 9SZ",+44 07506787925,,,,,,,,,,,,,,,,,,
MMK Chartered Certified Accountants,"1 Canada Square, 29th Floor, London, England",Accountant,http://www.mmkaccountants.com,+44 02077126433,,Bronze champion partner,Partner since 2012,Xero advisor certified,,,,,,Misbahul Karim,Director,,GoCardless,"1 Canada Square, 29th Floor, London, E14 5AH, England",+44 02077126433,"15 George Street West, Luton, LU1, England",+44 01582726600,,,,,,,,,,,,,,,,
NA Associates LLP,"8 Games Road, 1st Floor Woodgate Studios, London, England",Accountant,http://ww.na-associates.co.uk,+44 02082755935,,Bronze champion partner,Partner since 2016,Xero advisor certified,,,,,,Nick Antoniou,,,"Receipt Bank, 
Digita Accounts Production Advanced","8 Games Road, 1st Floor Woodgate Studios, London, EN4 9HN, England",+44 02082755935,,,,,,,,,,,,,,,,,,
Jerry Singh & Co,"Lombard Road, 10/12 Lombard Road, London, England",Accountant,,,Making Tax Digital Ready,Bronze champion partner,Partner since 2012,Xero advisor certified,Xero migration certified,,,,,,,,,"Lombard Road, 10/12 Lombard Road, London, SW19 3TZ, England",+44 020 8540 4414,,,,,,,,,,,,,,,,,,
MJ Support & Co Certified Accountants And Business Consultants,"115 Mare Street, Hackney, London, England",Accountant,https://www.mjsupport.co.uk/,+44 02031435869,Making Tax Digital Ready,Bronze partner,Partner since 2018,Xero advisor certified,Xero migration certified,,https://www.facebook.com/MJSupportandco/,https://www.twitter.com/mjsupportandco,https://www.linkedin.com/company/mjsupportandco/?viewAsMember=true,Mehmood Malak,Tax Advisor,Real estate and hiring services,,"115 Mare Street, Hackney, London, E8 4RU, England",+44 02031435869,"Park Avenue, Ilford, IG1 4RS, England",+44 02031435869,,,,,,,,,,,,,,,,
Tropman & Co Ltd,"Station Road, Liphook, England",Accountant,http://www.tropmanaccountants.co.uk,+44 01428 727861,,Bronze partner,Partner since 2017,Xero advisor certified,Xero migration certified,,https://www.facebook.com/tropmanandco/,https://www.twitter.com/Tropman_CO,https://www.linkedin.com/company/tropman-&-co.-limited/,Candy Connor,Business Services,"Construction and trades, 
Professional services, 
Real estate and hiring services, 
Arts and recreation",,"Station Road, Liphook, GU30 7DW, England",+44 01428 727861,,,,,,,,,,,,,,,,,,
Budd's Bookkeeping,"Essa Road, Saltash",Bookkeeper,http://www.buddsbookkeeping.co.uk,+44 1752936039,Making Tax Digital Ready,Bronze champion partner,Partner since 2013,Xero advisor certified,Xero migration certified,,https://www.facebook.com/BuddsBookkeeping/,https://www.twitter.com/buddsbooks,,Fiona Budd,Bookkeeper and Practice owner,"Professional services, 
Not-for-profit, 
Construction and trades",,"Essa Road, Saltash, PL12 4EE",+44 1752936039,,,,,,,,,,,,,,,,,,
Your PA Online,"7 Evergreen Walk, Longlevens, England",Bookkeeper,http://www.your-pa.online,+44 7922 884787,Making Tax Digital Ready,Bronze partner,Partner since 2018,Xero advisor certified,Xero migration certified,,,,,Emma Whitney,Owner,"Repairs and personal services, 
Real estate and hiring services",GoCardless,"7 Evergreen Walk, Longlevens, GL2 0RD, England",+44 7922 884787,,,,,,,,,,,,,,,,,,
Moore to Bookkeeping,"Race Plain Road, Netherhampton, England",Bookkeeper,http://www.mooretobookkeeping.co.uk,+44 1722744286,Making Tax Digital Ready,Bronze champion partner,Partner since 2015,Xero migration certified,Xero advisor certified,,https://www.facebook.com/mooretobookkeeping,https://www.twitter.com/m2bookkeeping,http://linkedin.com/in/louisemooretobookkeeping,Louise Moore,Certified Bookkeeper,Professional services,Receipt Bank,"Race Plain Road, Netherhampton, SP2 8PL, England",+44 1722744286,,,,,,,,,,,,,,,,,,
Nigel Davies Accountants,"17 Malpas Road, The Old Bank House, Newport, Wales",Accountant,http://www.nigel-davies.co.uk,+163 3850051,,Bronze champion partner,Partner since 2010,Xero advisor certified,Xero migration certified,,,,,Helen Vaughan,,,Receipt Bank,"17 Malpas Road, The Old Bank House, Newport, NP20 5PA, Wales",+163 3850051,,,,,,,,,,,,,,,,,,
Open Counting House Ltd,"50 Stratford Road, Shipston-on-Stour, England",Bookkeeper,http://www.opencountinghouse.com,+44 01608 670779,Making Tax Digital Ready,Bronze partner,Partner since 2018,Xero advisor certified,Xero migration certified,,https://www.facebook.com/opencountinghouse/,https://www.twitter.com/opencounting,http://linkedin.com/in/opencountinghouse,Susan Bruland,Managing Director,,"Receipt Bank, 
AutoEntry","50 Stratford Road, Shipston-on-Stour, CV36 4BA, England",+44 01608 670779,,,,,,,,,,,,,,,,,,
JD Bookkeeping,"Alma Road, Reigate, England",Bookkeeper,http://jd-bookkeeping.business.site,+44 7731 940054,,Bronze partner,Partner since 2015,Xero advisor certified,Xero payroll certified,,,,,,,,,"Alma Road, Reigate, RH2 0DH, England",+44 7731 940054,,,,,,,,,,,,,,,,,,
Accounting Pennies,"Hinckley, Hinckley, England",Accountant,http://www.accountingpennies.com,+44 07514971863,,Bronze partner,Partner since 2018,Xero advisor certified,Xero payroll certified,,,,,,,,,"Hinckley, Hinckley, England",+44 07514971863,,,,,,,,,,,,,,,,,,
ELM Bookkeeping,"5 Viking Meadow, Shefford, Bedfordshire",Bookkeeper,http://www.elmbookkeeping.co.uk,+44 7972917980,,Bronze champion partner,Partner since 2013,Xero payroll certified,Xero advisor certified,,https://www.facebook.com/ELMBookkeeping/,,,Emma Moulton,Owner,,"AutoEntry, 
Receipt Bank","5 Viking Meadow, Shefford, SG17 5GR, Bedfordshire",+44 7972917980,,,,,,,,,,,,,,,,,,
SIAL Accountants & Tax Advisers,"8 High Street, London, England",Accountant,http://www.sial-accountants.co.uk,+44 02085329999,,Bronze champion partner,Partner since 2015,Xero advisor certified,Xero payroll certified,,,,,,,,,"8 High Street, London, E11 2AJ, England",+44 02085329999,,,,,,,,,,,,,,,,,,
craignish books,"Viewforth Place, Pittenweem, Scotland",Bookkeeper,,,,Bronze champion partner,Partner since 2018,Xero payroll certified,Xero advisor certified,,,,,Victoria White,Bookkeeper,Accommodation and hospitality,,"Viewforth Place, Pittenweem, KY10 2PZ, Scotland",+44 7985117479,,,,,,,,,,,,,,,,,,
Complete Book-Keeping Ltd,"43 Southampton Road, Ringwood, England",Accountant,http://www.completebookkeeping.co.uk,+44 7939101900,,Bronze champion partner,Partner since 2015,Xero advisor certified,Xero payroll certified,,https://www.facebook.com/profile.php?id=100009219397997,,,,,,AutoEntry,"43 Southampton Road, Ringwood, BH24 1HE, England",+44 7939101900,,,,,,,,,,,,,,,,,,
Johnston Foster Ltd,"DE45 1GS, Unit 5 Riverside Business Park, Bakewell, England",Accountant,http://www.johnstonfoster.co.uk,+44 1629810012,,Bronze champion partner,Partner since 2014,Xero advisor certified,Xero migration certified,,,,,,,,,"DE45 1GS, Unit 5 Riverside Business Park, Bakewell, DE45 1GS, England",+44 1629810012,,,,,,,,,,,,,,,,,,
KL Templeton,"Welton, Welton, England",Accountant,,,,Bronze champion partner,Partner since 2018,Xero advisor certified,Xero migration certified,,,,,,,,AutoEntry,"Welton, Welton, CA5 7ER, England",+44 7860803888,,,,,,,,,,,,,,,,,,
Peter Winckles Limited,"152 Wilton Street, Main Door, Glasgow, Scotland",Accountant,http://peterwinckles.co.uk,+44 7740029952,,Bronze partner,Partner since 2018,Xero advisor certified,Xero migration certified,,,,,,,,,"152 Wilton Street, Main Door, Glasgow, G20 6DG, Scotland",+44 7740029952,,,,,,,,,,,,,,,,,,
Birkland Accountancy Services Ltd,"29 Birkland Avenue, Off-street parking available, Warsop, England",Accountant,http://www.birklandaccounts.co.uk,+44 7814879296,,Bronze champion partner,Partner since 2017,Xero advisor certified,Xero migration certified,,https://www.facebook.com/birklandaccountancy,,,Lindsey Bowen,Accountant,,,"29 Birkland Avenue, Off-street parking available, Warsop, NG20 0PL, England",+44 7814879296,,,,,,,,,,,,,,,,,,
Amelia Accounts,"230 Amelia Street, London, England",Accountant,http://www.ameliaaccounts.com,+44 7734335853,,Bronze partner,Partner since 2018,Xero advisor certified,Xero payroll certified,,,,,Jeremy shaules,,,Receipt Bank,"230 Amelia Street, London, SE17 3AS, England",+44 7734335853,,,,,,,,,,,,,,,,,,
MacIver Management,"RG20 9PW, The Willows Tubbs Lane, Highclere, England",Accountant,,,,Bronze partner,Partner since 2015,Xero advisor certified,Xero migration certified,,,,,Katherine Maciver,,,Receipt Bank,"RG20 9PW, The Willows Tubbs Lane, Highclere, RG20 9PW, England",+44 01635253893,,,,,,,,,,,,,,,,,,
Lamosa Business Services,"Brixton Road, 463-465, London, England",Bookkeeper,http://www.lamosa.co.uk,+44 02036330551,,Bronze champion partner,Partner since 2016,Xero advisor certified,,,https://business.facebook.com/LamosaBS/?business_id=352805135171211,,,,,Media and communications,,"Brixton Road, 463-465, London, SW9 8HH, England",+44 02036330551,,,,,,,,,,,,,,,,,,
Qorro & Associates,"Greater London, London, England",Accountant,http://qorroassociates.co.uk,+44 02088193479,,Bronze champion partner,Partner since 2012,Xero advisor certified,,,http://facebook.com/qorroassociates,https://www.twitter.com/qorroassociates,,,,,,"Greater London, London, EC2A, England",+44 02088193479,,,,,,,,,,,,,,,,,,
Suvvy Ltd,"40 Upper St Michael's Road, Aldershot, England",Accountant,http://www.suvvy.uk,+44 (0)7898 101449,,Bronze champion partner,Partner since 2018,Xero advisor certified,Xero migration certified,,,,,Sarah Eagar,Director,,,"40 Upper St Michael's Road, Aldershot, GU11 3HA, England",+44 (0)7898 101449,,,,,,,,,,,,,,,,,,
Acqvalue Limited,"Southbridge Place, Croydon, England",Accountant,http://www.acqvalue.com,+44 2080048828,Making Tax Digital Ready,Bronze champion partner,Partner since 2014,Xero advisor certified,Xero migration certified,,https://www.facebook.com/AcqValue-Chartered-Certified-Accountants-1597093433860089/timeline/?ref=tn_tnmn,https://www.twitter.com/acqValue,https://www.linkedin.com/company-beta/9323937/,,,Professional services,"Hubdoc, 
Receipt Bank","Southbridge Place, Croydon, CR0 4HA, England",+44 2080048828,,,,,,,,,,,,,,,,,,
Simple Solutions Bookkeeping,"91 Western Road, Suite 323, Brighton, England",Bookkeeper,,,Making Tax Digital Ready,Bronze champion partner,Partner since 2018,Xero advisor certified,Xero migration certified,,https://www.facebook.com/louise.don.5815,https://www.twitter.com/SSB_Bookkeeping,,Louise Don,Bookkeeper,,,"91 Western Road, Suite 323, Brighton, BN1 2NW, England",,,,,,,,,,,,,,,,,,,
Abacus Book-keeping Company Ltd,"Yonder Way, Wanborough, England",Bookkeeper,http://www.abacusbookkeeping.co.uk,+44 7768165203,,Bronze partner,Partner since 2018,Xero advisor certified,,,,,,,,,,"Yonder Way, Wanborough, SN4 0BX, England",+44 7768165203,"SN4 0HT, Chiseldon, SN4 0HT, England",,,,,,,,,,,,,,,,,
Dart Services,"12a Hill Road, Clevedon, England",Accountant,https://dart-services.co.uk/,+44 01275799777,,Bronze champion partner,Partner since 2017,Xero advisor certified,Xero migration certified,,https://www.facebook.com/dartservicesclevedon,https://www.twitter.com/dartservices12a,https://www.linkedin.com/company/dart-services,,,,AutoEntry,"12a Hill Road, Clevedon, BS21 7NZ, England",+44 01275799777,,,,,,,,,,,,,,,,,,
Kate Dodd Accounting Services,"Lincoln, Lincoln, England",Bookkeeper,http://www.katedoddaccountingservices.com,+44  7803428285,,Bronze partner,Partner since 2018,Xero advisor certified,Xero payroll certified,,https://www.facebook.com/Kate-Dodd-Accounting-Services-548061202328573/?modal=admin_todo_tour,,https://www.linkedin.com/in/kate-dodd-725494178/,,,,,"Lincoln, Lincoln, England",+44  7803428285,,,,,,,,,,,,,,,,,,
Shaw Austin,"45 City Road, Chester, England",Accountant,http://www.shawaustin.co.uk,+44 01244400244,,Bronze champion partner,Partner since 2013,Xero advisor certified,,,,,,Michael Robinson,Accounts Manager,Retail,,"45 City Road, Chester, CH1 3AE, England",+44 01244400244,,,,,,,,,,,,,,,,,,
Eshmair Consulting Limited,"3 Shortlands, London, W6 8DA Shortlands, London, England",Accountant,http://www.eshmair.co.uk,+44 02071234100,,Bronze partner,Partner since 2018,Xero advisor certified,,,,,,,,,,"3 Shortlands, London, W6 8DA Shortlands, London, W6 8DA, England",+44 02071234100,,,,,,,,,,,,,,,,,,
F & F Business Strategies Ltd,"London Road, South Bank Technopark, London, England",Accountant,http://www.fandfbusiness.com,+44 02036673939,,Bronze champion partner,Partner since 2015,Xero advisor certified,Xero migration certified,,https://www.facebook.com/fandfstrategies/,,https://www.linkedin.com/company/f-&-f-business-strategies-ltd/,Erica Freeman,Accountant,,,"London Road, South Bank Technopark, London, SE1 6LN, England",+44 02036673939,,,,,,,,,,,,,,,,,,
Virtus Accounting Limited incorporating VA Books,"20 Churchfields, Widnes, England",Accountant,https://www.virtusaccounting.co.uk/,+44 01513742975,Making Tax Digital Ready,Bronze champion partner,Partner since 2014,Xero advisor certified,Xero migration certified,,https://www.facebook.com/virtusaccounting/,https://www.twitter.com/virtusdavid,https://www.linkedin.com/company/virtus-accounting-limited/,David Lewis,Director,,,"20 Churchfields, Widnes, WA8, England",+44 01513742975,,,,,,,,,,,,,,,,,,
Aspire JD Accounts,"23 Marlborough Road, Atherton, England",Bookkeeper,http://www.aspirejdaccounts.co.uk,+44 07747139742,,Bronze partner,Partner since 2018,Xero advisor certified,,,https://www.facebook.com/Aspire-JD-Accounts-2190619977879553/?modal=admin_todo_tour,,https://www.linkedin.com/feed/,jenny vadasz,,,,"23 Marlborough Road, Atherton, M46 9LT, England",+44 07747139742,,,,,,,,,,,,,,,,,,
Gloucestersphere Accountants Limited,"13 Water Wheel Close, Quedgeley, England",Accountant,http://www.gloucestersphere.co.uk,+44 1452 260960,,Bronze champion partner,Partner since 2017,Xero advisor certified,Xero migration certified,,https://www.facebook.com/gloucestersphereaccountants/,,https://www.linkedin.com/in/rachael-britnell/,Rachael Britnell,Director,Professional services,,"13 Water Wheel Close, Quedgeley, GL2 4XH, England",+44 1452 260960,,,,,,,,,,,,,,,,,,
"Ashworths, Chartered Accountants","169 Union Street, Oldham, England",Accountant,http://www.ashworthsca.co.uk,+44 3302230959,,Bronze champion partner,Partner since 2015,Xero advisor certified,Xero payroll certified,,http://www.facebook.com/ashworthsca/,https://www.twitter.com/ashworthsca,,Jacob Ashworth,,,,"169 Union Street, Oldham, OL1 1TA, England",+44 3302230959,,,,,,,,,,,,,,,,,,
GA Bookkeeping,"10 Poole Close, Cramlington, England",Accountant,http://www.gabookkeepingne.com,+44 7875739634,,Bronze champion partner,Partner since 2014,Xero migration certified,Xero advisor certified,,http://facebook.com/gabookkeepingne,,http://www.linkedin.com/in/gemmaalexanderne,Gemma Alexander,Owner,,,"10 Poole Close, Cramlington, NE23 2QB, England",+44 7875739634,,,,,,,,,,,,,,,,,,
Harrison and Jones Accountancy,"Fauld Lane, Unit 152, Tutbury, England",Accountant,http://www.harrisonjonesaccountancy.com,+44 (0)1283240025,Making Tax Digital Ready,Bronze partner,Partner since 2018,Xero advisor certified,Xero migration certified,,,,,,,Construction and trades,Receipt Bank,"Fauld Lane, Unit 152, Tutbury, DE13 9HS, England",+44 (0)1283240025,,,,,,,,,,,,,,,,,,
O Murphy Accountancy Ltd,"22 Market Court, Kilsyth, Scotland",Accountant,http://omurphyaccountancy.co.uk,+44 7854798925,,Bronze partner,Partner since 2018,Xero migration certified,Xero advisor certified,,https://www.facebook.com/omurphyaccountancy/?modal=admin_todo_tour,,https://www.linkedin.com/company/o-murphy-accountancy-ltd,,,,,"22 Market Court, Kilsyth, G65 0BJ, Scotland",+44 7854798925,,,,,,,,,,,,,,,,,,
Middlestone Business Analysis,"Middlestone Business Analysis, Suite 165, 80 Churchill Square, Kings Hill, England",Accountant,https://www.middlestone.ltd/?utm_source=xero.com&utm_medium=referral,+44 1892 570870,,Bronze champion partner,Partner since 2017,Xero migration certified,Xero advisor certified,,,https://www.twitter.com/MiddlestoneLtd,https://www.linkedin.com/company/middlestone-ltd/,Terry Hopper,Business Analyst & Director,,,"Middlestone Business Analysis, Suite 165, 80 Churchill Square, Kings Hill, ME19 4YU, England",+44 1892 570870,,,,,,,,,,,,,,,,,,
GMT Accounting,"Sedcombe Close, Sidcup, England",Accountant,http://www.gmtaccounting.co.uk,+44 7518 104951,Making Tax Digital Ready,Bronze partner,Partner since 2018,Xero migration certified,Xero advisor certified,,,,,Garry Torrance,Owner,,,"Sedcombe Close, Sidcup, DA14, England",+44 7518 104951,,,,,,,,,,,,,,,,,,
Dow Schofield Watts Private Client Tax LLP,"4100 Park Approach, Leeds, England",Accountant,http://www.dswcf.com,+44 0113 396 0115,,Bronze partner,Partner since 2018,Xero advisor certified,,,,https://www.twitter.com/dswcorporate,https://www.linkedin.com/company/dow-schofield-watts/,Richard Major,Partner,Real estate and hiring services,,"4100 Park Approach, Leeds, LS15 8GB, England",+44 0113 396 0115,"90 Long Acre, London, WC2E 9RA, England",+44 0113 396 0115,,,,,,,,,,,,,,,,
Michael Jones & Co,"Hauxley Close, Redcar, England",Accountant,,,Making Tax Digital Ready,Bronze champion partner,Partner since 2017,Xero advisor certified,Xero migration certified,,,,,,,,,"Hauxley Close, Redcar, TS10 2QT, England",+44 7863332247,,,,,,,,,,,,,,,,,,
OptimumTaxation,"Hauxley Close, Redcar, England","Grosvenor Road, London, England",,,Making Tax Digital Ready,Bronze champion partner,Partner since 2017,Xero migration certified,Xero advisor certified,,https://www.facebook.com/OptimumTaxation/,https://www.twitter.com/OptimumTaxation,https://www.linkedin.com/company/optimumtaxation/,Matthew Hinks,Accountant,,,"Grosvenor Road, London, SW1V 3JU, England",+44 020 3795 0552,,,,,,,,,,,,,,,,,,
Valueadd Bookkeeping and Financial Control Ltd.,"7 Brunswick Road, London, England",Bookkeeper,http://www.valueadd.london/,+44 7742400423,,Bronze champion partner,Partner since 2017,Xero migration certified,Xero advisor certified,,,,,,,,,"7 Brunswick Road, London, W5 1BB, England",+44 7742400423,"11 Saint Chad's Street, London, WC1H 8BG, England",+44 7742400423,,,,,,,,,,,,,,,,
Business In Balance Bookkeeping,"10 Firs Glen Road, Verwood, England",Bookkeeper,,,,Bronze partner,Partner since 2018,Xero migration certified,Xero advisor certified,,,,,,,,,"10 Firs Glen Road, Verwood, BH31 6JB, England",+44 7976307411,,,,,,,,,,,,,,,,,,
Jelly Bean Accountancy,"Worcester, Worcester, England",Accountant,,,,Bronze partner,Partner since 2018,Xero advisor certified,Xero migration certified,,,,,Vicky Cooling,Director and Accountant,,,"Worcester, Worcester, England",+44 07896622438,,,,,,,,,,,,,,,,,,
Flory Bookkeeping Ltd,"46 Market Square, Witney, England",Bookkeeper,http://www.florybookkeeping.co.uk,+44 07780868274,,Bronze partner,Partner since 2015,Xero advisor certified,,,,,,Anna Flory,Director,"Accommodation and hospitality, 
Education, 
Professional services",,"46 Market Square, Witney, OX28 6AL, England",+44 07780868274,,,,,,,,,,,,,,,,,,
JM Bookkeeping Services,"Havelock Terrace, Gateshead, England",Bookkeeper,http://www.jmbookkeepingservices.com,+44 7769710318,,Bronze partner,Partner since 2013,Xero advisor certified,,,,,,Juliet McKenna,Director,Accommodation and hospitality,"Receipt Bank, 
Vend","Havelock Terrace, Gateshead, NE8 1QU, England",+44 7769710318,,,,,,,,,,,,,,,,,,
Brady & Associates,"Taylor's Lane, Suite 69, Dublin 8, County Dublin",Accountant,http://www.bradyassociates.ie,+353 35316877046,,Bronze partner,Partner since 2016,Xero advisor certified,,,https://www.facebook.com/accountantdublin,https://www.twitter.com/bradyassoc,https://www.linkedin.com/company/brady-&-associates,,,"Professional services, 
Media and communications","Receipt Bank, 
AutoEntry","Taylor's Lane, Suite 69, Dublin 8, County Dublin",+353 35316877046,,,,,,,,,,,,,,,,,,
Bright Sterling,"53 Sheen Lane, London, England",Accountant,http://www.brightsterling.com,+44 02083921099,,Bronze partner,Partner since 2015,Xero advisor certified,,,,https://www.twitter.com/BrightSterling,,,,"Professional services, 
Marketing, advertising and consulting",,"53 Sheen Lane, London, SW14, England",+44 02083921099,,,,,,,,,,,,,,,,,,
Deerfell,"37 Brent Hill, Holbeton, England",Bookkeeper,#,+44 07973 179395,,Bronze partner,Partner since 2013,Xero advisor certified,,,https://www.facebook.com/deerfell/,,,Holly Rahder,Bookkeeper,"Construction and trades, 
Accommodation and hospitality, 
Agriculture",AutoEntry,"37 Brent Hill, Holbeton, PL8 1LW, England",+44 07973 179395,,,,,,,,,,,,,,,,,,
Brooks & Co,"9 Cheam Road, Ewell, England",Accountant,https://www.brooksandco-accountants.co.uk/,+44 020 8642 8681,,Bronze partner,Partner since 2014,Xero advisor certified,,,https://www.facebook.com/Brooks-Co-Chartered-Accountants-419447554758262/,,,,,Arts and recreation,,"9 Cheam Road, Ewell, KT17 1SP, England",+44 020 8642 8681,"High Street, East Grinstead, RH19 3AW, England",+44 01342 317 789,,,,,,,,,,,,,,,,
FMCB Chartered Accountants,"N3 1QF, 3rd Floor Hathaway House, London, England",Accountant,http://www.fmcb.co.uk/,+44 0208 346 6446,,Bronze champion partner,Partner since 2014,Xero advisor certified,,,,https://www.twitter.com/FMCBaccountants,,,,Professional services,,"N3 1QF, 3rd Floor Hathaway House, London, N3 1QF, England",+44 0208 346 6446,,,,,,,,,,,,,,,,,,
AbacusBean Limited,"TS18 3HR, Stockton-on-Tees, England",Accountant,http://www.abacus-bean.co.uk,+44 1642 307469,,Bronze partner,Partner since 2018,Xero advisor certified,,,https://www.facebook.com/abacusbean.co.uk/,https://www.twitter.com/AbacusBean,https://www.linkedin.com/company/18881615/admin/updates/,Bev Goodall,Managing Director,"Marketing, advertising and consulting, 
Professional services","Fluidly, 
Hubdoc","TS18 3HR, Stockton-on-Tees, TS18 3HR, England",+44 1642 307469,,,,,,,,,,,,,,,,,,
Stroud Accounting Solutions Limited,"8 Spillmans Court, Rodborough, Stroud, Gloucestershire",Accountant,http://www.stroudaccounting.co.uk,+44 1453708100,,Bronze partner,Partner since 2014,Xero advisor certified,,,,,,,,,,"8 Spillmans Court, Rodborough, Stroud, GL5 3RU, Gloucestershire",+44 1453708100,,,,,,,,,,,,,,,,,,
DJ Coulter & Associates Limited,"7 Clarence Parade, Cheltenham, Gloucestershire",Accountant,http://www.djcoulter.co.uk,+44 1242265766,,Bronze partner,Partner since 2011,Xero advisor certified,,,,,,,,"Marketing, advertising and consulting, 
Professional services","Receipt Bank, 
Float","7 Clarence Parade, Cheltenham, GL50 3NY, Gloucestershire",+44 1242265766,,,,,,,,,,,,,,,,,,
Together Bookkeeping Services,"Home Lea, The Green, Stowupland, Suffolk",Bookkeeper,http://www.togetherbookkeeping.co.uk,+44 1449609413,,Bronze partner,Partner since 2012,Xero advisor certified,,,,,,,,"Construction and trades, 
Real estate and hiring services","AutoEntry, 
Receipt Bank, 
Entryless, 
GoCardless, 
Zapier","Home Lea, The Green, Stowupland, IP14 4AE, Suffolk",+44 1449609413,,,,,,,,,,,,,,,,,,
E. F. Barry & Co,"1st Floor Offices, Orwell Shopping Centre, Templeogue, Dublin",Accountant,http://www.efbarry.ie,+353 35314298846,,Bronze partner,Partner since 2016,Xero advisor certified,,,,,,,,Professional services,Receipt Bank,"1st Floor Offices, Orwell Shopping Centre, Templeogue, D6W T995, Dublin",+353 35314298846,,,,,,,,,,,,,,,,,,
Anita Benge Accountancy Services Ltd,"TN33 9QD, Fairview, Netherfield, England",Accountant,http://www.anitabengeaccountancy.co.uk,+44 01424774182,,Bronze partner,Partner since 2010,Xero advisor certified,,,https://www.facebook.com/Anita-Benge-Accountancy-Services-298739496573/,,,,,,Receipt Bank,"TN33 9QD, Fairview, Netherfield, TN33 9QD, England",+44 01424774182,,,,,,,,,,,,,,,,,,
Chadderton Accounting,"99 Fernleigh, Leyland, England",Accountant,http://www.chaddertonaccounting.co.uk,+44 1772 382088,,Bronze partner,Partner since 2017,Xero advisor certified,,,https://www.facebook.com/ChaddertonAccounting/,https://www.twitter.com/ChaddertonAccs,,,,Construction and trades,Receipt Bank,"99 Fernleigh, Leyland, PR26 7AL, England",+44 1772 382088,,,,,,,,,,,,,,,,,,
Holmes Accountancy Limited,"22 Walker Avenue, Wolverton, England",Accountant,http://www.holmesaccountancy.co.uk,+44 01908315716,,Bronze partner,Partner since 2014,Xero advisor certified,,,https://www.facebook.com/HolmesAccountancyLtd/,https://www.twitter.com/Holmes_Company,https://www.linkedin.com/company/2136419/admin/,Susan Hayhoe,Accountant,Professional services,Receipt Bank,"22 Walker Avenue, Wolverton, MK12 5TW, England",+44 01908315716,,,,,,,,,,,,,,,,,,
Empire Business Support Ltd,"96 Chorley New Road, Bolton, BL1 4DH, Bolton, England",Bookkeeper,http://www.empirebusiness.org.uk,+44 07810512872,,Bronze partner,Partner since 2012,Xero advisor certified,,,,https://www.twitter.com/Empire_business,https://www.linkedin.com/in/howard-cheetham-empire-business-support-ltd-276a901a/,Julie Cheetham,Director,"Construction and trades, 
Professional services",Receipt Bank,"96 Chorley New Road, Bolton, BL1 4DH, Bolton, BL1 4DH, England",+44 07810512872,,,,,,,,,,,,,,,,,,
Easy Solutions Group,"Daniels Brook House, 123 Thoresby Avenue, Gloucester, Gloucestershire",Accountant,http://www.easysolutionsgroup.co.uk,+44 1452546682,,Bronze partner,Partner since 2014,Xero advisor certified,,,,,,,,"Construction and trades, 
Professional services",Receipt Bank,"Daniels Brook House, 123 Thoresby Avenue, Gloucester, GL4 0TF, Gloucestershire",+44 1452546682,,,,,,,,,,,,,,,,,,
T S Associates,"271A Franciscan Road, London, England",Accountant,,,,Bronze partner,Partner since 2018,Xero advisor certified,,,,,,Sandip Ray,T S Associates - Accountants,"Construction and trades, 
Media and communications",,"271A Franciscan Road, London, SW17 8HE, England",+44 7984576574,,,,,,,,,,,,,,,,,,
Pittalis Gilchrist LLP,"303 Ballards Lane, Global House, London, England",Accountant,http://www.pgcca.com,+44 2084929440,,Bronze partner,Partner since 2014,Xero advisor certified,,,,,,,,Administration and support services,,"303 Ballards Lane, Global House, London, N12 8NP, England",+44 2084929440,,,,,,,,,,,,,,,,,,
Falconer Stewart Chartered Accountants,"248 Upper Newtownards Road, Belfast, Northern Ireland",Accountant,,,,Bronze partner,Partner since 2013,Xero advisor certified,,,,,,,,"E-commerce, 
Professional services",Fathom,"248 Upper Newtownards Road, Belfast, BT4 3EU, Northern Ireland",+28 90474100,"93 Main Street, Suite 4 Commerical Mews, Larne, BT40, Northern Ireland",+28 28262100,,,,,,,,,,,,,,,,
ONSHORE CONSULTING,"Sheath Lane, Oxshott, England",Accountant,http://www.onshore-consulting.co.uk,+44 1372842136,,Bronze partner,Partner since 2016,Xero advisor certified,,,,,,Vanessa Lamming,Principal Director,"Marketing, advertising and consulting",,"Sheath Lane, Oxshott, KT22 0QU, England",+44 1372842136,,,,,,,,,,,,,,,,,,
Libra Wealth Management Ltd,"Suite 31, 10 Churchill Square, Kings Hill, Kent",Accountant,http://www.lwmltd.com,+44 1732897900,,Bronze partner,Partner since 2014,Xero advisor certified,,,,,,,,,Fathom,"Suite 31, 10 Churchill Square, Kings Hill, ME19 4YU, Kent",+44 1732897900,,,,,,,,,,,,,,,,,,
Cambridge Payroll Limited,"Cambridge Payroll Limited, Pampisford, England",Bookkeeper,http://www.cambridgepayroll.com,+44 223836296,,Bronze partner,Partner since 2014,Xero advisor certified,,,https://www.facebook.com/CambridgePayroll/,https://www.twitter.com/CamPayroll,https://www.linkedin.com/in/hannahcollier/,Alison Cooke,Book-keeping Manager,Manufacturing,Receipt Bank,"Cambridge Payroll Limited, Pampisford, CB22 3HB, England",+44 223836296,,,,,,,,,,,,,,,,,,
Books and Numbers,"24 Taphouse Avenue, Witney, England",Bookkeeper,http://www.booksandnumbers.com,+44 01993 647484,,Bronze partner,Partner since 2015,Xero advisor certified,,,https://www.facebook.com/booksandnumbers,https://www.twitter.com/booksandnumbers,https://www.linkedin.com/company/books-and-numbers-limited,Claire Butler,,"Repairs and personal services, 
Professional services","Receipt Bank, 
AutoEntry","24 Taphouse Avenue, Witney, OX28 1JJ, England",+44 01993 647484,,,,,,,,,,,,,,,,,,
Jamesons Limited,"Compton Way, Witney, England",Accountant,http://www.jamesons.co.uk,+44 1993 707850,,Bronze partner,Partner since 2013,Xero advisor certified,,,https://www.facebook.com/jamesons.accountants/,https://www.twitter.com/jamesonswitney,https://www.linkedin.com/company/jamesons-limited,,,Finance and insurance,,"Compton Way, Witney, OX28 3AB, England",+44 1993 707850,,,,,,,,,,,,,,,,,,
MND Training Services,"10 Copper Beech Close, Home Office, Hemel Hempstead, England",Accountant,http://www.mndtraining.co.uk,+44 07913944795,,Bronze partner,Partner since 2011,Xero advisor certified,,,https://www.facebook.com/xerotrainer/?ref=bookmarks,https://www.twitter.com/trainmemel,https://www.linkedin.com/in/meldowie/,,,,"Receipt Bank, 
Spotlight Reporting","10 Copper Beech Close, Home Office, Hemel Hempstead, HP3 0DG, England",+44 07913944795,,,,,,,,,,,,,,,,,,
St Matthew Accountants,"Beckett House, 36 Old Jewry, London, EC2R 8DD",Accountant,http://www.stmworldwide.com,+44 2033186953,,Bronze partner,Partner since 2012,Xero advisor certified,,,,,,,,,,"Beckett House, 36 Old Jewry, London, EC2R 8DD",+44 2033186953,,,,,,,,,,,,,,,,,,
Beryl's Bookkeeping,"Lith View House, 47 South Road, Horndean, Waterlooville, Hampshire",Bookkeeper,http://www.berylsbookkeeping.co.uk,+44 7920485568,,Bronze partner,Partner since 2013,Xero advisor certified,,,https://www.facebook.com/BerylsB/,,https://www.linkedin.com/in/hannah-stevens-259106a0/,,,Construction and trades,Datamolino,"Lith View House, 47 South Road, Horndean, Waterlooville, PO8 0EW, Hampshire",+44 7920485568,,,,,,,,,,,,,,,,,,
Able Bookkeeping,"19 Greenways, Fleet, England",Bookkeeper,http://www.ablebookkeeping.co.uk,+44 1252625454,,Bronze partner,Partner since 2013,Xero advisor certified,,,,,,,,Professional services,,"19 Greenways, Fleet, GU52 7XG, England",+44 1252625454,,,,,,,,,,,,,,,,,,
Lothian Accounting,"3 Priory Wynd, North Berwick, Scotland",Accountant,http://www.lothianaccounting.com,+44 77360 59877,,Bronze partner,Partner since 2015,Xero advisor certified,,,,,,Mimi Anderson,,"E-commerce, 
Construction and trades",,"3 Priory Wynd, North Berwick, EH39 4SA, Scotland",+44 77360 59877,,,,,,,,,,,,,,,,,,
APPLE ACCOUNTING SERVICES LTD,"12B Sun Street, Waltham Abbey",Accountant,http://www.appleaccounting.co.uk,+44 1992701188,,Bronze champion partner,Partner since 2016,Xero advisor certified,,,,,,,,"Construction and trades, 
Marketing, advertising and consulting, 
Accommodation and hospitality, 
Manufacturing",,"12B Sun Street, Waltham Abbey, EN9 1EE",+44 1992701188,,,,,,,,,,,,,,,,,,
Chartered Online Accountant,"37 Palace Gates Road, London, England",Accountant,http://www.charteredonlineaccountant.com,+44 208 133 9876,,Bronze partner,Partner since 2011,Xero advisor certified,,,,,,Tom Trainer,,"Professional services, 
Accommodation and hospitality","Receipt Bank, 
AutoEntry","37 Palace Gates Road, London, N22 7BW, England",+44 208 133 9876,,,,,,,,,,,,,,,,,,
Thornton Springer LLP,"67 Westow Street, Upper Norwood, London",Accountant,http://www.thorntonspringer.co.uk/,+44 2087718661,,Bronze partner,Partner since 2012,Xero advisor certified,,,,,,,,,,"67 Westow Street, Upper Norwood, London",+44 2087718661,,,,,,,,,,,,,,,,,,
Aston Black Limited,"12 Kenchester, Bancroft, England",Accountant,http://www.accountantmk.co.uk,+44 1908320663,,Bronze partner,Partner since 2015,Xero advisor certified,,,https://www.facebook.com/Aston-Black-Accountant-231647617384459/,https://www.twitter.com/astonblackacct,https://www.linkedin.com/in/chris-weston-b5343216/?originalSubdomain=uk,,,,,"12 Kenchester, Bancroft, MK13 0QP, England",+44 1908320663,,,,,,,,,,,,,,,,,,
BAS Associates Ltd,"131 High Street, Northchurch, Berkhamsted, England",Accountant,http://www.basassociates.co.uk,+44 1442560050,,Bronze partner,Partner since 2012,Xero advisor certified,,,,,,,,Construction and trades,GoCardless,"131 High Street, Northchurch, Berkhamsted, HP4 3QR, England",+44 1442560050,"5 Brecon Close, Dibden Purlieu, SO45 5QX, England",+44 2382027681,,,,,,,,,,,,,,,,
Paddy Quinn & Co,"208 Botanic Avenue, Dublin, County Dublin",Accountant,http://www.paddyquinn.ie,+353 18378080,,Bronze partner,Partner since 2017,Xero advisor certified,,,https://www.facebook.com/paddyquinnandco/,https://www.twitter.com/paddyquinn9,https://www.linkedin.com/in/paddy-quinn-860ba975/,Paddy Quinn,Principal,Professional services,Receipt Bank,"208 Botanic Avenue, Dublin, County Dublin",+353 18378080,,,,,,,,,,,,,,,,,,
Virtual Biz Services Ltd,"Park Road, Surrey, Kenley, England",Accountant,http://www.vbiz-services.co.uk,+44 07825 177 707,,Bronze partner,Partner since 2011,Xero advisor certified,,,,https://www.twitter.com/Vbiz_services,,,,"Professional services, 
Retail, 
Construction and trades, 
Arts and recreation, 
Repairs and personal services, 
Administration and support services","Receipt Bank, 
DataDear","Park Road, Surrey, Kenley, CR8 5AR, England",+44 07825 177 707,,,,,,,,,,,,,,,,,,
Frampton & Co (Sussex) Limited,"37 Station Road, Bexhill-on-Sea, England",Accountant,http://www.framptonaccountants.co.uk/,+44 01424 211141,,Bronze partner,Partner since 2018,Xero advisor certified,,,https://www.facebook.com/FramptonandCo,,,,,"Repairs and personal services, 
Accommodation and hospitality",,"37 Station Road, Bexhill-on-Sea, TN40 1RG, England",+44 01424 211141,,,,,,,,,,,,,,,,,,
Taxlab,"93A South Bridge Street, Bathgate, Scotland",Accountant,http://taxlab.co.uk/,+44 08458626009,,Bronze partner,Partner since 2012,Xero advisor certified,,,https://www.facebook.com/Taxlab-Accountants-394429570579045,https://www.twitter.com/intyatTAXLAB,https://www.linkedin.com/in/taxlab/,Inty Ahmed,Director / Senior Accountant,"Professional services, 
Retail, 
Construction and trades, 
Administration and support services",Receipt Bank,"93A South Bridge Street, Bathgate, EH48 1TJ, Scotland",+44 08458626009,"Glenfield, 4, Livingston, EH54 7BG, Scotland",+44 08458626009,,,,,,,,,,,,,,,,
Accounting Advice Ltd,"20 Ellacombe Road, Longwell Green, England",Accountant,http://www.accountingadviceltd.co.uk,+117 9325345,,Bronze partner,Partner since 2010,Xero advisor certified,,,http://facebook.com/accountingadviceltd,,https://www.linkedin.com/company-beta/24600040,Mark Buttery,Chartered Accountant,"Professional services, 
Construction and trades",,"20 Ellacombe Road, Longwell Green, BS30 9BA, England",+117 9325345,,,,,,,,,,,,,,,,,,
Business Atrium,"Unit 41E, Leyton Industrial Village, London, E10 7QP, London",Accountant,http://www.businessatrium.co.uk,+44 2076177126,,Bronze partner,Partner since 2010,Xero advisor certified,,,,,,,,Professional services,"Receipt Bank, 
GoCardless, 
iwoca","Unit 41E, Leyton Industrial Village, London, E10 7QP, London",+44 2076177126,,,,,,,,,,,,,,,,,,
Darbys Limited,"The Square, Retford, England",Accountant,http://www.darbys.com,+44 01777702126,,Bronze partner,Partner since 2018,Xero advisor certified,,,,,,,,"Professional services, 
Construction and trades",,"The Square, Retford, DN22 6DQ, England",+44 01777702126,"Trinity Street, Gainsborough, DN21 1JW, England",+44 01427617874,,,,,,,,,,,,,,,,
L J Hanbury Chartered Certified Accountants,"143 Tamworth Road, Long Eaton, England",Accountant,https://www.ljhanbury.co.uk/,+44 1158494242,,Bronze partner,Partner since 2015,Xero advisor certified,,,,,,,,"Marketing, advertising and consulting",GoCardless,"143 Tamworth Road, Long Eaton, NG10 1BY, England",+44 1158494242,,,,,,,,,,,,,,,,,,
Kemp Le Tissier Limited,"Kemp Le Tissier, Suite 1, Houmet House, Guernsey, Castel",Accountant,http://www.kempletissier.com,+44 01481 253050,,Bronze partner,Partner since 2014,Xero advisor certified,,,https://www.facebook.com/kempletissier/,,,,,Construction and trades,AutoEntry,"Kemp Le Tissier, Suite 1, Houmet House, Guernsey, GY5 7XZ, Castel",+44 01481 253050,,,,,,,,,,,,,,,,,,
Wagner Associates Limited,"34 West George Street, Glasgow, Scotland",Accountant,http://www.wagnerassociates.co.uk,+44 7850979785,,Bronze partner,Partner since 2014,Xero advisor certified,,,https://www.facebook.com/leo.wagner.33,https://www.twitter.com/WagnerAssociate,http://lnkd.in/yyPuxr,LEO WAGNER,DIRECTOR,"Professional services, 
Construction and trades",,"34 West George Street, Glasgow, G2 1DA, Scotland",+44 7850979785,"28 Rutland Square, Edinburgh, EH1 2BW, Scotland",+44 7850979785,,,,,,,,,,,,,,,,
AcCys Limited,"32 Main Street, Sorn",Accountant,http://www.accys.co.uk,+44 1414048494,,Bronze partner,Partner since 2014,Xero advisor certified,,,,,,,,"Repairs and personal services, 
Professional services, 
Construction and trades",,"32 Main Street, Sorn, KA5 6HU",+44 1414048494,,,,,,,,,,,,,,,,,,
Tax Solutions Scotland Limited,"27 Morison Avenue, Stornoway, Scotland",Accountant,http://www.taxsolutionsscotland.co.uk,+44 7793535227,,Bronze partner,Partner since 2015,Xero advisor certified,,,https://www.facebook.com/taxsolutionsscotland/?ref=hl,,https://www.linkedin.com/in/murraymack/?ppe=1,Murray Mackay,Chartered Tax Adviser,Administration and support services,,"27 Morison Avenue, Stornoway, HS1 2HQ, Scotland",+44 7793535227,,,,,,,,,,,,,,,,,,
Lester Associates Ltd,"77 Fulham Palace Road, London",Bookkeeper,http://www.lestersaccounting.com,+44 2087356380,,Bronze partner,Partner since 2016,Xero advisor certified,,,,,,,,Professional services,,"77 Fulham Palace Road, London, W6 8JA",+44 2087356380,,,,,,,,,,,,,,,,,,
Limerick Accounting Service,"Garden House, Garden Hill, Castleconnell",Accountant,http://www.limerickaccounting.ie,+353 35361418560,,Bronze partner,Partner since 2011,Xero advisor certified,,,,,,,,Transportation and storage,,"Garden House, Garden Hill, Castleconnell",+353 35361418560,,,,,,,,,,,,,,,,,,
M & J Ward Ltd,"Foster Street, Kinver, England",Bookkeeper,http://www.mandjward.com,+44 7966155572,,Bronze partner,Partner since 2014,Xero advisor certified,,,,,,,,,,"Foster Street, Kinver, DY7 6EB, England",+44 7966155572,,,,,,,,,,,,,,,,,,
Camerons Accountancy,"Camerons Accountancy Consultants, 9, Cassington, England",Accountant,,,,Bronze partner,Partner since 2018,Xero advisor certified,,,,,,Adam Woolford,Director,,,"Camerons Accountancy Consultants, 9, Cassington, OX29 4SX, England",+44 1865 882 621,,,,,,,,,,,,,,,,,,
Flamingo Accounting,"21 Clapham High Street, London, England",Accountant,http://www.flamingo-accounting.co.uk,+44 02032865851,,Bronze partner,Partner since 2017,Xero advisor certified,,,http://www.facebook.com/FlamingoAccounting/,https://www.twitter.com/FlamingoAccount,http://www.linkedin.com/company/flamingo-accounting/,,,"Accommodation and hospitality, 
Construction and trades",Receipt Bank,"21 Clapham High Street, London, SW4 7TR, England",+44 02032865851,"Princes Street, Southampton, SO14 5RP, England",+44 02032865851,,,,,,,,,,,,,,,,
Farries Bookkeeping Services Ltd,"4 Dorchester Way, We work in Macclesfield Areas, Macclesfield, England",Bookkeeper,http://www.farriesbookkeepingservices.com,+44 01625 409116,,Bronze partner,Partner since 2015,Xero advisor certified,,,https://www.facebook.com/Farries-Bookkeeping-Services-347475115595238,https://www.twitter.com/RoseFarries,,Rose  Farries,Director,"Real estate and hiring services, 
Retail",,"4 Dorchester Way, We work in Macclesfield Areas, Macclesfield, SK10 2LQ, England",+44 01625 409116,,,,,,,,,,,,,,,,,,
TACS (SW) LTD,"TQ9 6EN, LC 201, Dartington Space, Totnes, England",Accountant,http://www.tacs-sw.co.uk,+44 01803 840500,,Bronze partner,Partner since 2018,Xero advisor certified,,,,,,,,Accommodation and hospitality,,"TQ9 6EN, LC 201, Dartington Space, Totnes, TQ9 6EN, England",+44 01803 840500,"1 Mayor's Avenue, Dartmouth, TQ6 9NF, England",+44 07596 485652,,,,,,,,,,,,,,,,
Craiglockhart Financial Services,"10 Craiglockhart Road, Edinburgh, Scotland",Accountant,http://www.craiglockhart-fs.co.uk,+789 9006006,,Bronze partner,Partner since 2014,Xero advisor certified,,,,,,Jenny Mackenzie,Owner,,,"10 Craiglockhart Road, Edinburgh, EH14, Scotland",+789 9006006,,,,,,,,,,,,,,,,,,
Barnes Clark of Maldon,"88 The Causeway, Heybridge, England",Accountant,http://www.barnesclarkofmaldon.co.uk/,+44 1621 856461,,Bronze partner,Partner since 2013,Xero advisor certified,,,,,,Holly Newman,Part Qualfied Accountant,"Construction and trades, 
Professional services",,"88 The Causeway, Heybridge, CM9 4LL, England",+44 1621 856461,,,,,,,,,,,,,,,,,,
Base52 Ltd,"30 Bancroft, Suite 9, Hitchin, England",Accountant,http://www.base52.co.uk,+44 1462423152,,Bronze partner,Partner since 2019,Xero advisor certified,,,https://www.facebook.com/Base52accountants/,https://www.twitter.com/Base52_CMA,https://Linkedin.com/company/base52-ltd,Simon Johnson,Accountant,Professional services,"Receipt Bank, 
AutoEntry","30 Bancroft, Suite 9, Hitchin, SG5 1LA, England",+44 1462423152,,,,,,,,,,,,,,,,,,
E Sampson Ltd,"Thamesfield Cottage, Wargrave Road, Henley-on-Thames, Wokingham",Accountant,http://www.esampsonaccountants.co.uk,+44 7905519724,,Bronze partner,Partner since 2010,Xero advisor certified,,,,,,,,Professional services,,"Thamesfield Cottage, Wargrave Road, Henley-on-Thames, RG9 3JD, Wokingham",+44 7905519724,,,,,,,,,,,,,,,,,,
Westwood Accountancy,"Consett Innovation Centre, Office 6, Consett, England",Accountant,http://www.westwoodaccountancy.com,+44 1207509871,,Bronze partner,Partner since 2013,Xero advisor certified,,,http://www.facebook.com/WestwoodAccountancy,,http://uk.linkedin.com/in/sharronskeen,Sharron Skeen,Director/Chartered Management Accountant,"Professional services, 
Retail, 
Construction and trades, 
Arts and recreation",,"Consett Innovation Centre, Office 6, Consett, DH8 5XS, England",+44 1207509871,,,,,,,,,,,,,,,,,,
Galley & Tindle,"DH1 1TW, Oakmere, Durham, England",Accountant,http://www.galleyandtindle.co.uk,+44 1913864786,,Bronze partner,Partner since 2010,Xero advisor certified,,,https://www.facebook.com/galleyandtindle,https://www.twitter.com/galleyandtindle,,,,"Education, 
Professional services","EzzyBills, 
GoCardless","DH1 1TW, Oakmere, Durham, DH1 1TW, England",+44 1913864786,,,,,,,,,,,,,,,,,,
Garry Quinn Accounts & Tax,"102 Werburgh Drive, Stoke-on-Trent, England",Accountant,,,,Bronze partner,Partner since 2017,Xero advisor certified,,,,,,,,,,"102 Werburgh Drive, Stoke-on-Trent, ST4, England",+44 1782713079,,,,,,,,,,,,,,,,,,
Michael Morris Accountancy Services Ltd,"123 High Street, Rainham, England",Accountant,http://www.4maccountancy.co.uk,+44 01634 304948,,Bronze partner,Partner since 2017,Xero advisor certified,,,,,,,,"Construction and trades, 
Retail, 
Professional services",,"123 High Street, Rainham, ME8 8AN, England",+44 01634 304948,,,,,,,,,,,,,,,,,,
TaxAssist Accountants Kettering,"22 Silver Street, Kettering, Northants",Accountant,http://www.taxassist.co.uk/kettering,+44 1536428444,,Bronze partner,Partner since 2015,Xero advisor certified,,,,,,,,,Receipt Bank,"22 Silver Street, Kettering, NN16 0BN, Northants",+44 1536428444,,,,,,,,,,,,,,,,,,
Goddard & Co.,"Church Street, Goddard & Co., Odiham, England",Accountant,https://www.goddardand.co.uk/,+44 01256701801,,Bronze partner,Partner since 2014,Xero advisor certified,,,,,,Richard Goddard,Accountant,"Real estate and hiring services, 
Professional services",,"Church Street, Goddard & Co., Odiham, RG29 1LU, England",+44 01256701801,,,,,,,,,,,,,,,,,,
A1 Lifestyle Accounts Ltd,"PE19 6EN, Little Paxton, England",Accountant,,,,Bronze partner,Partner since 2018,Xero advisor certified,,,,,,,,,,"PE19 6EN, Little Paxton, PE19 6EN, England",+44 1480 395545,"Saint Neots, Saint Neots, PE19, England",+44 1480 395546,,,,,,,,,,,,,,,,
Mark Stanley Accountants Ltd,"15 Mickleton Close, Consett, England",Accountant,https://www.markstanleyaccountants.co.uk/,+44 01207582528,,Bronze partner,Partner since 2018,Xero advisor certified,,,https://www.facebook.com/markstanleyaccountants/,,https://www.linkedin.com/in/alison-smith-5b290358/,,,Professional services,,"15 Mickleton Close, Consett, DH8 7UG, England",+44 01207582528,,,,,,,,,,,,,,,,,,
Swann Systems Ltd,"Mill Close, Braunston, England",Bookkeeper,,,,Bronze partner,Partner since 2016,Xero advisor certified,,,,,,Sheila Bell,Director,"Marketing, advertising and consulting, 
Construction and trades",AutoEntry,"Mill Close, Braunston, NN11 7HY, England",+44 01788890199,,,,,,,,,,,,,,,,,,
Brownlows Accountants,"Bank Chambers, Belgrave Square, Darwen",Accountant,http://www.brownlows-accountants.co.uk,+44 1254659556,,Bronze partner,Partner since 2012,Xero advisor certified,,,,,,,,,"AutoEntry, 
GoCardless, 
Zapier","Bank Chambers, Belgrave Square, Darwen, BB3 1BU",+44 1254659556,,,,,,,,,,,,,,,,,,
MyTax,"Holmes Court House, 29A Bridge Street, Kenilworth, Warwickshire",Accountant,http://my-tax.co.uk/what-we-use/,+44 1926864010,,Bronze partner,Partner since 2013,Xero advisor certified,,,,,,,,Professional services,,"Holmes Court House, 29A Bridge Street, Kenilworth, Warwickshire, CV8 1BP",+44 1926864010,,,,,,,,,,,,,,,,,,
DSC Metropolitan LLP,"BN27 3TD, One The Courtyard, Chalvington, England",Accountant,http://www.dscmetropolitan.com,+44 02036510267,,Bronze partner,Partner since 2014,Xero advisor certified,,,https://www.facebook.com/dscmetropolitan,https://www.twitter.com/DSCMetropolitan,https://www.linkedin.com/company/dsc-metropolitan-llp-chartered-accountants/,,,Professional services,,"BN27 3TD, One The Courtyard, Chalvington, BN27 3TD, England",+44 02036510267,,,,,,,,,,,,,,,,,,
Link Accounting Ltd,"Barford Road, Bloxham, England",Accountant,http://www.link-accounting.co.uk,+44 1295 720500,,Bronze partner,Partner since 2016,Xero advisor certified,,,https://www.facebook.com/LinkAccountingLtd/?ref=aymt_homepage_panel,,https://www.linkedin.com/company/13224057/,,,"Professional services, 
Accommodation and hospitality, 
Construction and trades","Receipt Bank, 
AutoEntry","Barford Road, Bloxham, OX15 4FF, England",+44 1295 720500,"Ystrad Mynach, Ystrad Mynach, CF82, Wales",+44 07724 047172,,,,,,,,,,,,,,,,
The Boss Partnership,"6 Parkside Court , Greenhough Road , Lichfield .WS13 7FE, Lichfield, England",Accountant,http://www.thebosspartnership.co.uk,+44 01543 264151,,Bronze partner,Partner since 2013,Xero advisor certified,,,https://www.facebook.com/thebosspartners/,https://www.twitter.com/thebosspartners,http://www.linkedin.com/in/logankhan,Sue Kinsey,Accountant,Construction and trades,Receipt Bank,"6 Parkside Court , Greenhough Road , Lichfield .WS13 7FE, Lichfield, WS13 7FE, England",+44 01543 264151,,,,,,,,,,,,,,,,,,
The Boss Partnership,"6 Parkside Court , Greenhough Road , Lichfield .WS13 7FE, Lichfield, England",Accountant,http://www.thebosspartnership.co.uk,+44 01543 264151,,Bronze partner,Partner since 2013,Xero advisor certified,,,https://www.facebook.com/thebosspartners/,https://www.twitter.com/thebosspartners,http://www.linkedin.com/in/logankhan,Jennine Phillips,,Construction and trades,Receipt Bank,"6 Parkside Court , Greenhough Road , Lichfield .WS13 7FE, Lichfield, WS13 7FE, England",+44 01543 264151,,,,,,,,,,,,,,,,,,
LMH Business Services,"Nottingham, Nottingham, England",Accountant,http://lmhbusiness.com,+44 7557774037,,Bronze partner,Partner since 2018,Xero advisor certified,,,https://m.facebook.com/LMHbusiness/,https://www.twitter.com/lmhbusiness,https://www.linkedin.com/in/lisahughes77/,,,Real estate and hiring services,"AutoEntry, 
Hubdoc","Nottingham, Nottingham, England",+44 7557774037,,,,,,,,,,,,,,,,,,
Timothy Kelliher,"Lewis Road, 4 Court Yard House, Killarney, County Kerry",Accountant,https://www.timothykelliher.com/,+353 646632105,,Bronze partner,Partner since 2012,Xero advisor certified,,,https://www.facebook.com/TimothyKelliherFCA/,https://www.twitter.com/TimKelliher_FCA,https://www.linkedin.com/in/timothy-kelliher-6b7b4462,Timothy Kelliher,Chartered Accountant,"Real estate and hiring services, 
Retail, 
Professional services","Receipt Bank, 
DataDear, 
AutoEntry, 
FUTRLI","Lewis Road, 4 Court Yard House, Killarney, County Kerry",+353 646632105,,,,,,,,,,,,,,,,,,
CHD Associates LLP,"Altrincham Road, 2nd Floor, The Royals, Wythenshawe, England",Accountant,,,,Bronze partner,Partner since 2018,Xero advisor certified,,,,,,,,Real estate and hiring services,,"Altrincham Road, 2nd Floor, The Royals, Wythenshawe, M22 4BJ, England",+44 01614883381,,,,,,,,,,,,,,,,,,
Accounts Assured,"BN14, Worthing, England",Accountant,http://www.accountsassured.co.uk,+44 1903868959,,Bronze partner,Partner since 2015,Xero advisor certified,,,,,,,,"Repairs and personal services, 
Administration and support services",GoCardless,"BN14, Worthing, BN14, England",+44 1903868959,,,,,,,,,,,,,,,,,,
Complete Cash Management Limited,"SO40 9LA, Totton, England",Bookkeeper,http://www.completecashmanagement.co.uk,+44  2380 001145,,Bronze partner,Partner since 2019,Xero advisor certified,,,https://www.facebook.com/CompleteCashManagementLimited/,,https://www.linkedin.com/in/carolynhobbs,,,,,"SO40 9LA, Totton, SO40 9LA, England",+44  2380 001145,,,,,,,,,,,,,,,,,,
Clarke Nicklin LLP,"Cheadle Royal Business Park, Cheadle, England",Accountant,http://www.clarkenicklin.co.uk/,+44 0161 495 4700,,Bronze partner,Partner since 2010,Xero advisor certified,,,,,,,,Media and communications,Fathom,"Cheadle Royal Business Park, Cheadle, SK8 3GY, England",+44 0161 495 4700,,,,,,,,,,,,,,,,,,
Folio Accounting Services Ltd,"112 Longland Road, Old Town, Eastbourne, East Sussex",Accountant,http://www.folioaccounting.com/,+44 7779239763,,Bronze partner,Partner since 2013,Xero advisor certified,,,,,,,,,,"112 Longland Road, Old Town, Eastbourne, East Sussex, BN20 8JD",+44 7779239763,,,,,,,,,,,,,,,,,,
Simplicity Accounting Limited,"59 Adelaide Street, Belfast",Accountant,http://www.simplicity-accounting.com,+44 2890726088,,Bronze partner,Partner since 2013,Xero advisor certified,,,,,,,,Professional services,"The Payroll Site, 
Receipt Bank, 
FUTRLI","59 Adelaide Street, Belfast, BT2 8FE",+44 2890726088,,,,,,,,,,,,,,,,,,
The Accounting Studio,"23 Downscroft Gardens, Hedge End, England",Accountant,https://www.theaccountingstudio.co.uk,+44 02380 989118,,Bronze partner,Partner since 2018,Xero advisor certified,,,,,,Gareth Atkinson,Founder of The Accounting Studio,"Marketing, advertising and consulting",GoCardless,"23 Downscroft Gardens, Hedge End, SO30 4RR, England",+44 02380 989118,,,,,,,,,,,,,,,,,,
K M Chartered Accountants,"BB11 1JG, 1st Floor, Block C The Wharf, Manchester Road, Burnley, England",Accountant,http://www.kmaccountants.co.uk,+282 426331,,Bronze partner,Partner since 2014,Xero advisor certified,,,https://www.facebook.com/kmaccountants.co.uk,,https://uk.linkedin.com/company/km-chartered-accountants,,,Construction and trades,"Digita Accounts Production Advanced, 
Receipt Bank","BB11 1JG, 1st Floor, Block C The Wharf, Manchester Road, Burnley, BB11 1JG, England",+282 426331,,,,,,,,,,,,,,,,,,
Adaptas,"66 Milbourne Lane, Esher, England",Bookkeeper,https://www.adaptas.co.uk/,+44 01372438068,,Bronze partner,Partner since 2017,Xero advisor certified,,,,,,,,,"Receipt Bank, 
FUTRLI","66 Milbourne Lane, Esher, KT10 9EA, England",+44 01372438068,,,,,,,,,,,,,,,,,,
PBH Accounting Limited,"23 Plumian Way, Balsham, England",Accountant,http://www.pbh-accounting.co.uk,+44 01223291408,,Bronze partner,Partner since 2017,Xero advisor certified,,,,,,,,,,"23 Plumian Way, Balsham, CB21, England",+44 01223291408,,,,,,,,,,,,,,,,,,
Peter Stratton,"52 Handen Road, SE12 8NR, London, England",Accountant,http://www.peterstratton.co.uk,+44 2031376212,,Bronze partner,Partner since 2017,Xero advisor certified,,,,,,Peter Stratton,Owner,,"Receipt Bank, 
FUTRLI","52 Handen Road, SE12 8NR, London, England",+44 2031376212,,,,,,,,,,,,,,,,,,
Rushtons Chartered Accountants & Business Advisers,"1 Faraday Drive, Preston, Fulwood, England",Accountant,http://www.rushtonsaccountants.com,+44 1772693111,,Bronze partner,Partner since 2016,Xero advisor certified,,,,https://www.twitter.com/rushtonsaccs,https://www.linkedin.com/company/2379099/,Chris Calvert,Director - Client Manager,Professional services,,"1 Faraday Drive, Preston, Fulwood, PR2 9NB, England",+44 1772693111,"Avroe Crescent, Blackpool, FY4 2DP, England",+44 1253345444,,,,,,,,,,,,,,,,
WHITEHEAD & HOWARTH,"327 Clifton Drive South, Lytham Saint Annes, England",Accountant,http://www.whaccountants.co.uk/,+44 1253725111,,Bronze partner,Partner since 2015,Xero advisor certified,,,https://www.facebook.com/WHAccountants,https://www.twitter.com/WHAccountants,https://www.linkedin.com/company-beta/1220447/,Candice  Higgins,Partner,Professional services,,"327 Clifton Drive South, Lytham Saint Annes, FY8 1HN, England",+44 1253725111,,,,,,,,,,,,,,,,,,
PJC Accounting Services,"7 Filleul Road, Sandford, England",Accountant,http://www.pjcacs.co.uk/,+44 1929 550802,,Bronze partner,Partner since 2014,Xero advisor certified,,,https://www.facebook.com/pjcacs.co.uk/,,,Peter Constable,Accountant,,,"7 Filleul Road, Sandford, BH20 7AW, England",+44 1929 550802,,,,,,,,,,,,,,,,,,
BGS Accounting Ltd,"75 Exploration Drive, BGS Accounting Limited, Leicester, England",Accountant,http://www.bgsaccounting.co.uk,+44 7940780751,,Bronze partner,Partner since 2018,Xero advisor certified,,,https://www.facebook.com/bgsaccounting,https://www.twitter.com/BGSACCOUNTING,https://www.linkedin.com/company/bgsaccounting,Bhavesh Shah,Company Director,,,"75 Exploration Drive, BGS Accounting Limited, Leicester, LE4 5NS, England",+44 7940780751,,,,,,,,,,,,,,,,,,
Censea Business Services,"14a Glen Road, Sarisbury Green, Southampton",Bookkeeper,http://www.censea.co.uk,+44 1489481500,,Bronze partner,Partner since 2013,Xero advisor certified,,,,,,Jane Chamberlain,Owner,"Real estate and hiring services, 
Professional services",AutoEntry,"14a Glen Road, Sarisbury Green, SO31 7FD, Southampton",+44 1489481500,,,,,,,,,,,,,,,,,,
J Aubin Ltd,"4 Old Barn Close, Christchurch, England",Accountant,http://www.aubins.co.uk,+44 01202480810,,Bronze partner,Partner since 2013,Xero advisor certified,,,https://www.facebook.com/JAubinLtd/?ref=bookmarks,https://www.twitter.com/JAubinLtd,https://www.linkedin.com/in/joy-aubin-9238a318/,,,Professional services,,"4 Old Barn Close, Christchurch, BH23 2QZ, England",+44 01202480810,,,,,,,,,,,,,,,,,,
New Energy Chartered Accountants,"Golden Island, 1st Floor, Diskin Retail Park, Athlone, County Westmeath",Accountant,http://newenergycharteredaccountants.ie,+353 871947957,,Bronze partner,Partner since 2016,Xero advisor certified,,,https://facebook.com/newenergyaccountants/,https://www.twitter.com/newnrgacs,https://www.linkedin.com/in/john-harney-4b736823/,,,Utilities,"Receipt Bank, 
FUTRLI, 
Power BI, 
AutoEntry","Golden Island, 1st Floor, Diskin Retail Park, Athlone, County Westmeath",+353 871947957,,,,,,,,,,,,,,,,,,
Wormald & Partners,"Redland House, Bristol, England",Accountant,http://www.wormaldandpartnersaccountants.co.uk,+44 117 9736 856,,Bronze partner,Partner since 2010,Xero advisor certified,,,,,,,,Professional services,Receipt Bank,"Redland House, Bristol, BS6 6YE, England",+44 117 9736 856,,,,,,,,,,,,,,,,,,
Regulatory Accounting Limited,"SN2 2EH, Priam House, Fire Fly Avenue, Swindon, England",Accountant,http://www.regaccounting.co.uk,+44 1793 209160,,Bronze partner,Partner since 2016,Xero advisor certified,,,,https://www.twitter.com/RegAccounting,https://www.linkedin.com/company-beta/10667927/,,,"Construction and trades, 
Marketing, advertising and consulting",,"SN2 2EH, Priam House, Fire Fly Avenue, Swindon, SN2 2EH, England",+44 1793 209160,,,,,,,,,,,,,,,,,,
Coffee Not Inc Ltd,"Broad Lane, Upper Bucklebury, England",Bookkeeper,http://coffeenotinc.co.uk,+20 8144 0471,Making Tax Digital Ready,Bronze partner,Partner since 2011,Xero advisor certified,,,https://www.facebook.com/pg/coffeenotincluded/,https://www.twitter.com/CoffeeNotInc,http://linkedin.com/in/coffeenotinc,Tracy Baker,"Director, CEO and Founder of Coffee Not Inc Ltd",Professional services,,"Broad Lane, Upper Bucklebury, RG7 6QJ, England",+20 8144 0471,"Newbury, Newbury, England",+20 8144 0471,,,,,,,,,,,,,,,,
J Bardolph Accountants Ltd,"11 Avenue Court, Gosport, England",Accountant,https://www.facebook.com/JBardolphAccountants/,+44 7814694213,,Bronze partner,Partner since 2017,Xero advisor certified,,,https://www.facebook.com/JBardolphAccountants/,,,Jonathan Bardolph,Director of J Bardolph Accountants Ltd,,,"11 Avenue Court, Gosport, PO12 2LQ, England",+44 7814694213,,,,,,,,,,,,,,,,,,
Certax Accounting Fitzrovia,"85 Tottenham Court Road, London, England",Accountant,http://www.certaxlondon.co.uk,+44 2080044608,,Bronze partner,Partner since 2017,Xero advisor certified,,,https://www.facebook.com/certaxfitzrovia/,,,,,,,"85 Tottenham Court Road, London, W1T 4TQ, England",+44 2080044608,,,,,,,,,,,,,,,,,,
"Grant Considine, Chartered Accountants","46 High St, Banchory, Aberdeenshire",Accountant,http://www.grantconsidine.com/,+44 1330823333,,Bronze partner,Partner since 2014,Xero advisor certified,,,,,,,,Professional services,,"46 High St, Banchory, AB31 5XU, Aberdeenshire",+44 1330823333,,,,,,,,,,,,,,,,,,
JOE GARAHY CHARTERED ACCOUNTANT,"46 High St, Banchory, Aberdeenshire","Sligo, Sligo, County Sligo",,,,Bronze partner,Partner since 2016,Xero advisor certified,,,,,,,,,Vend,"Sligo, Sligo, County Sligo",+353 087-6428588,,,,,,,,,,,,,,,,,,
AIMS Accountants for Business,"28 Deane Croft Road, Pinner, England",Accountant,http://judeballard.aims.co.uk,+44 02089669774,,Bronze partner,Partner since 2019,Xero advisor certified,,,,,,Jude Ballard,Principal,,,"28 Deane Croft Road, Pinner, HA5 1SR, England",+44 02089669774,,,,,,,,,,,,,,,,,,
CloudTech Financial,"63-66 Hatton Garden, Fifth Floor, Suite 23, London, England",Bookkeeper,http://www.cloudtechfinancial.co.uk,+44 3339874107,,Bronze partner,Partner since 2018,Xero advisor certified,,,,,,,,,,"63-66 Hatton Garden, Fifth Floor, Suite 23, London, EC1N 8LE, England",+44 3339874107,,,,,,,,,,,,,,,,,,
Account4TAX,"7 Pelham Close, Westham, England",Accountant,http://www.account4tax.co.uk,+44 07932 008661,,Bronze partner,Partner since 2015,Xero advisor certified,,,,,,Robert Newton,Accountant,Construction and trades,,"7 Pelham Close, Westham, BN24 5NL, England",+44 07932 008661,,,,,,,,,,,,,,,,,,
BJT Accountants,"Saint Austell Close, 6, Eastleigh, England",Accountant,https://www.bjtaccountants.co.uk,+44 02381 242871,,Bronze partner,Partner since 2018,Xero advisor certified,,,https://www.facebook.com/BJTAccountantsLtd/,https://www.twitter.com/BjtLtd,https://www.linkedin.com/company/bjt-accountants-ltd/,Rob Sheppard,,Arts and recreation,,"Saint Austell Close, 6, Eastleigh, SO50 6GQ, England",+44 02381 242871,,,,,,,,,,,,,,,,,,
Finacc Direct,"68 Hastings Avenue, Ilford, England",Bookkeeper,http://www.finaccdirect.com/,+44 07715442373,,Bronze partner,Partner since 2018,Xero advisor certified,,,https://www.facebook.com/finaccdirect/,,https://www.linkedin.com/company/finaccdirect/,Ganeshan Jeganthan,,,,"68 Hastings Avenue, Ilford, IG6 1DU, England",+44 07715442373,"Galle Main Road, Colombo 06, Colombo, Western Province",+44 07715442373,,,,,,,,,,,,,,,,
Gower Accountancy,"250 Humberstone Road, Leicester, England",Accountant,http://www.accountantsleicester.net,+44 1162206019,,Bronze partner,Partner since 2012,Xero advisor certified,,,,,,,,Construction and trades,,"250 Humberstone Road, Leicester, LE5 0EG, England",+44 1162206019,,,,,,,,,,,,,,,,,,
Robsons Accountants,"19 Montpelier Avenue, Bexley, England",Accountant,http://www.robsons.net,+44 02083035909,,Bronze partner,Partner since 2019,Xero advisor certified,,,https://en-gb.facebook.com/accountantskent/,https://www.twitter.com/RobsonsAccounts,https://www.linkedin.com/company/robsons-accountants-limited,Graham Bonner-Leney,Senior Manager,"Manufacturing, 
Construction and trades",,"19 Montpelier Avenue, Bexley, DA5 3AP, England",+44 02083035909,,,,,,,,,,,,,,,,,,
Sandra Sowerbutts,"Clitheroe, Ribble Valley District, England",Bookkeeper,http://www.ssowerbutts.co.uk,+44 7984747065,,Bronze partner,Partner since 2017,Xero advisor certified,,,,,,,,"Retail, 
Professional services",,"Clitheroe, Ribble Valley District, England",+44 7984747065,,,,,,,,,,,,,,,,,,
Roseworth Accountancy,"14 Roseberry Court, Stokesley, England",Accountant,https://www.roseworthaccountancy.co.uk/,+44 1642714039,,Bronze partner,Partner since 2017,Xero advisor certified,,,https://www.facebook.com/roseworthaccountancy/,https://www.twitter.com/Roseworth_Accts,https://www.linkedin.com/in/robert-cooper-fmaat/,Helen Davison,Accountant,Agriculture,,"14 Roseberry Court, Stokesley, TS9 5QT, England",+44 1642714039,,,,,,,,,,,,,,,,,,
Crowcroft & Crowcroft,"12 The Drove, Horton Heath, EASTLEIGH",Accountant,http://www.two-crowcrofts.co.uk/,+44 2380694705,,Bronze partner,Partner since 2014,Xero advisor certified,,,,,,,,,,"12 The Drove, Horton Heath, EASTLEIGH, SO50 7NW",+44 2380694705,,,,,,,,,,,,,,,,,,
Evans Accountants Ltd,"Evans and Co, Nottingham, England",Accountant,https://www.evansaccountants.co.uk/,+44 01159427867,,Bronze partner,Partner since 2014,Xero advisor certified,,,https://www.facebook.com/EvansAccountantsLtd/,,,,,,,"Evans and Co, Nottingham, NG7 2RR, England",+44 01159427867,,,,,,,,,,,,,,,,,,
Chamberlains (Accountancy & Taxation) Limited,"Station Road, 8 Oakfield House, Dorridge, England",Accountant,http://chamberlains.tax,+44 1564771545,,Bronze partner,Partner since 2014,Xero advisor certified,,,https://www.facebook.com/Chamberlains-Accountants-596824474059999/?view_public_for=596824474059999,,,,,Professional services,,"Station Road, 8 Oakfield House, Dorridge, B93 8HE, England",+44 1564771545,,,,,,,,,,,,,,,,,,
Darcey & Bate Accountants,"Market Street, Ashby-de-la-Zouch, England",Accountant,http://www.darceyandbateaccountants.com,+44 1530 414 285,,Bronze partner,Partner since 2014,Xero advisor certified,,,https://www.facebook.com/Darceyandbateaccountants,https://www.twitter.com/DarceyandBate,,,,"Marketing, advertising and consulting",,"Market Street, Ashby-de-la-Zouch, LE65 1AL, England",+44 1530 414 285,,,,,,,,,,,,,,,,,,
Kesworth Limited,"Highgate Drive, Priorslee, England",Accountant,http://www.kesworth.com/,+44 7976267829,,Bronze partner,Partner since 2015,Xero advisor certified,,,,,,,,Professional services,,"Highgate Drive, Priorslee, TF2 9FE, England",+44 7976267829,,,,,,,,,,,,,,,,,,
Nockels Gee,"OX14 3PX, Abingdon, England",Accountant,http://www.nockelsgee.co.uk,+44 01235 555315,,Bronze partner,Partner since 2016,Xero advisor certified,,,,,,,,,,"OX14 3PX, Abingdon, OX14 3PX, England",+44 01235 555315,,,,,,,,,,,,,,,,,,
Price Pearson Wheatley,"Clarendon House, 14 St Andrews Street, Droitwich Spa, England",Accountant,http://www.pricepearsonwheatley.co.uk,+44 1905773143,,Bronze partner,Partner since 2014,Xero advisor certified,,,,,,,,,,"Clarendon House, 14 St Andrews Street, Droitwich Spa, WR9 8DY, England",+44 1905773143,,,,,,,,,,,,,,,,,,
Reach Accounting Solutions Limited,"3 Chapel Street, Congleton, England",Accountant,http://www.reachadvice.co.uk,+44 01538 711000,,Bronze partner,Partner since 2017,Xero advisor certified,,,http://www.facebook.com/reachaccounting,,http://www.linkedin.com/company/reach-accounting-solutions-limited/,Karen Wright,Director at Reach Accounting Solutions Limited,"Marketing, advertising and consulting",Receipt Bank,"3 Chapel Street, Congleton, CW12 4AB, England",+44 01538 711000,,,,,,,,,,,,,,,,,,
SB Bookkeeping Services,"IP6 9SZ, Crowfield, England",Bookkeeper,http://www.sbbk.co.uk,+44 07942 866948,,Bronze partner,Partner since 2018,Xero advisor certified,,,,,,Suzanne Bloomfield,Owner,Professional services,,"IP6 9SZ, Crowfield, IP6 9SZ, England",+44 07942 866948,,,,,,,,,,,,,,,,,,
Nicola Hageman Accountancy Ltd,"Bedford Road, Transport House, Woodlands Park, Clapham, England",Accountant,http://www.nicolahagemanaccountancy.co.uk,+44 1234 607420,,Bronze partner,Partner since 2017,Xero advisor certified,,,https://www.facebook.com/nicolahagemanaccountancy/,https://www.twitter.com/NH_Accountancy,https://www.linkedin.com/in/nicolahageman/,Nicola Hageman,,,"Xavier Analytics, 
Receipt Bank, 
GoCardless","Bedford Road, Transport House, Woodlands Park, Clapham, MK41 6EJ, England",+44 1234 607420,,,,,,,,,,,,,,,,,,
Nicola Hageman Accountancy Ltd,"Bedford Road, Transport House, Woodlands Park, Clapham, England",Accountant,http://www.nicolahagemanaccountancy.co.uk,+44 1234 607420,,Bronze partner,Partner since 2017,Xero advisor certified,,,https://www.facebook.com/nicolahagemanaccountancy/,https://www.twitter.com/NH_Accountancy,https://www.linkedin.com/in/nicolahageman/,Eleanor Urban,,,"Xavier Analytics, 
Receipt Bank, 
GoCardless","Bedford Road, Transport House, Woodlands Park, Clapham, MK41 6EJ, England",+44 1234 607420,,,,,,,,,,,,,,,,,,
Jane Cooksey Limited,"Boarshurst Lane, Greenfield, England",Accountant,,,,Bronze partner,Partner since 2019,Xero advisor certified,,,,,,Jane Cooksey,Accountant,,,"Boarshurst Lane, Greenfield, OL3, England",+44 1457877087,,,,,,,,,,,,,,,,,,
Somerbys Chartered Accountants,"30 Nelson Street, Leicester, England",Accountant,http://www.somerbys.co.uk,+116 2795700,,Bronze champion partner,Partner since 2010,Xero advisor certified,,,,,,,,Professional services,Hubdoc,"30 Nelson Street, Leicester, LE1 7BA, England",+116 2795700,,,,,,,,,,,,,,,,,,
REL Accounting,"Avenue Road, Cranleigh, England",Accountant,http://www.relaccounting.co.uk,+44 7909 917157,,Bronze partner,Partner since 2017,Xero advisor certified,,,,,,,,,,"Avenue Road, Cranleigh, GU6 7LL, England",+44 7909 917157,,,,,,,,,,,,,,,,,,
Banks Cooper Associates,"HU1 1TJ, 21 Marina Court, Hull, England",Accountant,http://www.bankscooper.co.uk,+44 01482 322260,,Bronze partner,Partner since 2014,Xero advisor certified,,,,,,Tracy Hutty,Partner,Administration and support services,,"HU1 1TJ, 21 Marina Court, Hull, HU1 1TJ, England",+44 01482 322260,"Wellington Street, WestOne, Leeds, LS1 1BA, England",+44 01133884840,,,,,,,,,,,,,,,,
Ruth J Ronald & Co Ltd,"G63 0AQ, Drymen, Scotland",Accountant,http://www.ruthjronaldca.co.uk,+44 1360870395,,Bronze partner,Partner since 2017,Xero advisor certified,,,,,,Ruth Ronald,,,,"G63 0AQ, Drymen, G63 0AQ, Scotland",+44 1360870395,,,,,,,,,,,,,,,,,,
The Hayhoe Webb Partnership,"Brewery Park, Joun Muir House Campus , Haddington, Scotland",Accountant,https://www.thehayhoewebbpartnership.co.uk/,+44 01620 826 060,,Bronze champion partner,Partner since 2014,Xero advisor certified,,,,,,Paul Hayhoe,Partner,Accommodation and hospitality,,"Brewery Park, Joun Muir House Campus , Haddington, EH41 3AB, Scotland",+44 01620 826 060,"Brewery Park, Haddington, EH41 3AB, Scotland",+44 01620 826 060,,,,,,,,,,,,,,,,
Eljay Accountancy Ltd,"Kinetic Business Centre, Borehamwood",Accountant,http://www.eljayandco.co.uk,+44 2083871590,,Bronze partner,Partner since 2015,Xero advisor certified,,,,https://www.twitter.com/eljayandco,http://uk.linkedin.com/in/rogercavendish,,,Accommodation and hospitality,"Receipt Bank, 
FUTRLI","Kinetic Business Centre, Borehamwood, WD6 4PJ",+44 2083871590,"43 New Road, Radlett, WD7 8LX, England",+44 07970560241,,,,,,,,,,,,,,,,
Jones Harris Ltd,"17 Saint Peter's Place, Fleetwood",Accountant,http://www.jones-harris.co.uk,+44 1253874255,,Bronze partner,Partner since 2015,Xero advisor certified,,,,,,,,Accommodation and hospitality,Power BI,"17 Saint Peter's Place, Fleetwood, FY7 6EB",+44 1253874255,,,,,,,,,,,,,,,,,,
Cranmore Accountancy,"16 Cranmore Avenue, Belfast, Northern Ireland",Accountant,,,,Bronze partner,Partner since 2015,Xero advisor certified,,,,,,,,E-commerce,"Receipt Bank, 
Zapier","16 Cranmore Avenue, Belfast, BT9 6JH, Northern Ireland",,,,,,,,,,,,,,,,,,,
Orca Financial Management Ltd,"29 Gelliwastad Road, First Floor, Pontypridd, Wales",Accountant,http://www.orca-finance.co.uk,+44 01443 803226,,Bronze partner,Partner since 2017,Xero advisor certified,,,https://www.facebook.com/orcafinancialmanagement/,https://www.twitter.com/Orca_Financial,https://www.linkedin.com/company/orca-financial-management/,Ben Rowlands,Chartered Management Accountant,"Professional services, 
Construction and trades",Receipt Bank,"29 Gelliwastad Road, First Floor, Pontypridd, CF37 2BN, Wales",+44 01443 803226,,,,,,,,,,,,,,,,,,
Dolmans Accountants Ltd,"Horse Street, Chipping Sodbury, England",Accountant,http://www.dolmans.co,+44 01454 649249,,Bronze partner,Partner since 2015,Xero advisor certified,,,,,,,,Construction and trades,,"Horse Street, Chipping Sodbury, BS37 6AD, England",+44 01454 649249,,,,,,,,,,,,,,,,,,
Somers McGill,"6 Kerry Street, Horsforth, England",Accountant,http://www.somersmcgill.co.uk,+44 1132590280,,Bronze partner,Partner since 2018,Xero advisor certified,,,,,,,,Professional services,,"6 Kerry Street, Horsforth, LS18 4AW, England",+44 1132590280,,,,,,,,,,,,,,,,,,
Lee & Co Accountancy Services Ltd,"38 Little Scotland, Blackrod, England",Bookkeeper,,,,Bronze partner,Partner since 2018,Xero advisor certified,,,,,,,,Accommodation and hospitality,,"38 Little Scotland, Blackrod, BL6 5LW, England",+44 07383245365,,,,,,,,,,,,,,,,,,
Page & Co,"Little Gables, High Street, Godshill, England",Accountant,,,,Bronze partner,Partner since 2009,Xero advisor certified,,,,,,,,Construction and trades,,"Little Gables, High Street, Godshill, PO38 3HH, England",,,,,,,,,,,,,,,,,,,
Paulley's Accountancy Limited,"Bristol Road, Keynsham, England",Accountant,http://www.paulleys.co.uk,+44 07876782610,,Bronze partner,Partner since 2018,Xero advisor certified,,,,,,,,,,"Bristol Road, Keynsham, BS31 2WA, England",+44 07876782610,,,,,,,,,,,,,,,,,,
Pro Book Solutions Limited,"29 Harley Street, Leigh on Sea, Essex",Accountant,http://www.probook.solutions,+44 1702714714,,Bronze partner,Partner since 2014,Xero advisor certified,,,,,,,,,,"29 Harley Street, Leigh on Sea, SS9 2NJ, Essex",+44 1702714714,,,,,,,,,,,,,,,,,,
Tandle Accountancy Limited,"Kirkdale Drive, Royton, England",Accountant,http://www.tandleaccountancy.co.uk,+44 07889182373,,Bronze partner,Partner since 2017,Xero advisor certified,,,,,,,,,,"Kirkdale Drive, Royton, OL2, England",+44 07889182373,,,,,,,,,,,,,,,,,,
BFC Business Services Ltd,"52 Knollys Road, London, England",Accountant,http://bfcbs.co.uk,+44 20 3519 1408,,Bronze partner,Partner since 2013,Xero advisor certified,,,,https://www.twitter.com/gstiksma,https://www.linkedin.com/in/gill-stiksma-9a88266/,,,"Arts and recreation, 
Professional services, 
Marketing, advertising and consulting","AutoEntry, 
Receipt Bank, 
iZettle","52 Knollys Road, London, SW16, England",+44 20 3519 1408,,,,,,,,,,,,,,,,,,
Armadillo Accounts,"Brighton, Brighton, England",Accountant,#,+44 07966277601,,Bronze partner,Partner since 2013,Xero advisor certified,,,http://www.facebook.com/ArmadilloAccounts,,,Tanya Brightwell,,Professional services,,"Brighton, Brighton, England",+44 07966277601,,,,,,,,,,,,,,,,,,
Counters Consulting Limited,"Turnpike Gate House, Alcester Heath, Alcester, Warwickshire, Birmingham",Accountant,http://www.countersconsulting.co.uk,+44 01789400595,,Bronze partner,Partner since 2011,Xero advisor certified,,,,,,,,,,"Turnpike Gate House, Alcester Heath, Alcester, Warwickshire, Birmingham, B49 5JG",+44 01789400595,"Rother Street, Stratford-upon-Avon, CV37 6LU, England",+44 01789 400595,"CV34 4AG, Warwick, CV34 4AG, England",+44 01789 400595,"GL55 6HB, Chipping Campden, GL55 6HB, England",+44 01789 400595,"CV35 9LT, Wellesbourne, CV35 9LT, England",+44 01789400595,"Quiney's Leys, Welford-on-Avon, CV37 8PU, England",+44 01789400595,,,,,,,,
GQ Consulting,"1 Old Street Yard, London, England",Accountant,http://www.gqconsulting.co.uk,+44 2035909997,,Bronze partner,Partner since 2018,Xero advisor certified,,,http://www.facebook.com/gqconsulting.co.uk,,https://www.linkedin.com/company/gqc-ltd/,Zachary Quinn,Managing Director,,Hubdoc,"1 Old Street Yard, London, EC1A 1AH, England",+44 2035909997,,,,,,,,,,,,,,,,,,
AccountAbel Ltd,"10 Northumberland Avenue, Aylesbury",Accountant,http://www.account-abel.co.uk,+44 7508554470,,Bronze partner,Partner since 2016,Xero advisor certified,,,,,,,,Professional services,,"10 Northumberland Avenue, Aylesbury, HP21 7HG",+44 7508554470,,,,,,,,,,,,,,,,,,
Enterprise Accounts Ltd,"CV35 9EF, Wellesbourne, England",Bookkeeper,https://www.enterpriseaccounts.com/,+44 1926357357,,Bronze partner,Partner since 2018,Xero advisor certified,,,,,,Robert Ballantyne,,,,"CV35 9EF, Wellesbourne, CV35 9EF, England",+44 1926357357,,,,,,,,,,,,,,,,,,
Fortify Consultants,"Portland House Oak Green, Cheadle Hulme, England",Accountant,http://fortifyconsultants.co.uk/,+161 9208691,,Bronze partner,Partner since 2017,Xero advisor certified,,,https://www.facebook.com/Fortify-Consultants-455145848009575,https://www.twitter.com/fortifycon,https://www.linkedin.com/company/10220223,,,Professional services,Receipt Bank,"Portland House Oak Green, Cheadle Hulme, SK8 6QL, England",+161 9208691,,,,,,,,,,,,,,,,,,
Freeman Lawrence & Partners Ltd,"15 College Road, Harrow, England",Accountant,http://www.flpca.com,+44 2085158087,,Bronze partner,Partner since 2014,Xero advisor certified,,,,,,,,,,"15 College Road, Harrow, HA1 1BA, England",+44 2085158087,,,,,,,,,,,,,,,,,,
Proficio Accountants,"CM3 8HJ, Thistle Cottage, South Hanningfield, England",Accountant,https://www.proficioaccountants.co.uk,+44 1268206236,,Bronze partner,Partner since 2014,Xero advisor certified,,,,,,,,Real estate and hiring services,,"CM3 8HJ, Thistle Cottage, South Hanningfield, CM3 8HJ, England",+44 1268206236,,,,,,,,,,,,,,,,,,
MRO Accounts Limited,"Maylands Business Park, Redbourn Road, Hemel Hempstead, England",Accountant,http://www.mroaccounts.co.uk,+44 1442 767450 ,,Bronze partner,Partner since 2016,Xero advisor certified,,,http://www.facebook.com/mroaccounts,https://www.twitter.com/mroaccounts,,,,Real estate and hiring services,"DataDear, 
Receipt Bank, 
GoCardless","Maylands Business Park, Redbourn Road, Hemel Hempstead, HP2 7ES, England",+44 1442 767450,,,,,,,,,,,,,,,,,,
Andrew Guy,"Limavady, Limavady, Northern Ireland",Accountant,http://nowebsite.co.uk,+44 777828340,,Bronze partner,Partner since 2015,Xero advisor certified,,,,,,Andrew Guy,CEO,Professional services,"Receipt Bank, 
Vistr","Limavady, Limavady, Northern Ireland",+44 777828340,,,,,,,,,,,,,,,,,,
Cavanagh Jackson Limited,"4 Bedern Bank, 1st Floor, Ripon, England",Accountant,http://www.cavanaghjackson.com,+44 07482343189,,Bronze partner,Partner since 2017,Xero advisor certified,,,,,,Katherine Cavanagh-Jackson,Accountant & Tax Adviser,,,"4 Bedern Bank, 1st Floor, Ripon, HG4 1BS, England",+44 07482343189,,,,,,,,,,,,,,,,,,
Designated Bookkeeping Services Ltd,"71 Stonewall, London, England",Bookkeeper,#,+44 07399622233,,Bronze partner,Partner since 2019,Xero advisor certified,,,https://fb.me/designatedbks,,,,,"Marketing, advertising and consulting",,"71 Stonewall, London, E6 6NY, England",+44 07399622233,,,,,,,,,,,,,,,,,,
Linham Bookkeeping,"6 King Street, Frome, England",Accountant,http://www.linham.com,+44 1373 462248,,Bronze partner,Partner since 2014,Xero advisor certified,,,,,,,,,,"6 King Street, Frome, BA11, England",+44 1373 462248,,,,,,,,,,,,,,,,,,
MC2 Aberdeen Limited,"6 King Street, Frome, England","24 Melrose Place, Kintore, Scotland",,,,Bronze partner,Partner since 2018,Xero advisor certified,,,,,,Mark Corney,Financial Consultant,"Marketing, advertising and consulting",,"24 Melrose Place, Kintore, AB51 0SY, Scotland",+44 7929087936,,,,,,,,,,,,,,,,,,
Walters & Company (Accountants) Limited,"High Street, Great Dunmow, England",Accountant,http://waltersandcompany.co.uk,+44 01371 878228,,Bronze partner,Partner since 2017,Xero advisor certified,,,,,,,,,,"High Street, Great Dunmow, CM6 1UU, England",+44 01371 878228,,,,,,,,,,,,,,,,,,
Sarah Mann Accountancy & Tax Services,"Dovehayes, Mill Lane, Bourton, Dorset",Accountant,https://www.sarahmannaccountancy.co.uk,+44 1747841212,,Bronze partner,Partner since 2014,Xero advisor certified,,,,,,Sarah Mann,Chartered Accountant,,,"Dovehayes, Mill Lane, Bourton, Dorset, SP8 5DA",+44 1747841212,,,,,,,,,,,,,,,,,,
BDM Chartered Accountants,"Anna House, Dunmurry Office Park, 37a Upper Dunmurry Lane, Belfast",Accountant,http://www.bdmca.co.uk,+44 2890601400,,Bronze partner,Partner since 2012,Xero advisor certified,,,,,,,,,,"Anna House, Dunmurry Office Park, 37a Upper Dunmurry Lane, Belfast",+44 2890601400,,,,,,,,,,,,,,,,,,
Flourish Accountants & Business Advisors,"Clasper Way, Swalwell, England",Accountant,http://www.flourishaccountants.co.uk,+191 4066550,,Bronze partner,Partner since 2014,Xero advisor certified,,,https://www.facebook.com/FlourishAccountants/,,,,,,AutoEntry,"Clasper Way, Swalwell, NE16 3BE, England",+191 4066550,,,,,,,,,,,,,,,,,,
Alys Stuart Accountancy,"59 Goldburn Close, Preston, Lancashire",Accountant,http://www.alysstuartaccountancy.co.uk,+44 7780221048,,Bronze partner,Partner since 2015,Xero advisor certified,,,,,,,,"E-commerce, 
Construction and trades, 
Marketing, advertising and consulting","AutoEntry, 
A2X for Amazon","59 Goldburn Close, Preston, PR2 7AE, Lancashire",+44 7780221048,,,,,,,,,,,,,,,,,,
Bizzebooks,"WD3 5SQ, Chorleywood, England",Accountant,http://www.Bizzebooks.co.uk,+192 3283995,,Bronze partner,Partner since 2017,Xero advisor certified,,,,,,,,,AutoEntry,"WD3 5SQ, Chorleywood, WD3 5SQ, England",+192 3283995,,,,,,,,,,,,,,,,,,
Tenon,"Unit 3, Gateway Business Park, Beancros Road, Grangemouth",Accountant,http://www.tenongroup.com,+44 1324475700,,Bronze partner,Partner since 2009,Xero advisor certified,,,,,,,,,,"Unit 3, Gateway Business Park, Beancros Road, Grangemouth",+44 1324475700,,,,,,,,,,,,,,,,,,
BNA Consulting Services Ltd,"W2 6BD, , ",Accountant,http://www.bnaconsulting.co.uk,+44 (0)2089919910,,Bronze partner,Partner since 2018,Xero advisor certified,,,https://www.facebook.com/bnaconsultingltd/,,https://www.linkedin.com/company/11812701/,,,,,"W2 6BD, , W2 6BD, ",+44 (0)2089919910,,,,,,,,,,,,,,,,,,
SH Accounting Solutions Ltd,"WD18 0QY, Watford, England",Accountant,http://www.shaccountingsolutions.com,+44 7585835122,,Bronze partner,Partner since 2019,Xero advisor certified,,,https://www.facebook.com/SHAccountingSolutions/,,,,,,,"WD18 0QY, Watford, WD18 0QY, England",+44 7585835122,,,,,,,,,,,,,,,,,,
The Profit Key,"Lower Church Street, Prince William House, 10 Lower Church Street, Ashby de la Zouch, LE65 1AB, Ashby-de-la-Zouch, England",Accountant,http://www.theprofitkey.co.uk,+44 01530 416555,,Bronze partner,Partner since 2016,Xero advisor certified,,,https://www.facebook.com/theprofitkey,https://www.twitter.com/TheProfitKey,http://www.linkedin.com/company/the-profit-key,,,,,"Lower Church Street, Prince William House, 10 Lower Church Street, Ashby de la Zouch, LE65 1AB, Ashby-de-la-Zouch, LE65 1AB, England",+44 01530 416555,,,,,,,,,,,,,,,,,,
Rural Business Hub,"Rural Business Hub, The Old Post Office, Hurstbourne Tarrant, England",Bookkeeper,http://www.ruralbusinesshub.co.uk,+44 1264736191,,Bronze partner,Partner since 2014,Xero advisor certified,,,https://www.facebook.com/ruralbusinesshub/,https://www.twitter.com/RuralBusHub,https://www.linkedin.com/in/caroline-reeves-15080639/,,,"Professional services, 
Agriculture",AutoEntry,"Rural Business Hub, The Old Post Office, Hurstbourne Tarrant, SP11 0AS, England",+44 1264736191,,,,,,,,,,,,,,,,,,
CJ Accountancy Services Ltd,"49 Roding Drive, Kelvedon Hatch, England",Accountant,http://www.cjaccountancyservices.co.uk,+127 424988,,Bronze partner,Partner since 2016,Xero advisor certified,,,,,,,,,Receipt Bank,"49 Roding Drive, Kelvedon Hatch, CM15 0XA, England",+127 424988,,,,,,,,,,,,,,,,,,
D P Accounting Limited,"Sheepbridge Lane, The Accounting House, Chesterfield, England",Accountant,http://dpaccounting.co.uk,+44 01246451133,,Bronze partner,Partner since 2011,Xero advisor certified,,,https://www.facebook.com/DPAccountingUK/?ref=bookmarks,https://www.twitter.com/DPAccountingUK,https://www.linkedin.com/in/dp-accounting-592575aa/,katie price,Client Manager,,,"Sheepbridge Lane, The Accounting House, Chesterfield, S41 9RX, England",+44 01246451133,,,,,,,,,,,,,,,,,,
Walden Way & Co,"E16 1YL, Unit A3, Gateway Tower, 32 Western Gateway, London, England",Accountant,http://www.waldenway.co.uk,+44 02034411205,,Bronze partner,Partner since 2015,Xero advisor certified,,,https://www.facebook.com/Walden-Way-Co-1445764392348925,,https://www.linkedin.com/company/walden-way-&-co-/about/,,,,,"E16 1YL, Unit A3, Gateway Tower, 32 Western Gateway, London, E16 1YL, England",+44 02034411205,,,,,,,,,,,,,,,,,,
Stephen Quay Accountancy,"The Granary, Hinton Business Park, Tarrant Hinton, Blandford Forum, DT11 8JF, First floor, Tarrant Hinton, England",Accountant,http://www.sqaccountancy.co.uk,+44 1258830713,,Bronze partner,Partner since 2012,Xero advisor certified,,,,,,Stephen Quay,Principal Partner,Professional services,,"The Granary, Hinton Business Park, Tarrant Hinton, Blandford Forum, DT11 8JF, First floor, Tarrant Hinton, DT11 8JF, England",+44 1258830713,,,,,,,,,,,,,,,,,,
Staceys Accountants Ltd,"West Common, Rivers Lodge, Harpenden, England",Accountant,http://staceys.uk.com,+44 1582 287302,,Bronze partner,Partner since 2017,Xero advisor certified,,,,,,,,,,"West Common, Rivers Lodge, Harpenden, AL5 2JN, England",+44 1582 287302,,,,,,,,,,,,,,,,,,
Alfred A Malnick & Co.,"420A Streatham High Road, Accountax House, London, England",Accountant,http://www.chaturaam.com,+44 02086777113,,Bronze partner,Partner since 2019,Xero advisor certified,,,https://www.facebook.com/AlfredAMalnickCo,https://www.twitter.com/AAMALNICK,,Benazir Chatur,Practice Manager,,,"420A Streatham High Road, Accountax House, London, SW16 3SN, England",+44 02086777113,,,,,,,,,,,,,,,,,,
"Cirrus9, Chartered Accountants","Rowan Avenue, T33 Rowan Avenue, Dublin, County Dublin",Accountant,https://cirrus9.ie/xero-experts/,+353 15175211,,Bronze partner,Partner since 2018,Xero advisor certified,,,https://www.facebook.com/Cirrus9IRL,https://www.twitter.com/Cirrus9Advisory,https://www.linkedin.com/company/cirrus9irl,Robert  Kelly FCA,Founder & CEO,"Utilities, 
Professional services",,"Rowan Avenue, T33 Rowan Avenue, Dublin, County Dublin",+353 15175211,,,,,,,,,,,,,,,,,,
Invaluable Ltd,"13 Westminster Green, Chester, England",Bookkeeper,http://www.invaluableva.com/,+44 01244 743365,,Bronze partner,Partner since 2017,Xero advisor certified,,,https://www.facebook.com/InvaluableCarla/,https://www.twitter.com/InvaluableCarla,https://www.linkedin.com/in/carlafallows,,,,,"13 Westminster Green, Chester, CH4 7LE, England",+44 01244 743365,,,,,,,,,,,,,,,,,,
Trusted Tax Advisers,"14 Chertsey Road, Suite 285, Woking, England",Accountant,http://www.trustedtaxadvisers.co.uk,+44 1483723781,,Bronze partner,Partner since 2018,Xero advisor certified,,,,,,,,Construction and trades,Receipt Bank,"14 Chertsey Road, Suite 285, Woking, GU21 5AH, England",+44 1483723781,"12 Constance Street, London, E16 2DQ, England",,,,,,,,,,,,,,,,,
ZSC Accountancy,"15 Wyton, Welwyn Garden City, England",Accountant,#,+44 7866670531,,Bronze partner,Partner since 2018,Xero advisor certified,,,https://www.facebook.com/ZSCAccountancy/,,,Zoe Collins,Accountant,,"AutoEntry, 
Receipt Bank","15 Wyton, Welwyn Garden City, AL7 2PE, England",+44 7866670531,,,,,,,,,,,,,,,,,,
Always Accounting Limited,"Cherwell Road, Suite C Bank Buildings, Heathfield, England",Accountant,http://www.alwaysaccounting.co.uk,+44 01435898180,,Bronze partner,Partner since 2016,Xero advisor certified,,,https://www.facebook.com/alwaysaccounting/,https://www.twitter.com/alwaysaccts,,,,,Receipt Bank,"Cherwell Road, Suite C Bank Buildings, Heathfield, TN21 8JT, England",+44 01435898180,"TN22 1SL, Suite D, Eden House, The Office Village, River Way, Uckfield, TN22 1SL, England",+44 07500603287,,,,,,,,,,,,,,,,
Grant Jones Accountancy,"Unit 003, Basepoint Business Centre, 377-399 London Road, Camberley, Surrey",Accountant,http://www.grant-jonesaccountancy.com/,+44 8454672636,,Bronze partner,Partner since 2012,Xero advisor certified,,,,,,,,,"FUTRLI, 
Receipt Bank","Unit 003, Basepoint Business Centre, 377-399 London Road, Camberley, Surrey, GU15 1HD",+44 8454672636,,,,,,,,,,,,,,,,,,
The Accounting Equation,"10 Parade Street, Penzance, England",Accountant,http://www.the-accounting-equation.co.uk,+44 01736 330386,,Bronze partner,Partner since 2014,Xero advisor certified,,,https://www.facebook.com/theaccountingequation/?ref=admin_hovercard,,,,,,,"10 Parade Street,  , Penzance, TR18 4BU, England",+44 01736 330386,,,,,,,,,,,,,,,,,,
Ascentant Accountants,"Colyear Street, Derby, England",Bookkeeper,http://www.ascentant-accountants.co.uk,+44 01332 897356,,Bronze partner,Partner since 2016,Xero advisor certified,,,https://www.facebook.com/ascentant/,https://www.twitter.com/ascentantltd,,Kevin Drew,Director,Professional services,,"Colyear Street, Derby, DE1 1LJ, England",+44 01332 897356,"Friar Lane, Nottingham, NG1 6DQ, England",+44 0115 698 0260,,,,,,,,,,,,,,,,
Clear House Accountants,"582 Honeypot Lane, Devonshire House, Stanmore, England",Accountant,http://chacc.co.uk,+44 2071172639,,Bronze partner,Partner since 2014,Xero advisor certified,,,https://www.facebook.com/clearhouseaccountants/,https://www.twitter.com/chaccountants,https://www.linkedin.com/company/clear-house-accountants/,,,,Receipt Bank,"582 Honeypot Lane, Devonshire House, Stanmore, HA7 1JS, England",+44 2071172639,,,,,,,,,,,,,,,,,,
Gator Accounting,"24 Stanton Close, Epsom, England",Bookkeeper,http://www.gatoraccounting.co.uk,+44 01737904222,,Bronze partner,Partner since 2018,Xero advisor certified,,,,https://www.twitter.com/gatoraccounting,,Jake Dobbs,Owner,Construction and trades,Hubdoc,"24 Stanton Close, Epsom, KT19 9NP, England",+44 01737904222,,,,,,,,,,,,,,,,,,
"Harris Accountancy & Tax Ltd t/a HAT, Chartered Accountants","27 Swan Lane, London, England",Accountant,https://www.facebook.com/HATTAX/,+44 07779664382,,Bronze partner,Partner since 2018,Xero advisor certified,,,https://www.facebook.com/HATTAX/,,https://www.linkedin.com/in/howard-harris-1931961/,Howard Harris,Director,,,"27 Swan Lane, London, N20, England",+44 07779664382,,,,,,,,,,,,,,,,,,
Letcliffe Business Services Ltd,"Skipton Road, Unit A Vicarage Business Park, Barnoldswick, England",Accountant,http://www.letcliffebusinessservices.co.uk,+44 1282816560,,Bronze partner,Partner since 2016,Xero advisor certified,,,https://www.facebook.com/Letcliffe-Business-Services-272732032775206/,,,Jennifer Holt,Director,,,"Skipton Road, Unit A Vicarage Business Park, Barnoldswick, BB18 5EG, England",+44 1282816560,,,,,,,,,,,,,,,,,,
Simply Accounts,"Handbridge, First Floor 20a, Chester, England",Accountant,http://www.simply-accounts.com,+44 1244820668,,Bronze partner,Partner since 2017,Xero advisor certified,,,https://www.facebook.com/simplyaccountsnw/,,https://www.linkedin.com/company/simply-accounts-nw/,Michael Wilson,Managing Director,,,"Handbridge, First Floor 20a, Chester, CH4 7JE, England",+44 1244820668,,,,,,,,,,,,,,,,,,
MYCA Chartered Accountants,"Sligo, Strandhill Enterprise Centre, Strandhill Co Sligo. , Sligo, County Sligo",Accountant,http://www.myca.ie,+353 0719103200,,Bronze partner,Partner since 2017,Xero advisor certified,,,https://www.facebook.com/MYCAIive/,https://www.twitter.com/MYCAlive,,,,,,"Sligo, Strandhill Enterprise Centre, Strandhill Co Sligo. , Sligo, County Sligo",+353 0719103200,,,,,,,,,,,,,,,,,,
Macleod Fulton,"West Princes Street, Scottcourt House, Helensburgh, Scotland",Accountant,http://www.macleodfultonca.co.uk,+44 1436671477,,Bronze partner,Partner since 2018,Xero advisor certified,,,https://www.facebook.com/macleodfulton/,,,,,,,"West Princes Street, Scottcourt House, Helensburgh, G84 8BP, Scotland",+44 1436671477,,,,,,,,,,,,,,,,,,
Certax Accounting (Central & East Norwich) Ltd,"Regus UK, Cavell House, St. Crispins Road, Norwich",Accountant,http://www.certax.co.uk/Accountants/South-East/Central-and-East-Norwich.htm,+44 1603821014,,Bronze partner,Partner since 2014,Xero advisor certified,,,,,,,,Healthcare and social services,"AutoEntry, 
Receipt Bank","Regus UK, Cavell House, St. Crispins Road, Norwich, NR3 1YE",+44 1603821014,,,,,,,,,,,,,,,,,,
Haffner Hoff Ltd,"Bury New Road, 2nd Floor - Parkgates, Prestwich, England",Accountant,https://www.haffnerhoff.co.uk/,+44 161 798 1660,,Bronze partner,Partner since 2013,Xero advisor certified,,,,,,,,,,"Bury New Road, 2nd Floor - Parkgates, Prestwich, M25 0TL, England",+44 161 798 1660,,,,,,,,,,,,,,,,,,
"Hardy Colvin, Chartered Accountants","9 Cathburn Road, Wishaw, Scotland",Accountant,http://www.hardycolvin.co.uk,+44 01698 387 689,,Bronze partner,Partner since 2017,Xero advisor certified,,,,,,,,"Professional services, 
Marketing, advertising and consulting",,"9 Cathburn Road, Wishaw, ML2 9QL, Scotland",+44 01698 387 689,,,,,,,,,,,,,,,,,,
Grampian Accounting,"3 Prospect Place, Westhill, Scotland",Accountant,http://www.grampianaccounting.co.uk,+44 01224748298,,Bronze partner,Partner since 2015,Xero advisor certified,,,https://www.facebook.com/GrampianAccounting/,https://www.twitter.com/GrampAccounting,https://www.linkedin.com/company/grampianaccounting/,,,,Receipt Bank,"3 Prospect Place, Westhill, AB32 6SY, Scotland",+44 01224748298,,,,,,,,,,,,,,,,,,
Luci Pollard Ltd,"150 Bridge Street, Wye, England",Bookkeeper,http://lucipollardltd.co.uk,+44 1233 813213,,Bronze partner,Partner since 2018,Xero advisor certified,,,,,,,,,,"150 Bridge Street, Wye, TN25 5DP, England",+44 1233 813213,,,,,,,,,,,,,,,,,,
MCC Accountants (Scotland) Ltd.,"4 Burnfield Avenue, Suites 2/3, Giffnock, Scotland",Accountant,https://morrisonscca.co.uk/,+44 1416331901,,Bronze partner,Partner since 2017,Xero advisor certified,,,https://www.facebook.com/MCCAccountants/,https://www.twitter.com/morrisonscca,https://www.linkedin.com/in/andrewemorrison/,,,,,"4 Burnfield Avenue, Suites 2/3, Giffnock, G46 7TP, Scotland",+44 1416331901,,,,,,,,,,,,,,,,,,
Mills & Co Accountants,"16 Trinity Square, Llandudno, Wales",Accountant,http://www.millsco.co.uk,+44 01492 862865,,Bronze partner,Partner since 2016,Xero advisor certified,,,https://www.facebook.com/millscouk/,https://www.twitter.com/Millscouk,https://www.linkedin.com/company/mills-&-co-chartered-certified-accountants/,,,,AutoEntry,"16 Trinity Square, Llandudno, LL30 2DE, Wales",+44 01492 862865,,,,,,,,,,,,,,,,,,
LA Bookkeeping and Accountancy,"Menheniot, Menheniot, England",Accountant,,,,Bronze partner,Partner since 2016,Xero advisor certified,,,,,,,,Accommodation and hospitality,Receipt Bank,"Menheniot, Menheniot, PL14, England",+44 7717696723,,,,,,,,,,,,,,,,,,
Ian Youngson Financial Services,"Sevenoaks, Sevenoaks, England",Accountant,,,,Bronze partner,Partner since 2018,Xero advisor certified,,,,,,Ian Colin Youngson,Founder and Managing Director,,,"Sevenoaks, Sevenoaks, England",+44 7803244204,,,,,,,,,,,,,,,,,,
Price Accountancy Services,"The Avenue, Beckenham, England",Bookkeeper,http://www.priceaccounts.co.uk/,+44 2086582275,,Bronze partner,Partner since 2016,Xero advisor certified,,,,,,,,,,"The Avenue, Beckenham, England",+44 2086582275,,,,,,,,,,,,,,,,,,
ADP Accounting Limited,"19 Farrow Close, Mattishall, England",Accountant,http://www.adpaccounting.co.uk,+44 1362350013,,Bronze partner,Partner since 2017,Xero advisor certified,,,https://www.facebook.com/DerehamAccountant/,,,Pauline Street,Director,,GoCardless,"19 Farrow Close, Mattishall, NR20, England",+44 1362350013,,,,,,,,,,,,,,,,,,
David Coleman and Co Limited,"51 Portland Street, Sutton-in-Ashfield",Accountant,http://www.davidcolemanandco.co.uk,+44 1623553378,,Bronze partner,Partner since 2013,Xero advisor certified,,,,,,,,,,"51 Portland Street, Sutton-in-Ashfield, NG17 1AZ",+44 1623553378,,,,,,,,,,,,,,,,,,
J. A. Neale,"53 Aspal Lane, Bury St Edmunds, Beck Row, England",Bookkeeper,http://www.janeale.co.uk,+44 01223 926876,,Bronze partner,Partner since 2013,Xero advisor certified,,,https://www.facebook.com/janealebookkeeping,https://www.twitter.com/JennyNeale,https://www.linkedin.com/in/janeale,Jenny Neale,Practice Owner,,Receipt Bank,"53 Aspal Lane, Bury St Edmunds, Beck Row, IP28 8AT, England",+44 01223 926876,,,,,,,,,,,,,,,,,,
MMDN & Co,"Paul Street, 86-90, London, England",Accountant,,,,Bronze partner,Partner since 2016,Xero advisor certified,,,,,,Manish Kotecha,Senior Partner,Mining,"Receipt Bank, 
DataDear","Paul Street, 86-90, London, EC2A 4JH, England",,,,,,,,,,,,,,,,,,,
Moaden Accounting Ltd,"40 Bank Street, London, England",Accountant,https://www.moaden.co.uk,+44 02030594585,,Bronze partner,Partner since 2018,Xero advisor certified,,,https://www.facebook.com/Moaden.co.uk/,https://www.twitter.com/MoadenAccounti1,https://www.linkedin.com/company/moaden-accounting/,,,,,"40 Bank Street, London, E14 5NR, England",+44 02030594585,,,,,,,,,,,,,,,,,,
Nikki Knott,"Horsham, Horsham, England",Bookkeeper,http://www.nikkiknott.co.uk,+44 7583483428,,Bronze partner,Partner since 2014,Xero advisor certified,,,,,,,,,Receipt Bank,"Horsham, Horsham, England",+44 7583483428,"KT4, Worcester Park, KT4, England",+44 07583483428,,,,,,,,,,,,,,,,
Greenway Accountancy LTD,"152 City Road, London, England",Accountant,http://www.greenwayaccountancy.co.uk,+44 3333441494,,Bronze partner,Partner since 2016,Xero advisor certified,,,http://facebook.com/greenwayaccountancy,https://www.twitter.com/Greenwayaccount,,Greenway Accountancy,"Simplified, efficient and cost effective!",E-commerce,,"152 City Road, London, EC1V 2NX, England",+44 3333441494,"353 Upper Richmond Road West, London, SW14 8QN, England",+20 38533127,,,,,,,,,,,,,,,,
JGK Financial Management,"Gravel Hill Terrace, Hemel Hempstead, England",Accountant,http://www.jgkfinancialmanagement.com,+44 1442248823,,Bronze partner,Partner since 2017,Xero advisor certified,,,,https://www.twitter.com/JGK_FM,https://www.linkedin.com/company/11135487/admin/,,,,,"Gravel Hill Terrace, Hemel Hempstead, HP1 1RH, England",+44 1442248823,,,,,,,,,,,,,,,,,,
Shacklefords Chartered Accoutants,"6 Little Aston Lane, Sutton Coldfield, England",Accountant,http://Shacklefords.co.uk,+44 121 448 7466,,Bronze partner,Partner since 2019,Xero advisor certified,,,,,,,,Construction and trades,,"6 Little Aston Lane, Sutton Coldfield, B74 3UF, England",+44 121 448 7466,,,,,,,,,,,,,,,,,,
UC Consulting Services,"SL1 1AY, Slough, England",Accountant,http://www.ucspecialists.com,+44 208 133 8335,,Bronze partner,Partner since 2017,Xero advisor certified,,,,,,Usman Chughtai,Managing Partner,E-commerce,Receipt Bank,"SL1 1AY, Slough, SL1 1AY, England",+44 208 133 8335,"DHA Phase 3, Lahore, Punjab",+92 3214070611,,,,,,,,,,,,,,,,
Bowman Carter Accounancy,"23 North Dene, Birtley, England",Accountant,http://www.bcaccountancy.com,+44 07947467919,,Bronze partner,Partner since 2017,Xero advisor certified,,,https://www.facebook.com/bowmancarter/,,,Susan Bowman,AAT Licensed Accountant,,,"23 North Dene, Birtley, DH3 1PZ, England",+44 07947467919,,,,,,,,,,,,,,,,,,
Jems Bookkeeping & Accountancy Services Ltd,"CM22 7TL, Great Hallingbury, England",Accountant,http://www.jemsaccountancy.com,+44 07788781131,,Bronze partner,Partner since 2013,Xero advisor certified,,,https://www.facebook.com/Jems-Bookkeeping-Accountancy-Services-Ltd-215309171858759/,https://www.twitter.com/JemsBookkeeping,https://www.linkedin.com/company/jems-bookkeeping-&-accountancy-services-ltd/,,,"Manufacturing, 
Accommodation and hospitality",,"CM22 7TL, Great Hallingbury, CM22 7TL, England",+44 07788781131,,,,,,,,,,,,,,,,,,
P Edwards Accountancy Ltd,"77A Stafford Street, Willenhall, England",Accountant,http://www.pedwardsaccountancyltd.co.uk,+44 07871508509,,Bronze partner,Partner since 2018,Xero advisor certified,,,http://www.facebook.com/pedwardsaccountancy,,https://www.linkedin.com/in/pedwardsaccountancy/,Paul Edwards,Director,,,"77A Stafford Street, Willenhall, WV13 1RT, England",+44 07871508509,,,,,,,,,,,,,,,,,,
SB Figures Ltd,"Maypole Lane, Canterbury Office, Hoath, England",Bookkeeper,,,,Bronze partner,Partner since 2017,Xero advisor certified,,,,,,Sarah Bunby,Director,,,"Maypole Lane, Canterbury Office, Hoath, CT3 4LL, England",+44 01227 861071,,,,,,,,,,,,,,,,,,
Owen Farm Services,"DG11 3EP, Owen Farm Services, Middlebie, Scotland",Bookkeeper,http://owenfarmservices.co.uk,+44 1461600540,,Bronze partner,Partner since 2019,Xero advisor certified,,,http://facebook.com/farmadvice,https://www.twitter.com/farmadvice,,,,Agriculture,,"DG11 3EP, Owen Farm Services, Middlebie, DG11 3EP, Scotland",+44 1461600540,,,,,,,,,,,,,,,,,,
Arandur Accounting Limited,"3 Mersey Road, Worthing, England",Accountant,http://www.arandur-accounting.co.uk,+44 7757939305,,Bronze partner,Partner since 2013,Xero advisor certified,,,,https://www.twitter.com/aranduracct,,,,Professional services,"Receipt Bank, 
MyWorkpapers","3 Mersey Road, Worthing, BN13 3NQ, England",+44 7757939305,,,,,,,,,,,,,,,,,,
Allen Rose Chartered Certified Accountants,"Glaisher Drive, Wolverhampton Science Park, Wolverhampton, England",Accountant,http://www.allenrose.co.uk/,+44 01902 711768,,Bronze partner,Partner since 2014,Xero advisor certified,,,,,,,,,,"Glaisher Drive, Wolverhampton Science Park, Wolverhampton, WV10 9RU, England",+44 01902 711768,,,,,,,,,,,,,,,,,,
innoKey Solutions,"Bridge Close, Gordon House, Woking, England",Accountant,http://www.innokeysolutions.com,+44 01483 310333,,Bronze partner,Partner since 2018,Xero advisor certified,,,,,,,,,,"Bridge Close, Gordon House, Woking, GU21 4PD, England",+44 01483 310333,"GU34 2QQ, Alton, GU34 2QQ, England",+44 01483 310333,,,,,,,,,,,,,,,,
Bluejay Business Services Ltd,"3-5 John Street, @thisisbluejay, Gourock, Scotland",Accountant,http://www.thisisbluejay.com,+44 01475 603290,,Bronze partner,Partner since 2014,Xero advisor certified,,,http://www.facebook.com/thisisbluejay,https://www.twitter.com/thisisbluejay,https://www.linkedin.com/in/debra-anderson-a3562a54?lipi=urn%3Ali%3Apage%3Ad_flagship3_profile_view_base_contact_details%3BbjloT0USS6eU5OFYPt%2FRMA%3D%3D,Debra Anderson,Director,,,"3-5 John Street, @thisisbluejay, Gourock, PA19 1PR, Scotland",+44 01475 603290,,,,,,,,,,,,,,,,,,
Alchemy Accountancy Limited,"PR2 9YW, Fulwood, England",Accountant,https://www.alchemyaccountancy.com,+44 01772965550,,Bronze partner,Partner since 2018,Xero advisor certified,,,https://www.facebook.com/alchemyaccountancyltd/,https://www.twitter.com/alchemy_account,https://www.linkedin.com/company/alchemy-accountancy-limited,Craig McCall,Director,,Receipt Bank,"PR2 9YW, Fulwood, PR2 9YW, England",+44 01772965550,,,,,,,,,,,,,,,,,,
Business Partners,"WS12 2DB, Point South, Park Plaza, Heath Hayes, England",Accountant,http://www.bpaccountants.co.uk,+44 1543496833,,Bronze partner,Partner since 2018,Xero advisor certified,,,https://www.facebook.com/businesspartnersaccountants/?ref=aymt_homepage_panel,https://www.twitter.com/BPAccountants,http://www.linkedin.com/in/businesspartners/,,,,,"WS12 2DB, Point South, Park Plaza, Heath Hayes, WS12 2DB, England",+44 1543496833,,,,,,,,,,,,,,,,,,
Khan Thornton,"14-18 Heralds Way, South Woodham, England",Accountant,http://www.khanthornton.co.uk,+44 01245 328217,,Bronze partner,Partner since 2016,Xero advisor certified,,,http://fb.me/KhanThornton,https://www.twitter.com/KhanThorntonAcc,,,,Construction and trades,Receipt Bank,"14-18 Heralds Way, South Woodham, CM3 5TQ, England",+44 01245 328217,,,,,,,,,,,,,,,,,,
SHBK,"Rugeley Road, 1.24 Cannock Chase Enterprise Centre, Hednesford, England",Bookkeeper,https://www.shbk.co.uk,+44 01543 876025,,Bronze partner,Partner since 2015,Xero advisor certified,,,http://facebook.com/shbk.uk,https://www.twitter.com/shbk_uk,http://www.linkedin.com/company/sarah-hall-bookkeeper,Sarah Hall,Director,,,"Rugeley Road, 1.24 Cannock Chase Enterprise Centre, Hednesford, WS12 0QU, England",+44 01543 876025,,,,,,,,,,,,,,,,,,
Sahadevan & Co,"IG6 1GL, Flat 2, Gregg House, 6 Cripps Close, Ilford, England",Accountant,http://sahadevan.co.uk,+44 07834482142,,Bronze partner,Partner since 2018,Xero advisor certified,,,,,,,,,,"IG6 1GL, Flat 2, Gregg House, 6 Cripps Close, Ilford, IG6 1GL, England",+44 07834482142,,,,,,,,,,,,,,,,,,
Rocket Accounts,"Paul Street, London, England",Accountant,http://rocketaccounts.com,+44 020 3239 0520,,Bronze partner,Partner since 2018,Xero advisor certified,,,https://www.facebook.com/RocketAccounts,,https://www.linkedin.com/in/retail-leisure-accountants/,Alasdair Graham,"Owner, RocketAccounts.com",,,"Paul Street, London, EC2A, England",+44 020 3239 0520,,,,,,,,,,,,,,,,,,
Root2growth Ltd,"Paul Street, London, England","15 Dix's Field, Exeter, England",,,,Bronze partner,Partner since 2018,Xero advisor certified,,,,https://www.twitter.com/root2growthinfo,https://www.linkedin.com/in/rayanne-armand-158a5367/?originalSubdomain=uk,Rayanne Armand,,,,"15 Dix's Field, Exeter, EX1 1UZ, England",+44 01392927476,,,,,,,,,,,,,,,,,,
CQ Bookkeeping and Payroll,"PO6 4UG, Lock Approach, Portsmouth, England",Accountant,http://www.cqbookkeeping.co.uk,+44 07769347875,,Bronze partner,Partner since 2012,Xero advisor certified,,,,,,,,,,"PO6 4UG, Lock Approach, Portsmouth, PO6 4UG, England",+44 07769347875,,,,,,,,,,,,,,,,,,
